[{"postcode":"2838","lat":123,"lng":456},{"postcode":"2450","lat":123,"lng":456},{"postcode":"4207","lat":123,"lng":456},{"postcode":"4207","lat":123,"lng":456},{"postcode":"4207","lat":123,"lng":456},{"postcode":"3020","lat":123,"lng":456},{"postcode":"2207","lat":123,"lng":456},{"postcode":"2640","lat":123,"lng":456},{"postcode":"7215","lat":123,"lng":456},{"postcode":"2535","lat":123,"lng":456},{"postcode":"2142","lat":123,"lng":456},{"postcode":"2400","lat":123,"lng":456},{"postcode":"2594","lat":123,"lng":456},{"postcode":"3741","lat":123,"lng":456},{"postcode":"2400","lat":123,"lng":456},{"postcode":"2170","lat":123,"lng":456},{"postcode":"2450","lat":123,"lng":456},{"postcode":"7250","lat":123,"lng":456},{"postcode":"7253","lat":123,"lng":456},{"postcode":"2840","lat":123,"lng":456},{"postcode":"2259","lat":123,"lng":456},{"postcode":"2034","lat":123,"lng":456},{"postcode":"2577","lat":123,"lng":456},{"postcode":"2000","lat":123,"lng":456},{"postcode":"2150","lat":123,"lng":456},{"postcode":"2150","lat":123,"lng":456},{"postcode":"2150","lat":123,"lng":456},{"postcode":"2150","lat":123,"lng":456},{"postcode":"2000","lat":123,"lng":456},{"postcode":"2150","lat":123,"lng":456},{"postcode":"2665","lat":123,"lng":456},{"postcode":"2665","lat":123,"lng":456},{"postcode":"2828","lat":123,"lng":456},{"postcode":"2460","lat":123,"lng":456},{"postcode":"2456","lat":123,"lng":456},{"postcode":"2795","lat":123,"lng":456},{"postcode":"3019","lat":123,"lng":456},{"postcode":"2000","lat":123,"lng":456},{"postcode":"2088","lat":123,"lng":456},{"postcode":"2840","lat":123,"lng":456},{"postcode":"2074","lat":123,"lng":456},{"postcode":"2715","lat":123,"lng":456},{"postcode":"2009","lat":123,"lng":456},{"postcode":"2083","lat":123,"lng":456},{"postcode":"2340","lat":123,"lng":456},{"postcode":"2839","lat":123,"lng":456},{"postcode":"2583","lat":123,"lng":456},{"postcode":"3971","lat":123,"lng":456},{"postcode":"3959","lat":123,"lng":456},{"postcode":"2454","lat":123,"lng":456},{"postcode":"3936","lat":123,"lng":456},{"postcode":"4034","lat":123,"lng":456},{"postcode":"3127","lat":123,"lng":456},{"postcode":"2473","lat":123,"lng":456},{"postcode":"4112","lat":123,"lng":456},{"postcode":"2550","lat":123,"lng":456},{"postcode":"2671","lat":123,"lng":456},{"postcode":"3573","lat":123,"lng":456},{"postcode":"2617","lat":123,"lng":456},{"postcode":"2585","lat":123,"lng":456},{"postcode":"2142","lat":123,"lng":456},{"postcode":"2541","lat":123,"lng":456},{"postcode":"2450","lat":123,"lng":456},{"postcode":"2642","lat":123,"lng":456},{"postcode":"2460","lat":123,"lng":456},{"postcode":"3701","lat":123,"lng":456},{"postcode":"2405","lat":123,"lng":456},{"postcode":"3085","lat":123,"lng":456},{"postcode":"2843","lat":123,"lng":456},{"postcode":"2840","lat":123,"lng":456},{"postcode":"2074","lat":123,"lng":456},{"postcode":"2533","lat":123,"lng":456},{"postcode":"2177","lat":123,"lng":456},{"postcode":"2147","lat":123,"lng":456},{"postcode":"3487","lat":123,"lng":456},{"postcode":"2031","lat":123,"lng":456},{"postcode":"2020","lat":123,"lng":456},{"postcode":"2590","lat":123,"lng":456},{"postcode":"4006","lat":123,"lng":456},{"postcode":"2551","lat":123,"lng":456},{"postcode":"2170","lat":123,"lng":456},{"postcode":"2088","lat":123,"lng":456},{"postcode":"2450","lat":123,"lng":456},{"postcode":"4109","lat":123,"lng":456},{"postcode":"3723","lat":123,"lng":456},{"postcode":"2484","lat":123,"lng":456},{"postcode":"2484","lat":123,"lng":456},{"postcode":"2700","lat":123,"lng":456},{"postcode":"2420","lat":123,"lng":456},{"postcode":"3199","lat":123,"lng":456},{"postcode":"2722","lat":123,"lng":456},{"postcode":"2422","lat":123,"lng":456},{"postcode":"2604","lat":123,"lng":456},{"postcode":"3677","lat":123,"lng":456},{"postcode":"2250","lat":123,"lng":456},{"postcode":"4505","lat":123,"lng":456},{"postcode":"2849","lat":123,"lng":456},{"postcode":"2137","lat":123,"lng":456},{"postcode":"2477","lat":123,"lng":456},{"postcode":"2700","lat":123,"lng":456},{"postcode":"2259","lat":123,"lng":456},{"postcode":"2519","lat":123,"lng":456},{"postcode":"2569","lat":123,"lng":456},{"postcode":"2152","lat":123,"lng":456},{"postcode":"2539","lat":123,"lng":456},{"postcode":"2462","lat":123,"lng":456},{"postcode":"2194","lat":123,"lng":456},{"postcode":"2194","lat":123,"lng":456},{"postcode":"2470","lat":123,"lng":456},{"postcode":"2770","lat":123,"lng":456},{"postcode":"3810","lat":123,"lng":456},{"postcode":"3168","lat":123,"lng":456},{"postcode":"2200","lat":123,"lng":456},{"postcode":"3941","lat":123,"lng":456},{"postcode":"2343","lat":123,"lng":456},{"postcode":"2031","lat":123,"lng":456},{"postcode":"2000","lat":123,"lng":456},{"postcode":"2850","lat":123,"lng":456},{"postcode":"2846","lat":123,"lng":456},{"postcode":"2827","lat":123,"lng":456},{"postcode":"2040","lat":123,"lng":456},{"postcode":"3885","lat":123,"lng":456},{"postcode":"7310","lat":123,"lng":456},{"postcode":"2466","lat":123,"lng":456},{"postcode":"2469","lat":123,"lng":456},{"postcode":"2770","lat":123,"lng":456},{"postcode":"3909","lat":123,"lng":456},{"postcode":"3977","lat":123,"lng":456},{"postcode":"2194","lat":123,"lng":456},{"postcode":"2194","lat":123,"lng":456},{"postcode":"2134","lat":123,"lng":456},{"postcode":"2710","lat":123,"lng":456},{"postcode":"2652","lat":123,"lng":456},{"postcode":"3083","lat":123,"lng":456},{"postcode":"4870","lat":123,"lng":456},{"postcode":"2533","lat":123,"lng":456},{"postcode":"3889","lat":123,"lng":456},{"postcode":"3889","lat":123,"lng":456},{"postcode":"2617","lat":123,"lng":456},{"postcode":"2170","lat":123,"lng":456},{"postcode":"2480","lat":123,"lng":456},{"postcode":"2680","lat":123,"lng":456},{"postcode":"2680","lat":123,"lng":456},{"postcode":"2827","lat":123,"lng":456},{"postcode":"2560","lat":123,"lng":456},{"postcode":"2450","lat":123,"lng":456},{"postcode":"2560","lat":123,"lng":456},{"postcode":"2483","lat":123,"lng":456},{"postcode":"2193","lat":123,"lng":456},{"postcode":"2411","lat":123,"lng":456},{"postcode":"2487","lat":123,"lng":456},{"postcode":"3915","lat":123,"lng":456},{"postcode":"3833","lat":123,"lng":456},{"postcode":"2217","lat":123,"lng":456},{"postcode":"2823","lat":123,"lng":456},{"postcode":"2343","lat":123,"lng":456},{"postcode":"2830","lat":123,"lng":456},{"postcode":"2144","lat":123,"lng":456},{"postcode":"2134","lat":123,"lng":456},{"postcode":"2134","lat":123,"lng":456},{"postcode":"2360","lat":123,"lng":456},{"postcode":"2817","lat":123,"lng":456},{"postcode":"2340","lat":123,"lng":456},{"postcode":"2114","lat":123,"lng":456},{"postcode":"2650","lat":123,"lng":456},{"postcode":"4075","lat":123,"lng":456},{"postcode":"7467","lat":123,"lng":456},{"postcode":"2725","lat":123,"lng":456},{"postcode":"4067","lat":123,"lng":456},{"postcode":"2640","lat":123,"lng":456},{"postcode":"2762","lat":123,"lng":456},{"postcode":"3136","lat":123,"lng":456},{"postcode":"2632","lat":123,"lng":456},{"postcode":"2541","lat":123,"lng":456},{"postcode":"2170","lat":123,"lng":456},{"postcode":"2450","lat":123,"lng":456},{"postcode":"2000","lat":123,"lng":456},{"postcode":"2540","lat":123,"lng":456},{"postcode":"2034","lat":123,"lng":456},{"postcode":"2061","lat":123,"lng":456},{"postcode":"2066","lat":123,"lng":456},{"postcode":"2021","lat":123,"lng":456},{"postcode":"3909","lat":123,"lng":456},{"postcode":"4870","lat":123,"lng":456},{"postcode":"4871","lat":123,"lng":456},{"postcode":"2192","lat":123,"lng":456},{"postcode":"2192","lat":123,"lng":456},{"postcode":"2218","lat":123,"lng":456},{"postcode":"2564","lat":123,"lng":456},{"postcode":"2480","lat":123,"lng":456},{"postcode":"2766","lat":123,"lng":456},{"postcode":"2135","lat":123,"lng":456},{"postcode":"3892","lat":123,"lng":456},{"postcode":"2540","lat":123,"lng":456},{"postcode":"2560","lat":123,"lng":456},{"postcode":"2283","lat":123,"lng":456},{"postcode":"2204","lat":123,"lng":456},{"postcode":"2830","lat":123,"lng":456},{"postcode":"2040","lat":123,"lng":456},{"postcode":"2040","lat":123,"lng":456},{"postcode":"2036","lat":123,"lng":456},{"postcode":"3818","lat":123,"lng":456},{"postcode":"2190","lat":123,"lng":456},{"postcode":"3714","lat":123,"lng":456},{"postcode":"2625","lat":123,"lng":456},{"postcode":"2145","lat":123,"lng":456},{"postcode":"2402","lat":123,"lng":456},{"postcode":"3227","lat":123,"lng":456},{"postcode":"2204","lat":123,"lng":456},{"postcode":"2622","lat":123,"lng":456},{"postcode":"2195","lat":123,"lng":456},{"postcode":"2780","lat":123,"lng":456},{"postcode":"2832","lat":123,"lng":456},{"postcode":"4380","lat":123,"lng":456},{"postcode":"2745","lat":123,"lng":456},{"postcode":"3046","lat":123,"lng":456},{"postcode":"2010","lat":123,"lng":456},{"postcode":"2381","lat":123,"lng":456},{"postcode":"2114","lat":123,"lng":456},{"postcode":"2315","lat":123,"lng":456},{"postcode":"2315","lat":123,"lng":456},{"postcode":"2022","lat":123,"lng":456},{"postcode":"2022","lat":123,"lng":456},{"postcode":"2370","lat":123,"lng":456},{"postcode":"2107","lat":123,"lng":456},{"postcode":"2540","lat":123,"lng":456},{"postcode":"7276","lat":123,"lng":456},{"postcode":"2832","lat":123,"lng":456},{"postcode":"2022","lat":123,"lng":456},{"postcode":"3738","lat":123,"lng":456},{"postcode":"3233","lat":123,"lng":456},{"postcode":"2785","lat":123,"lng":456},{"postcode":"2061","lat":123,"lng":456},{"postcode":"3844","lat":123,"lng":456},{"postcode":"4101","lat":123,"lng":456},{"postcode":"4101","lat":123,"lng":456},{"postcode":"2050","lat":123,"lng":456},{"postcode":"2779","lat":123,"lng":456},{"postcode":"2370","lat":123,"lng":456},{"postcode":"2325","lat":123,"lng":456},{"postcode":"2331","lat":123,"lng":456},{"postcode":"3186","lat":123,"lng":456},{"postcode":"2304","lat":123,"lng":456},{"postcode":"2293","lat":123,"lng":456},{"postcode":"3162","lat":123,"lng":456},{"postcode":"3371","lat":123,"lng":456},{"postcode":"3777","lat":123,"lng":456},{"postcode":"3139","lat":123,"lng":456},{"postcode":"3134","lat":123,"lng":456},{"postcode":"2876","lat":123,"lng":456},{"postcode":"3810","lat":123,"lng":456},{"postcode":"4006","lat":123,"lng":456},{"postcode":"2074","lat":123,"lng":456},{"postcode":"2031","lat":123,"lng":456},{"postcode":"3825","lat":123,"lng":456},{"postcode":"2031","lat":123,"lng":456},{"postcode":"3073","lat":123,"lng":456},{"postcode":"2579","lat":123,"lng":456},{"postcode":"2850","lat":123,"lng":456},{"postcode":"7252","lat":123,"lng":456},{"postcode":"3068","lat":123,"lng":456},{"postcode":"2567","lat":123,"lng":456},{"postcode":"3701","lat":123,"lng":456},{"postcode":"3064","lat":123,"lng":456},{"postcode":"2590","lat":123,"lng":456},{"postcode":"7054","lat":123,"lng":456},{"postcode":"2590","lat":123,"lng":456},{"postcode":"2143","lat":123,"lng":456},{"postcode":"2210","lat":123,"lng":456},{"postcode":"2840","lat":123,"lng":456},{"postcode":"2560","lat":123,"lng":456},{"postcode":"2577","lat":123,"lng":456},{"postcode":"2790","lat":123,"lng":456},{"postcode":"2630","lat":123,"lng":456},{"postcode":"2770","lat":123,"lng":456},{"postcode":"2650","lat":123,"lng":456},{"postcode":"2259","lat":123,"lng":456},{"postcode":"2357","lat":123,"lng":456},{"postcode":"2067","lat":123,"lng":456},{"postcode":"2726","lat":123,"lng":456},{"postcode":"2222","lat":123,"lng":456},{"postcode":"2541","lat":123,"lng":456},{"postcode":"2381","lat":123,"lng":456},{"postcode":"2322","lat":123,"lng":456},{"postcode":"2020","lat":123,"lng":456},{"postcode":"2020","lat":123,"lng":456},{"postcode":"2519","lat":123,"lng":456},{"postcode":"2440","lat":123,"lng":456},{"postcode":"2795","lat":123,"lng":456},{"postcode":"2460","lat":123,"lng":456},{"postcode":"2877","lat":123,"lng":456},{"postcode":"2650","lat":123,"lng":456},{"postcode":"2666","lat":123,"lng":456},{"postcode":"2028","lat":123,"lng":456},{"postcode":"2680","lat":123,"lng":456},{"postcode":"2680","lat":123,"lng":456},{"postcode":"2627","lat":123,"lng":456},{"postcode":"2624","lat":123,"lng":456},{"postcode":"2624","lat":123,"lng":456},{"postcode":"2203","lat":123,"lng":456},{"postcode":"6642","lat":123,"lng":456},{"postcode":"3444","lat":123,"lng":456},{"postcode":"7109","lat":123,"lng":456},{"postcode":"2508","lat":123,"lng":456},{"postcode":"2898","lat":123,"lng":456},{"postcode":"2898","lat":123,"lng":456},{"postcode":"3691","lat":123,"lng":456},{"postcode":"2428","lat":123,"lng":456},{"postcode":"7030","lat":123,"lng":456},{"postcode":"6642","lat":123,"lng":456},{"postcode":"3977","lat":123,"lng":456},{"postcode":"7030","lat":123,"lng":456},{"postcode":"2508","lat":123,"lng":456},{"postcode":"2322","lat":123,"lng":456},{"postcode":"2008","lat":123,"lng":456},{"postcode":"2008","lat":123,"lng":456},{"postcode":"3956","lat":123,"lng":456},{"postcode":"7150","lat":123,"lng":456},{"postcode":"3171","lat":123,"lng":456},{"postcode":"2343","lat":123,"lng":456},{"postcode":"2500","lat":123,"lng":456},{"postcode":"2305","lat":123,"lng":456},{"postcode":"2305","lat":123,"lng":456},{"postcode":"3956","lat":123,"lng":456},{"postcode":"2629","lat":123,"lng":456},{"postcode":"7466","lat":123,"lng":456},{"postcode":"3630","lat":123,"lng":456},{"postcode":"2440","lat":123,"lng":456},{"postcode":"2280","lat":123,"lng":456},{"postcode":"2280","lat":123,"lng":456},{"postcode":"7304","lat":123,"lng":456},{"postcode":"2839","lat":123,"lng":456},{"postcode":"3746","lat":123,"lng":456},{"postcode":"2711","lat":123,"lng":456},{"postcode":"2805","lat":123,"lng":456},{"postcode":"2297","lat":123,"lng":456},{"postcode":"2421","lat":123,"lng":456},{"postcode":"3662","lat":123,"lng":456},{"postcode":"2701","lat":123,"lng":456},{"postcode":"2261","lat":123,"lng":456},{"postcode":"2487","lat":123,"lng":456},{"postcode":"2487","lat":123,"lng":456},{"postcode":"2846","lat":123,"lng":456},{"postcode":"7301","lat":123,"lng":456},{"postcode":"2040","lat":123,"lng":456},{"postcode":"2652","lat":123,"lng":456},{"postcode":"2628","lat":123,"lng":456},{"postcode":"2905","lat":123,"lng":456},{"postcode":"3400","lat":123,"lng":456},{"postcode":"3723","lat":123,"lng":456},{"postcode":"2580","lat":123,"lng":456},{"postcode":"2710","lat":123,"lng":456},{"postcode":"2484","lat":123,"lng":456},{"postcode":"2032","lat":123,"lng":456},{"postcode":"2300","lat":123,"lng":456},{"postcode":"2560","lat":123,"lng":456},{"postcode":"2541","lat":123,"lng":456},{"postcode":"2831","lat":123,"lng":456},{"postcode":"3953","lat":123,"lng":456},{"postcode":"2810","lat":123,"lng":456},{"postcode":"2898","lat":123,"lng":456},{"postcode":"2032","lat":123,"lng":456},{"postcode":"2481","lat":123,"lng":456},{"postcode":"2161","lat":123,"lng":456},{"postcode":"2480","lat":123,"lng":456},{"postcode":"2083","lat":123,"lng":456},{"postcode":"4380","lat":123,"lng":456},{"postcode":"2681","lat":123,"lng":456},{"postcode":"2831","lat":123,"lng":456},{"postcode":"2840","lat":123,"lng":456},{"postcode":"2831","lat":123,"lng":456},{"postcode":"2840","lat":123,"lng":456},{"postcode":"2632","lat":123,"lng":456},{"postcode":"2626","lat":123,"lng":456},{"postcode":"2631","lat":123,"lng":456},{"postcode":"2519","lat":123,"lng":456},{"postcode":"2594","lat":123,"lng":456},{"postcode":"2582","lat":123,"lng":456},{"postcode":"2343","lat":123,"lng":456},{"postcode":"2209","lat":123,"lng":456},{"postcode":"3975","lat":123,"lng":456},{"postcode":"2775","lat":123,"lng":456},{"postcode":"2770","lat":123,"lng":456},{"postcode":"3136","lat":123,"lng":456},{"postcode":"2625","lat":123,"lng":456},{"postcode":"3833","lat":123,"lng":456},{"postcode":"2476","lat":123,"lng":456},{"postcode":"3737","lat":123,"lng":456},{"postcode":"2330","lat":123,"lng":456},{"postcode":"2539","lat":123,"lng":456},{"postcode":"2324","lat":123,"lng":456},{"postcode":"2469","lat":123,"lng":456},{"postcode":"2832","lat":123,"lng":456},{"postcode":"2706","lat":123,"lng":456},{"postcode":"2898","lat":123,"lng":456},{"postcode":"3163","lat":123,"lng":456},{"postcode":"3199","lat":123,"lng":456},{"postcode":"3418","lat":123,"lng":456},{"postcode":"4300","lat":123,"lng":456},{"postcode":"2204","lat":123,"lng":456},{"postcode":"2388","lat":123,"lng":456},{"postcode":"2830","lat":123,"lng":456},{"postcode":"2869","lat":123,"lng":456},{"postcode":"3630","lat":123,"lng":456},{"postcode":"3079","lat":123,"lng":456},{"postcode":"2470","lat":123,"lng":456},{"postcode":"2809","lat":123,"lng":456},{"postcode":"2500","lat":123,"lng":456},{"postcode":"2130","lat":123,"lng":456},{"postcode":"3677","lat":123,"lng":456},{"postcode":"2141","lat":123,"lng":456},{"postcode":"2577","lat":123,"lng":456},{"postcode":"2463","lat":123,"lng":456},{"postcode":"2463","lat":123,"lng":456},{"postcode":"3764","lat":123,"lng":456},{"postcode":"2575","lat":123,"lng":456},{"postcode":"2234","lat":123,"lng":456},{"postcode":"2505","lat":123,"lng":456},{"postcode":"2127","lat":123,"lng":456},{"postcode":"2127","lat":123,"lng":456},{"postcode":"2590","lat":123,"lng":456},{"postcode":"2588","lat":123,"lng":456},{"postcode":"2807","lat":123,"lng":456},{"postcode":"2195","lat":123,"lng":456},{"postcode":"2195","lat":123,"lng":456},{"postcode":"2800","lat":123,"lng":456},{"postcode":"2204","lat":123,"lng":456},{"postcode":"3199","lat":123,"lng":456},{"postcode":"2354","lat":123,"lng":456},{"postcode":"2444","lat":123,"lng":456},{"postcode":"2534","lat":123,"lng":456},{"postcode":"2455","lat":123,"lng":456},{"postcode":"2079","lat":123,"lng":456},{"postcode":"2080","lat":123,"lng":456},{"postcode":"2441","lat":123,"lng":456},{"postcode":"2083","lat":123,"lng":456},{"postcode":"3027","lat":123,"lng":456},{"postcode":"3088","lat":123,"lng":456},{"postcode":"2353","lat":123,"lng":456},{"postcode":"2144","lat":123,"lng":456},{"postcode":"2213","lat":123,"lng":456},{"postcode":"3047","lat":123,"lng":456},{"postcode":"2208","lat":123,"lng":456},{"postcode":"2256","lat":123,"lng":456},{"postcode":"7052","lat":123,"lng":456},{"postcode":"2583","lat":123,"lng":456},{"postcode":"2749","lat":123,"lng":456},{"postcode":"2629","lat":123,"lng":456},{"postcode":"3850","lat":123,"lng":456},{"postcode":"2710","lat":123,"lng":456},{"postcode":"2529","lat":123,"lng":456},{"postcode":"2009","lat":123,"lng":456},{"postcode":"2900","lat":123,"lng":456},{"postcode":"2900","lat":123,"lng":456},{"postcode":"3166","lat":123,"lng":456},{"postcode":"3965","lat":123,"lng":456},{"postcode":"2146","lat":123,"lng":456},{"postcode":"2381","lat":123,"lng":456},{"postcode":"2036","lat":123,"lng":456},{"postcode":"2148","lat":123,"lng":456},{"postcode":"2233","lat":123,"lng":456},{"postcode":"2541","lat":123,"lng":456},{"postcode":"2533","lat":123,"lng":456},{"postcode":"2170","lat":123,"lng":456},{"postcode":"2030","lat":123,"lng":456},{"postcode":"3214","lat":123,"lng":456},{"postcode":"2026","lat":123,"lng":456},{"postcode":"2586","lat":123,"lng":456},{"postcode":"2563","lat":123,"lng":456},{"postcode":"3166","lat":123,"lng":456},{"postcode":"2218","lat":123,"lng":456},{"postcode":"2790","lat":123,"lng":456},{"postcode":"2218","lat":123,"lng":456},{"postcode":"2142","lat":123,"lng":456},{"postcode":"2533","lat":123,"lng":456},{"postcode":"4158","lat":123,"lng":456},{"postcode":"2576","lat":123,"lng":456},{"postcode":"2778","lat":123,"lng":456},{"postcode":"3660","lat":123,"lng":456},{"postcode":"3130","lat":123,"lng":456},{"postcode":"2763","lat":123,"lng":456},{"postcode":"2343","lat":123,"lng":456},{"postcode":"2646","lat":123,"lng":456},{"postcode":"3018","lat":123,"lng":456},{"postcode":"2120","lat":123,"lng":456},{"postcode":"2747","lat":123,"lng":456},{"postcode":"3169","lat":123,"lng":456},{"postcode":"3121","lat":123,"lng":456},{"postcode":"2833","lat":123,"lng":456},{"postcode":"4122","lat":123,"lng":456},{"postcode":"2308","lat":123,"lng":456},{"postcode":"7321","lat":123,"lng":456},{"postcode":"2350","lat":123,"lng":456},{"postcode":"2756","lat":123,"lng":456},{"postcode":"2462","lat":123,"lng":456},{"postcode":"2463","lat":123,"lng":456},{"postcode":"2472","lat":123,"lng":456},{"postcode":"3042","lat":123,"lng":456},{"postcode":"2077","lat":123,"lng":456},{"postcode":"2176","lat":123,"lng":456},{"postcode":"7214","lat":123,"lng":456},{"postcode":"2387","lat":123,"lng":456},{"postcode":"3171","lat":123,"lng":456},{"postcode":"3199","lat":123,"lng":456},{"postcode":"2050","lat":123,"lng":456},{"postcode":"2469","lat":123,"lng":456},{"postcode":"2462","lat":123,"lng":456},{"postcode":"2463","lat":123,"lng":456},{"postcode":"2548","lat":123,"lng":456},{"postcode":"2170","lat":123,"lng":456},{"postcode":"2484","lat":123,"lng":456},{"postcode":"2767","lat":123,"lng":456},{"postcode":"2050","lat":123,"lng":456},{"postcode":"2050","lat":123,"lng":456},{"postcode":"2642","lat":123,"lng":456},{"postcode":"3198","lat":123,"lng":456},{"postcode":"3880","lat":123,"lng":456},{"postcode":"2831","lat":123,"lng":456},{"postcode":"3124","lat":123,"lng":456},{"postcode":"2533","lat":123,"lng":456},{"postcode":"2444","lat":123,"lng":456},{"postcode":"2166","lat":123,"lng":456},{"postcode":"2480","lat":123,"lng":456},{"postcode":"2443","lat":123,"lng":456},{"postcode":"3945","lat":123,"lng":456},{"postcode":"2036","lat":123,"lng":456},{"postcode":"2500","lat":123,"lng":456},{"postcode":"2720","lat":123,"lng":456},{"postcode":"2174","lat":123,"lng":456},{"postcode":"2174","lat":123,"lng":456},{"postcode":"3977","lat":123,"lng":456},{"postcode":"2194","lat":123,"lng":456},{"postcode":"7021","lat":123,"lng":456},{"postcode":"4207","lat":123,"lng":456},{"postcode":"2160","lat":123,"lng":456},{"postcode":"2206","lat":123,"lng":456},{"postcode":"3621","lat":123,"lng":456},{"postcode":"3812","lat":123,"lng":456},{"postcode":"2500","lat":123,"lng":456},{"postcode":"3067","lat":123,"lng":456},{"postcode":"3160","lat":123,"lng":456},{"postcode":"2650","lat":123,"lng":456},{"postcode":"3094","lat":123,"lng":456},{"postcode":"3089","lat":123,"lng":456},{"postcode":"2568","lat":123,"lng":456},{"postcode":"2500","lat":123,"lng":456},{"postcode":"3074","lat":123,"lng":456},{"postcode":"3756","lat":123,"lng":456},{"postcode":"2440","lat":123,"lng":456},{"postcode":"2324","lat":123,"lng":456},{"postcode":"2706","lat":123,"lng":456},{"postcode":"2474","lat":123,"lng":456},{"postcode":"3012","lat":123,"lng":456},{"postcode":"2337","lat":123,"lng":456},{"postcode":"2018","lat":123,"lng":456},{"postcode":"2820","lat":123,"lng":456},{"postcode":"3775","lat":123,"lng":456},{"postcode":"2669","lat":123,"lng":456},{"postcode":"3956","lat":123,"lng":456},{"postcode":"7250","lat":123,"lng":456},{"postcode":"4075","lat":123,"lng":456},{"postcode":"2609","lat":123,"lng":456},{"postcode":"2400","lat":123,"lng":456},{"postcode":"2119","lat":123,"lng":456},{"postcode":"2515","lat":123,"lng":456},{"postcode":"2428","lat":123,"lng":456},{"postcode":"2443","lat":123,"lng":456},{"postcode":"2150","lat":123,"lng":456},{"postcode":"2194","lat":123,"lng":456},{"postcode":"2828","lat":123,"lng":456},{"postcode":"7010","lat":123,"lng":456},{"postcode":"2540","lat":123,"lng":456},{"postcode":"2452","lat":123,"lng":456},{"postcode":"2452","lat":123,"lng":456},{"postcode":"2452","lat":123,"lng":456},{"postcode":"2705","lat":123,"lng":456},{"postcode":"2831","lat":123,"lng":456},{"postcode":"2650","lat":123,"lng":456},{"postcode":"7120","lat":123,"lng":456},{"postcode":"2489","lat":123,"lng":456},{"postcode":"2484","lat":123,"lng":456},{"postcode":"2454","lat":123,"lng":456},{"postcode":"3634","lat":123,"lng":456},{"postcode":"2308","lat":123,"lng":456},{"postcode":"2308","lat":123,"lng":456},{"postcode":"2308","lat":123,"lng":456},{"postcode":"2617","lat":123,"lng":456},{"postcode":"2469","lat":123,"lng":456},{"postcode":"2849","lat":123,"lng":456},{"postcode":"2678","lat":123,"lng":456},{"postcode":"2154","lat":123,"lng":456},{"postcode":"2204","lat":123,"lng":456},{"postcode":"2323","lat":123,"lng":456},{"postcode":"3196","lat":123,"lng":456},{"postcode":"3171","lat":123,"lng":456},{"postcode":"2537","lat":123,"lng":456},{"postcode":"2705","lat":123,"lng":456},{"postcode":"2072","lat":123,"lng":456},{"postcode":"2701","lat":123,"lng":456},{"postcode":"2602","lat":123,"lng":456},{"postcode":"2840","lat":123,"lng":456},{"postcode":"2360","lat":123,"lng":456},{"postcode":"2203","lat":123,"lng":456},{"postcode":"3186","lat":123,"lng":456},{"postcode":"7004","lat":123,"lng":456},{"postcode":"2478","lat":123,"lng":456},{"postcode":"2355","lat":123,"lng":456},{"postcode":"2300","lat":123,"lng":456},{"postcode":"2594","lat":123,"lng":456},{"postcode":"3175","lat":123,"lng":456},{"postcode":"7000","lat":123,"lng":456},{"postcode":"3199","lat":123,"lng":456},{"postcode":"2145","lat":123,"lng":456},{"postcode":"2143","lat":123,"lng":456},{"postcode":"2526","lat":123,"lng":456},{"postcode":"3337","lat":123,"lng":456},{"postcode":"2122","lat":123,"lng":456},{"postcode":"2365","lat":123,"lng":456},{"postcode":"2148","lat":123,"lng":456},{"postcode":"3733","lat":123,"lng":456},{"postcode":"3175","lat":123,"lng":456},{"postcode":"2074","lat":123,"lng":456},{"postcode":"2318","lat":123,"lng":456},{"postcode":"2850","lat":123,"lng":456},{"postcode":"2430","lat":123,"lng":456},{"postcode":"3078","lat":123,"lng":456},{"postcode":"2587","lat":123,"lng":456},{"postcode":"2580","lat":123,"lng":456},{"postcode":"2302","lat":123,"lng":456},{"postcode":"2473","lat":123,"lng":456},{"postcode":"2473","lat":123,"lng":456},{"postcode":"3874","lat":123,"lng":456},{"postcode":"2466","lat":123,"lng":456},{"postcode":"4300","lat":123,"lng":456},{"postcode":"3925","lat":123,"lng":456},{"postcode":"2808","lat":123,"lng":456},{"postcode":"2464","lat":123,"lng":456},{"postcode":"2680","lat":123,"lng":456},{"postcode":"3084","lat":123,"lng":456},{"postcode":"3084","lat":123,"lng":456},{"postcode":"2440","lat":123,"lng":456},{"postcode":"3177","lat":123,"lng":456},{"postcode":"4127","lat":123,"lng":456},{"postcode":"2232","lat":123,"lng":456},{"postcode":"2135","lat":123,"lng":456},{"postcode":"2135","lat":123,"lng":456},{"postcode":"2135","lat":123,"lng":456},{"postcode":"2135","lat":123,"lng":456},{"postcode":"2642","lat":123,"lng":456},{"postcode":"2077","lat":123,"lng":456},{"postcode":"3174","lat":123,"lng":456},{"postcode":"2150","lat":123,"lng":456},{"postcode":"3520","lat":123,"lng":456},{"postcode":"4161","lat":123,"lng":456},{"postcode":"2800","lat":123,"lng":456},{"postcode":"2560","lat":123,"lng":456},{"postcode":"4008","lat":123,"lng":456},{"postcode":"2077","lat":123,"lng":456},{"postcode":"2194","lat":123,"lng":456},{"postcode":"2194","lat":123,"lng":456},{"postcode":"3038","lat":123,"lng":456},{"postcode":"7301","lat":123,"lng":456},{"postcode":"2650","lat":123,"lng":456},{"postcode":"4000","lat":123,"lng":456},{"postcode":"2088","lat":123,"lng":456},{"postcode":"2251","lat":123,"lng":456},{"postcode":"2099","lat":123,"lng":456},{"postcode":"3023","lat":123,"lng":456},{"postcode":"2428","lat":123,"lng":456},{"postcode":"2033","lat":123,"lng":456},{"postcode":"4183","lat":123,"lng":456},{"postcode":"3690","lat":123,"lng":456},{"postcode":"2518","lat":123,"lng":456},{"postcode":"2525","lat":123,"lng":456},{"postcode":"4123","lat":123,"lng":456},{"postcode":"2750","lat":123,"lng":456},{"postcode":"3571","lat":123,"lng":456},{"postcode":"2046","lat":123,"lng":456},{"postcode":"4020","lat":123,"lng":456},{"postcode":"2444","lat":123,"lng":456},{"postcode":"3057","lat":123,"lng":456},{"postcode":"3032","lat":123,"lng":456},{"postcode":"7310","lat":123,"lng":456},{"postcode":"2642","lat":123,"lng":456},{"postcode":"3898","lat":123,"lng":456},{"postcode":"3672","lat":123,"lng":456},{"postcode":"2707","lat":123,"lng":456},{"postcode":"7140","lat":123,"lng":456},{"postcode":"2161","lat":123,"lng":456},{"postcode":"2131","lat":123,"lng":456},{"postcode":"2731","lat":123,"lng":456},{"postcode":"2444","lat":123,"lng":456},{"postcode":"2204","lat":123,"lng":456},{"postcode":"3427","lat":123,"lng":456},{"postcode":"2848","lat":123,"lng":456},{"postcode":"2194","lat":123,"lng":456},{"postcode":"2194","lat":123,"lng":456},{"postcode":"2680","lat":123,"lng":456},{"postcode":"7011","lat":123,"lng":456},{"postcode":"2153","lat":123,"lng":456},{"postcode":"2154","lat":123,"lng":456},{"postcode":"3690","lat":123,"lng":456},{"postcode":"7000","lat":123,"lng":456},{"postcode":"3409","lat":123,"lng":456},{"postcode":"3074","lat":123,"lng":456},{"postcode":"2020","lat":123,"lng":456},{"postcode":"2049","lat":123,"lng":456},{"postcode":"2652","lat":123,"lng":456},{"postcode":"2114","lat":123,"lng":456},{"postcode":"2135","lat":123,"lng":456},{"postcode":"2135","lat":123,"lng":456},{"postcode":"7005","lat":123,"lng":456},{"postcode":"3127","lat":123,"lng":456},{"postcode":"4114","lat":123,"lng":456},{"postcode":"2048","lat":123,"lng":456},{"postcode":"7020","lat":123,"lng":456},{"postcode":"2536","lat":123,"lng":456},{"postcode":"2084","lat":123,"lng":456},{"postcode":"2170","lat":123,"lng":456},{"postcode":"4301","lat":123,"lng":456},{"postcode":"4301","lat":123,"lng":456},{"postcode":"2134","lat":123,"lng":456},{"postcode":"2226","lat":123,"lng":456},{"postcode":"7321","lat":123,"lng":456},{"postcode":"2230","lat":123,"lng":456},{"postcode":"2230","lat":123,"lng":456},{"postcode":"2230","lat":123,"lng":456},{"postcode":"3765","lat":123,"lng":456},{"postcode":"2166","lat":123,"lng":456},{"postcode":"3996","lat":123,"lng":456},{"postcode":"2821","lat":123,"lng":456},{"postcode":"3199","lat":123,"lng":456},{"postcode":"3056","lat":123,"lng":456},{"postcode":"3741","lat":123,"lng":456},{"postcode":"3802","lat":123,"lng":456},{"postcode":"2577","lat":123,"lng":456},{"postcode":"2220","lat":123,"lng":456},{"postcode":"3429","lat":123,"lng":456},{"postcode":"3448","lat":123,"lng":456},{"postcode":"2170","lat":123,"lng":456},{"postcode":"2133","lat":123,"lng":456},{"postcode":"2453","lat":123,"lng":456},{"postcode":"2000","lat":123,"lng":456},{"postcode":"2000","lat":123,"lng":456},{"postcode":"2000","lat":123,"lng":456},{"postcode":"2000","lat":123,"lng":456},{"postcode":"2000","lat":123,"lng":456},{"postcode":"2658","lat":123,"lng":456},{"postcode":"2536","lat":123,"lng":456},{"postcode":"2835","lat":123,"lng":456},{"postcode":"2570","lat":123,"lng":456},{"postcode":"2011","lat":123,"lng":456},{"postcode":"2170","lat":123,"lng":456},{"postcode":"2170","lat":123,"lng":456},{"postcode":"3000","lat":123,"lng":456},{"postcode":"4163","lat":123,"lng":456},{"postcode":"2142","lat":123,"lng":456},{"postcode":"3232","lat":123,"lng":456},{"postcode":"7257","lat":123,"lng":456},{"postcode":"4118","lat":123,"lng":456},{"postcode":"2650","lat":123,"lng":456},{"postcode":"2194","lat":123,"lng":456},{"postcode":"2194","lat":123,"lng":456},{"postcode":"2785","lat":123,"lng":456},{"postcode":"2135","lat":123,"lng":456},{"postcode":"2135","lat":123,"lng":456},{"postcode":"2135","lat":123,"lng":456},{"postcode":"2135","lat":123,"lng":456},{"postcode":"4505","lat":123,"lng":456},{"postcode":"4111","lat":123,"lng":456},{"postcode":"2526","lat":123,"lng":456},{"postcode":"2873","lat":123,"lng":456},{"postcode":"3305","lat":123,"lng":456},{"postcode":"3842","lat":123,"lng":456},{"postcode":"2205","lat":123,"lng":456},{"postcode":"2611","lat":123,"lng":456},{"postcode":"2472","lat":123,"lng":456},{"postcode":"2460","lat":123,"lng":456},{"postcode":"2077","lat":123,"lng":456},{"postcode":"3156","lat":123,"lng":456},{"postcode":"2500","lat":123,"lng":456},{"postcode":"3199","lat":123,"lng":456},{"postcode":"3020","lat":123,"lng":456},{"postcode":"4178","lat":123,"lng":456},{"postcode":"2550","lat":123,"lng":456},{"postcode":"2170","lat":123,"lng":456},{"postcode":"3630","lat":123,"lng":456},{"postcode":"7024","lat":123,"lng":456},{"postcode":"3630","lat":123,"lng":456},{"postcode":"4183","lat":123,"lng":456},{"postcode":"2780","lat":123,"lng":456},{"postcode":"2046","lat":123,"lng":456},{"postcode":"2216","lat":123,"lng":456},{"postcode":"2756","lat":123,"lng":456},{"postcode":"3825","lat":123,"lng":456},{"postcode":"2199","lat":123,"lng":456},{"postcode":"4102","lat":123,"lng":456},{"postcode":"4102","lat":123,"lng":456},{"postcode":"2515","lat":123,"lng":456},{"postcode":"2204","lat":123,"lng":456},{"postcode":"3351","lat":123,"lng":456},{"postcode":"3623","lat":123,"lng":456},{"postcode":"3352","lat":123,"lng":456},{"postcode":"2330","lat":123,"lng":456},{"postcode":"2330","lat":123,"lng":456},{"postcode":"2165","lat":123,"lng":456},{"postcode":"3233","lat":123,"lng":456},{"postcode":"3234","lat":123,"lng":456},{"postcode":"4122","lat":123,"lng":456},{"postcode":"3087","lat":123,"lng":456},{"postcode":"2250","lat":123,"lng":456},{"postcode":"3234","lat":123,"lng":456},{"postcode":"2044","lat":123,"lng":456},{"postcode":"2204","lat":123,"lng":456},{"postcode":"2204","lat":123,"lng":456},{"postcode":"2617","lat":123,"lng":456},{"postcode":"2227","lat":123,"lng":456},{"postcode":"2227","lat":123,"lng":456},{"postcode":"2602","lat":123,"lng":456},{"postcode":"3321","lat":123,"lng":456},{"postcode":"3149","lat":123,"lng":456},{"postcode":"3149","lat":123,"lng":456},{"postcode":"2119","lat":123,"lng":456},{"postcode":"2450","lat":123,"lng":456},{"postcode":"2144","lat":123,"lng":456},{"postcode":"2144","lat":123,"lng":456},{"postcode":"2207","lat":123,"lng":456},{"postcode":"3012","lat":123,"lng":456},{"postcode":"2099","lat":123,"lng":456},{"postcode":"3156","lat":123,"lng":456},{"postcode":"2448","lat":123,"lng":456},{"postcode":"3939","lat":123,"lng":456},{"postcode":"2615","lat":123,"lng":456},{"postcode":"3121","lat":123,"lng":456},{"postcode":"2199","lat":123,"lng":456},{"postcode":"2069","lat":123,"lng":456},{"postcode":"2320","lat":123,"lng":456},{"postcode":"2042","lat":123,"lng":456},{"postcode":"2042","lat":123,"lng":456},{"postcode":"2048","lat":123,"lng":456},{"postcode":"7170","lat":123,"lng":456},{"postcode":"7170","lat":123,"lng":456},{"postcode":"7321","lat":123,"lng":456},{"postcode":"3227","lat":123,"lng":456},{"postcode":"2138","lat":123,"lng":456},{"postcode":"2138","lat":123,"lng":456},{"postcode":"2193","lat":123,"lng":456},{"postcode":"3039","lat":123,"lng":456},{"postcode":"3152","lat":123,"lng":456},{"postcode":"3517","lat":123,"lng":456},{"postcode":"2560","lat":123,"lng":456},{"postcode":"3175","lat":123,"lng":456},{"postcode":"2151","lat":123,"lng":456},{"postcode":"3109","lat":123,"lng":456},{"postcode":"2026","lat":123,"lng":456},{"postcode":"2026","lat":123,"lng":456},{"postcode":"2095","lat":123,"lng":456},{"postcode":"2619","lat":123,"lng":456},{"postcode":"2132","lat":123,"lng":456},{"postcode":"2680","lat":123,"lng":456},{"postcode":"3629","lat":123,"lng":456},{"postcode":"2218","lat":123,"lng":456},{"postcode":"3029","lat":123,"lng":456},{"postcode":"2106","lat":123,"lng":456},{"postcode":"3128","lat":123,"lng":456},{"postcode":"2020","lat":123,"lng":456},{"postcode":"2020","lat":123,"lng":456},{"postcode":"2020","lat":123,"lng":456},{"postcode":"2020","lat":123,"lng":456},{"postcode":"2020","lat":123,"lng":456},{"postcode":"2020","lat":123,"lng":456},{"postcode":"2020","lat":123,"lng":456},{"postcode":"2020","lat":123,"lng":456},{"postcode":"2020","lat":123,"lng":456},{"postcode":"2020","lat":123,"lng":456},{"postcode":"7005","lat":123,"lng":456},{"postcode":"3450","lat":123,"lng":456},{"postcode":"2192","lat":123,"lng":456},{"postcode":"3064","lat":123,"lng":456},{"postcode":"2261","lat":123,"lng":456},{"postcode":"2469","lat":123,"lng":456},{"postcode":"2536","lat":123,"lng":456},{"postcode":"2170","lat":123,"lng":456},{"postcode":"2341","lat":123,"lng":456},{"postcode":"2711","lat":123,"lng":456},{"postcode":"4104","lat":123,"lng":456},{"postcode":"2546","lat":123,"lng":456},{"postcode":"4115","lat":123,"lng":456},{"postcode":"3175","lat":123,"lng":456},{"postcode":"2121","lat":123,"lng":456},{"postcode":"2150","lat":123,"lng":456},{"postcode":"4019","lat":123,"lng":456},{"postcode":"2096","lat":123,"lng":456},{"postcode":"2096","lat":123,"lng":456},{"postcode":"2481","lat":123,"lng":456},{"postcode":"3026","lat":123,"lng":456},{"postcode":"3810","lat":123,"lng":456},{"postcode":"2259","lat":123,"lng":456},{"postcode":"2099","lat":123,"lng":456},{"postcode":"2000","lat":123,"lng":456},{"postcode":"2627","lat":123,"lng":456},{"postcode":"2232","lat":123,"lng":456},{"postcode":"2140","lat":123,"lng":456},{"postcode":"2440","lat":123,"lng":456},{"postcode":"4184","lat":123,"lng":456},{"postcode":"3551","lat":123,"lng":456},{"postcode":"3941","lat":123,"lng":456},{"postcode":"3551","lat":123,"lng":456},{"postcode":"3104","lat":123,"lng":456},{"postcode":"2463","lat":123,"lng":456},{"postcode":"2024","lat":123,"lng":456},{"postcode":"3352","lat":123,"lng":456},{"postcode":"3463","lat":123,"lng":456},{"postcode":"7262","lat":123,"lng":456},{"postcode":"3128","lat":123,"lng":456},{"postcode":"3128","lat":123,"lng":456},{"postcode":"3128","lat":123,"lng":456},{"postcode":"2780","lat":123,"lng":456},{"postcode":"7256","lat":123,"lng":456},{"postcode":"4300","lat":123,"lng":456},{"postcode":"2148","lat":123,"lng":456},{"postcode":"2148","lat":123,"lng":456},{"postcode":"2441","lat":123,"lng":456},{"postcode":"4300","lat":123,"lng":456},{"postcode":"3475","lat":123,"lng":456},{"postcode":"2430","lat":123,"lng":456},{"postcode":"2747","lat":123,"lng":456},{"postcode":"2212","lat":123,"lng":456},{"postcode":"2428","lat":123,"lng":456},{"postcode":"3584","lat":123,"lng":456},{"postcode":"2530","lat":123,"lng":456},{"postcode":"3630","lat":123,"lng":456},{"postcode":"2007","lat":123,"lng":456},{"postcode":"2142","lat":123,"lng":456},{"postcode":"2142","lat":123,"lng":456},{"postcode":"4304","lat":123,"lng":456},{"postcode":"3636","lat":123,"lng":456},{"postcode":"3021","lat":123,"lng":456},{"postcode":"3265","lat":123,"lng":456},{"postcode":"3198","lat":123,"lng":456},{"postcode":"2042","lat":123,"lng":456},{"postcode":"4114","lat":123,"lng":456},{"postcode":"2566","lat":123,"lng":456},{"postcode":"3025","lat":123,"lng":456},{"postcode":"2642","lat":123,"lng":456},{"postcode":"2337","lat":123,"lng":456},{"postcode":"2323","lat":123,"lng":456},{"postcode":"3585","lat":123,"lng":456},{"postcode":"7000","lat":123,"lng":456},{"postcode":"2338","lat":123,"lng":456},{"postcode":"2840","lat":123,"lng":456},{"postcode":"2756","lat":123,"lng":456},{"postcode":"3844","lat":123,"lng":456},{"postcode":"2629","lat":123,"lng":456},{"postcode":"2021","lat":123,"lng":456},{"postcode":"3812","lat":123,"lng":456},{"postcode":"3401","lat":123,"lng":456},{"postcode":"2302","lat":123,"lng":456},{"postcode":"2039","lat":123,"lng":456},{"postcode":"2083","lat":123,"lng":456},{"postcode":"2022","lat":123,"lng":456},{"postcode":"3276","lat":123,"lng":456},{"postcode":"4500","lat":123,"lng":456},{"postcode":"2763","lat":123,"lng":456},{"postcode":"2194","lat":123,"lng":456},{"postcode":"2194","lat":123,"lng":456},{"postcode":"2194","lat":123,"lng":456},{"postcode":"2194","lat":123,"lng":456},{"postcode":"2200","lat":123,"lng":456},{"postcode":"2200","lat":123,"lng":456},{"postcode":"2048","lat":123,"lng":456},{"postcode":"2084","lat":123,"lng":456},{"postcode":"2450","lat":123,"lng":456},{"postcode":"3029","lat":123,"lng":456},{"postcode":"3753","lat":123,"lng":456},{"postcode":"2234","lat":123,"lng":456},{"postcode":"2232","lat":123,"lng":456},{"postcode":"4106","lat":123,"lng":456},{"postcode":"2340","lat":123,"lng":456},{"postcode":"2760","lat":123,"lng":456},{"postcode":"2549","lat":123,"lng":456},{"postcode":"2540","lat":123,"lng":456},{"postcode":"3939","lat":123,"lng":456},{"postcode":"2250","lat":123,"lng":456},{"postcode":"3138","lat":123,"lng":456},{"postcode":"7216","lat":123,"lng":456},{"postcode":"2048","lat":123,"lng":456},{"postcode":"3199","lat":123,"lng":456},{"postcode":"3182","lat":123,"lng":456},{"postcode":"3825","lat":123,"lng":456},{"postcode":"2105","lat":123,"lng":456},{"postcode":"7248","lat":123,"lng":456},{"postcode":"2146","lat":123,"lng":456},{"postcode":"2217","lat":123,"lng":456},{"postcode":"3280","lat":123,"lng":456},{"postcode":"2112","lat":123,"lng":456},{"postcode":"2122","lat":123,"lng":456},{"postcode":"2650","lat":123,"lng":456},{"postcode":"2009","lat":123,"lng":456},{"postcode":"2148","lat":123,"lng":456},{"postcode":"2148","lat":123,"lng":456},{"postcode":"2007","lat":123,"lng":456},{"postcode":"2137","lat":123,"lng":456},{"postcode":"2756","lat":123,"lng":456},{"postcode":"3950","lat":123,"lng":456},{"postcode":"3352","lat":123,"lng":456},{"postcode":"3155","lat":123,"lng":456},{"postcode":"3122","lat":123,"lng":456},{"postcode":"3810","lat":123,"lng":456},{"postcode":"2515","lat":123,"lng":456},{"postcode":"2076","lat":123,"lng":456},{"postcode":"2780","lat":123,"lng":456},{"postcode":"3190","lat":123,"lng":456},{"postcode":"2217","lat":123,"lng":456},{"postcode":"2217","lat":123,"lng":456},{"postcode":"2430","lat":123,"lng":456},{"postcode":"3550","lat":123,"lng":456},{"postcode":"3550","lat":123,"lng":456},{"postcode":"2216","lat":123,"lng":456},{"postcode":"2141","lat":123,"lng":456},{"postcode":"2153","lat":123,"lng":456},{"postcode":"2500","lat":123,"lng":456},{"postcode":"3220","lat":123,"lng":456},{"postcode":"3220","lat":123,"lng":456},{"postcode":"3220","lat":123,"lng":456},{"postcode":"3186","lat":123,"lng":456},{"postcode":"2076","lat":123,"lng":456},{"postcode":"2049","lat":123,"lng":456},{"postcode":"3429","lat":123,"lng":456},{"postcode":"2170","lat":123,"lng":456},{"postcode":"2747","lat":123,"lng":456},{"postcode":"7008","lat":123,"lng":456},{"postcode":"2170","lat":123,"lng":456},{"postcode":"3549","lat":123,"lng":456},{"postcode":"2611","lat":123,"lng":456},{"postcode":"2280","lat":123,"lng":456},{"postcode":"2340","lat":123,"lng":456},{"postcode":"3211","lat":123,"lng":456},{"postcode":"3909","lat":123,"lng":456},{"postcode":"2135","lat":123,"lng":456},{"postcode":"3409","lat":123,"lng":456},{"postcode":"4165","lat":123,"lng":456},{"postcode":"2204","lat":123,"lng":456},{"postcode":"2463","lat":123,"lng":456},{"postcode":"2203","lat":123,"lng":456},{"postcode":"2203","lat":123,"lng":456},{"postcode":"2320","lat":123,"lng":456},{"postcode":"4301","lat":123,"lng":456},{"postcode":"2049","lat":123,"lng":456},{"postcode":"2170","lat":123,"lng":456},{"postcode":"2480","lat":123,"lng":456},{"postcode":"2480","lat":123,"lng":456},{"postcode":"2280","lat":123,"lng":456},{"postcode":"2200","lat":123,"lng":456},{"postcode":"2346","lat":123,"lng":456},{"postcode":"2130","lat":123,"lng":456},{"postcode":"2747","lat":123,"lng":456},{"postcode":"2747","lat":123,"lng":456},{"postcode":"2257","lat":123,"lng":456},{"postcode":"3028","lat":123,"lng":456},{"postcode":"2099","lat":123,"lng":456},{"postcode":"3770","lat":123,"lng":456},{"postcode":"4304","lat":123,"lng":456},{"postcode":"2022","lat":123,"lng":456},{"postcode":"4300","lat":123,"lng":456},{"postcode":"3166","lat":123,"lng":456},{"postcode":"3030","lat":123,"lng":456},{"postcode":"3192","lat":123,"lng":456},{"postcode":"2530","lat":123,"lng":456},{"postcode":"2077","lat":123,"lng":456},{"postcode":"2077","lat":123,"lng":456},{"postcode":"2114","lat":123,"lng":456},{"postcode":"2131","lat":123,"lng":456},{"postcode":"2131","lat":123,"lng":456},{"postcode":"2150","lat":123,"lng":456},{"postcode":"3191","lat":123,"lng":456},{"postcode":"2500","lat":123,"lng":456},{"postcode":"3030","lat":123,"lng":456},{"postcode":"3442","lat":123,"lng":456},{"postcode":"2430","lat":123,"lng":456},{"postcode":"3228","lat":123,"lng":456},{"postcode":"2099","lat":123,"lng":456},{"postcode":"2304","lat":123,"lng":456},{"postcode":"2103","lat":123,"lng":456},{"postcode":"3141","lat":123,"lng":456},{"postcode":"2100","lat":123,"lng":456},{"postcode":"2540","lat":123,"lng":456},{"postcode":"4103","lat":123,"lng":456},{"postcode":"4000","lat":123,"lng":456},{"postcode":"3921","lat":123,"lng":456},{"postcode":"3870","lat":123,"lng":456},{"postcode":"3840","lat":123,"lng":456},{"postcode":"3189","lat":123,"lng":456},{"postcode":"2048","lat":123,"lng":456},{"postcode":"2160","lat":123,"lng":456},{"postcode":"2160","lat":123,"lng":456},{"postcode":"2147","lat":123,"lng":456},{"postcode":"2147","lat":123,"lng":456},{"postcode":"3212","lat":123,"lng":456},{"postcode":"2140","lat":123,"lng":456},{"postcode":"2145","lat":123,"lng":456},{"postcode":"3752","lat":123,"lng":456},{"postcode":"2107","lat":123,"lng":456},{"postcode":"2132","lat":123,"lng":456},{"postcode":"3196","lat":123,"lng":456},{"postcode":"3064","lat":123,"lng":456},{"postcode":"2049","lat":123,"lng":456},{"postcode":"3922","lat":123,"lng":456},{"postcode":"4169","lat":123,"lng":456},{"postcode":"2193","lat":123,"lng":456},{"postcode":"2518","lat":123,"lng":456},{"postcode":"2122","lat":123,"lng":456},{"postcode":"2464","lat":123,"lng":456},{"postcode":"3043","lat":123,"lng":456},{"postcode":"2489","lat":123,"lng":456},{"postcode":"2871","lat":123,"lng":456},{"postcode":"2009","lat":123,"lng":456},{"postcode":"4131","lat":123,"lng":456},{"postcode":"2110","lat":123,"lng":456},{"postcode":"3171","lat":123,"lng":456},{"postcode":"2034","lat":123,"lng":456},{"postcode":"7000","lat":123,"lng":456},{"postcode":"2134","lat":123,"lng":456},{"postcode":"2134","lat":123,"lng":456},{"postcode":"2620","lat":123,"lng":456},{"postcode":"4507","lat":123,"lng":456},{"postcode":"2228","lat":123,"lng":456},{"postcode":"2611","lat":123,"lng":456},{"postcode":"2203","lat":123,"lng":456},{"postcode":"4500","lat":123,"lng":456},{"postcode":"7004","lat":123,"lng":456},{"postcode":"7310","lat":123,"lng":456},{"postcode":"3163","lat":123,"lng":456},{"postcode":"2602","lat":123,"lng":456},{"postcode":"2487","lat":123,"lng":456},{"postcode":"2114","lat":123,"lng":456},{"postcode":"2766","lat":123,"lng":456},{"postcode":"2128","lat":123,"lng":456},{"postcode":"2040","lat":123,"lng":456},{"postcode":"7331","lat":123,"lng":456},{"postcode":"2536","lat":123,"lng":456},{"postcode":"2100","lat":123,"lng":456},{"postcode":"2850","lat":123,"lng":456},{"postcode":"2047","lat":123,"lng":456},{"postcode":"3129","lat":123,"lng":456},{"postcode":"4109","lat":123,"lng":456},{"postcode":"2141","lat":123,"lng":456},{"postcode":"3630","lat":123,"lng":456},{"postcode":"2770","lat":123,"lng":456},{"postcode":"3356","lat":123,"lng":456},{"postcode":"2576","lat":123,"lng":456},{"postcode":"2537","lat":123,"lng":456},{"postcode":"4129","lat":123,"lng":456},{"postcode":"4066","lat":123,"lng":456},{"postcode":"2481","lat":123,"lng":456},{"postcode":"3175","lat":123,"lng":456},{"postcode":"2441","lat":123,"lng":456},{"postcode":"2566","lat":123,"lng":456},{"postcode":"7150","lat":123,"lng":456},{"postcode":"3151","lat":123,"lng":456},{"postcode":"4006","lat":123,"lng":456},{"postcode":"3761","lat":123,"lng":456},{"postcode":"4006","lat":123,"lng":456},{"postcode":"2125","lat":123,"lng":456},{"postcode":"2760","lat":123,"lng":456},{"postcode":"2487","lat":123,"lng":456},{"postcode":"7116","lat":123,"lng":456},{"postcode":"2460","lat":123,"lng":456},{"postcode":"2010","lat":123,"lng":456},{"postcode":"3174","lat":123,"lng":456},{"postcode":"2028","lat":123,"lng":456},{"postcode":"3064","lat":123,"lng":456},{"postcode":"2250","lat":123,"lng":456},{"postcode":"4000","lat":123,"lng":456},{"postcode":"4118","lat":123,"lng":456},{"postcode":"7304","lat":123,"lng":456},{"postcode":"7215","lat":123,"lng":456},{"postcode":"2122","lat":123,"lng":456},{"postcode":"2558","lat":123,"lng":456},{"postcode":"4110","lat":123,"lng":456},{"postcode":"3073","lat":123,"lng":456},{"postcode":"2256","lat":123,"lng":456},{"postcode":"2021","lat":123,"lng":456},{"postcode":"2617","lat":123,"lng":456},{"postcode":"3717","lat":123,"lng":456},{"postcode":"2160","lat":123,"lng":456},{"postcode":"2540","lat":123,"lng":456},{"postcode":"3073","lat":123,"lng":456},{"postcode":"2533","lat":123,"lng":456},{"postcode":"2617","lat":123,"lng":456},{"postcode":"4500","lat":123,"lng":456},{"postcode":"3825","lat":123,"lng":456},{"postcode":"2444","lat":123,"lng":456},{"postcode":"4105","lat":123,"lng":456},{"postcode":"2440","lat":123,"lng":456},{"postcode":"3931","lat":123,"lng":456},{"postcode":"3328","lat":123,"lng":456},{"postcode":"4179","lat":123,"lng":456},{"postcode":"4507","lat":123,"lng":456},{"postcode":"4152","lat":123,"lng":456},{"postcode":"2615","lat":123,"lng":456},{"postcode":"2160","lat":123,"lng":456},{"postcode":"2160","lat":123,"lng":456},{"postcode":"2792","lat":123,"lng":456},{"postcode":"4207","lat":123,"lng":456},{"postcode":"7008","lat":123,"lng":456},{"postcode":"3943","lat":123,"lng":456},{"postcode":"2565","lat":123,"lng":456},{"postcode":"2565","lat":123,"lng":456},{"postcode":"3212","lat":123,"lng":456},{"postcode":"4870","lat":123,"lng":456},{"postcode":"2642","lat":123,"lng":456},{"postcode":"3936","lat":123,"lng":456},{"postcode":"3988","lat":123,"lng":456},{"postcode":"2680","lat":123,"lng":456},{"postcode":"2291","lat":123,"lng":456},{"postcode":"2481","lat":123,"lng":456},{"postcode":"2000","lat":123,"lng":456},{"postcode":"2011","lat":123,"lng":456},{"postcode":"4500","lat":123,"lng":456},{"postcode":"3189","lat":123,"lng":456},{"postcode":"4060","lat":123,"lng":456},{"postcode":"3737","lat":123,"lng":456},{"postcode":"2322","lat":123,"lng":456},{"postcode":"3451","lat":123,"lng":456},{"postcode":"3083","lat":123,"lng":456},{"postcode":"2261","lat":123,"lng":456},{"postcode":"4870","lat":123,"lng":456},{"postcode":"4102","lat":123,"lng":456},{"postcode":"4102","lat":123,"lng":456},{"postcode":"3171","lat":123,"lng":456},{"postcode":"3139","lat":123,"lng":456},{"postcode":"2642","lat":123,"lng":456},{"postcode":"2250","lat":123,"lng":456},{"postcode":"2250","lat":123,"lng":456},{"postcode":"2251","lat":123,"lng":456},{"postcode":"2650","lat":123,"lng":456},{"postcode":"2795","lat":123,"lng":456},{"postcode":"3196","lat":123,"lng":456},{"postcode":"3041","lat":123,"lng":456},{"postcode":"2360","lat":123,"lng":456},{"postcode":"3585","lat":123,"lng":456},{"postcode":"2261","lat":123,"lng":456},{"postcode":"2010","lat":123,"lng":456},{"postcode":"2617","lat":123,"lng":456},{"postcode":"2534","lat":123,"lng":456},{"postcode":"3047","lat":123,"lng":456},{"postcode":"2478","lat":123,"lng":456},{"postcode":"2000","lat":123,"lng":456},{"postcode":"2000","lat":123,"lng":456},{"postcode":"2830","lat":123,"lng":456},{"postcode":"3451","lat":123,"lng":456},{"postcode":"2250","lat":123,"lng":456},{"postcode":"2251","lat":123,"lng":456},{"postcode":"4163","lat":123,"lng":456},{"postcode":"7330","lat":123,"lng":456},{"postcode":"3067","lat":123,"lng":456},{"postcode":"2560","lat":123,"lng":456},{"postcode":"2141","lat":123,"lng":456},{"postcode":"4114","lat":123,"lng":456},{"postcode":"2160","lat":123,"lng":456},{"postcode":"3980","lat":123,"lng":456},{"postcode":"3004","lat":123,"lng":456},{"postcode":"4005","lat":123,"lng":456},{"postcode":"3145","lat":123,"lng":456},{"postcode":"2120","lat":123,"lng":456},{"postcode":"4061","lat":123,"lng":456},{"postcode":"2295","lat":123,"lng":456},{"postcode":"2060","lat":123,"lng":456},{"postcode":"2008","lat":123,"lng":456},{"postcode":"2193","lat":123,"lng":456},{"postcode":"3350","lat":123,"lng":456},{"postcode":"2230","lat":123,"lng":456},{"postcode":"2026","lat":123,"lng":456},{"postcode":"3230","lat":123,"lng":456},{"postcode":"2675","lat":123,"lng":456},{"postcode":"2480","lat":123,"lng":456},{"postcode":"3175","lat":123,"lng":456},{"postcode":"2650","lat":123,"lng":456},{"postcode":"2835","lat":123,"lng":456},{"postcode":"2607","lat":123,"lng":456},{"postcode":"3131","lat":123,"lng":456},{"postcode":"4120","lat":123,"lng":456},{"postcode":"4120","lat":123,"lng":456},{"postcode":"2388","lat":123,"lng":456},{"postcode":"2388","lat":123,"lng":456},{"postcode":"3805","lat":123,"lng":456},{"postcode":"3171","lat":123,"lng":456},{"postcode":"2500","lat":123,"lng":456},{"postcode":"2211","lat":123,"lng":456},{"postcode":"3199","lat":123,"lng":456},{"postcode":"4066","lat":123,"lng":456},{"postcode":"3821","lat":123,"lng":456},{"postcode":"3350","lat":123,"lng":456},{"postcode":"2571","lat":123,"lng":456},{"postcode":"3370","lat":123,"lng":456},{"postcode":"2470","lat":123,"lng":456},{"postcode":"3472","lat":123,"lng":456},{"postcode":"2000","lat":123,"lng":456},{"postcode":"3995","lat":123,"lng":456},{"postcode":"2431","lat":123,"lng":456},{"postcode":"2227","lat":123,"lng":456},{"postcode":"2000","lat":123,"lng":456},{"postcode":"2430","lat":123,"lng":456},{"postcode":"2780","lat":123,"lng":456},{"postcode":"7173","lat":123,"lng":456},{"postcode":"3113","lat":123,"lng":456},{"postcode":"2216","lat":123,"lng":456},{"postcode":"3072","lat":123,"lng":456},{"postcode":"4005","lat":123,"lng":456},{"postcode":"2210","lat":123,"lng":456},{"postcode":"2259","lat":123,"lng":456},{"postcode":"4503","lat":123,"lng":456},{"postcode":"4014","lat":123,"lng":456},{"postcode":"4054","lat":123,"lng":456},{"postcode":"4054","lat":123,"lng":456},{"postcode":"3124","lat":123,"lng":456},{"postcode":"2034","lat":123,"lng":456},{"postcode":"3000","lat":123,"lng":456},{"postcode":"2230","lat":123,"lng":456},{"postcode":"2300","lat":123,"lng":456},{"postcode":"3000","lat":123,"lng":456},{"postcode":"2321","lat":123,"lng":456},{"postcode":"2300","lat":123,"lng":456},{"postcode":"2820","lat":123,"lng":456},{"postcode":"3824","lat":123,"lng":456},{"postcode":"2233","lat":123,"lng":456},{"postcode":"3083","lat":123,"lng":456},{"postcode":"7304","lat":123,"lng":456},{"postcode":"3165","lat":123,"lng":456},{"postcode":"3690","lat":123,"lng":456},{"postcode":"2422","lat":123,"lng":456},{"postcode":"3551","lat":123,"lng":456},{"postcode":"7215","lat":123,"lng":456},{"postcode":"7214","lat":123,"lng":456},{"postcode":"7249","lat":123,"lng":456},{"postcode":"2539","lat":123,"lng":456},{"postcode":"2292","lat":123,"lng":456},{"postcode":"7000","lat":123,"lng":456},{"postcode":"4169","lat":123,"lng":456},{"postcode":"2296","lat":123,"lng":456},{"postcode":"2350","lat":123,"lng":456},{"postcode":"4158","lat":123,"lng":456},{"postcode":"2060","lat":123,"lng":456},{"postcode":"2722","lat":123,"lng":456},{"postcode":"4101","lat":123,"lng":456},{"postcode":"3977","lat":123,"lng":456},{"postcode":"4030","lat":123,"lng":456},{"postcode":"2261","lat":123,"lng":456},{"postcode":"2830","lat":123,"lng":456},{"postcode":"2323","lat":123,"lng":456},{"postcode":"3453","lat":123,"lng":456},{"postcode":"2430","lat":123,"lng":456},{"postcode":"7009","lat":123,"lng":456},{"postcode":"3925","lat":123,"lng":456},{"postcode":"2060","lat":123,"lng":456},{"postcode":"2228","lat":123,"lng":456},{"postcode":"2110","lat":123,"lng":456},{"postcode":"2137","lat":123,"lng":456},{"postcode":"2321","lat":123,"lng":456},{"postcode":"3939","lat":123,"lng":456},{"postcode":"4152","lat":123,"lng":456},{"postcode":"2097","lat":123,"lng":456},{"postcode":"3730","lat":123,"lng":456},{"postcode":"3898","lat":123,"lng":456},{"postcode":"2232","lat":123,"lng":456},{"postcode":"2560","lat":123,"lng":456},{"postcode":"2148","lat":123,"lng":456},{"postcode":"2148","lat":123,"lng":456},{"postcode":"3677","lat":123,"lng":456},{"postcode":"7000","lat":123,"lng":456},{"postcode":"2330","lat":123,"lng":456},{"postcode":"2259","lat":123,"lng":456},{"postcode":"3350","lat":123,"lng":456},{"postcode":"3556","lat":123,"lng":456},{"postcode":"2546","lat":123,"lng":456},{"postcode":"2200","lat":123,"lng":456},{"postcode":"4020","lat":123,"lng":456},{"postcode":"2800","lat":123,"lng":456},{"postcode":"2011","lat":123,"lng":456},{"postcode":"2250","lat":123,"lng":456},{"postcode":"2456","lat":123,"lng":456},{"postcode":"4101","lat":123,"lng":456},{"postcode":"2166","lat":123,"lng":456},{"postcode":"3434","lat":123,"lng":456},{"postcode":"3931","lat":123,"lng":456},{"postcode":"4014","lat":123,"lng":456},{"postcode":"3936","lat":123,"lng":456},{"postcode":"2760","lat":123,"lng":456},{"postcode":"2010","lat":123,"lng":456},{"postcode":"2195","lat":123,"lng":456},{"postcode":"2195","lat":123,"lng":456},{"postcode":"2035","lat":123,"lng":456},{"postcode":"3199","lat":123,"lng":456},{"postcode":"3199","lat":123,"lng":456},{"postcode":"3012","lat":123,"lng":456},{"postcode":"7250","lat":123,"lng":456},{"postcode":"2093","lat":123,"lng":456},{"postcode":"3280","lat":123,"lng":456},{"postcode":"2354","lat":123,"lng":456},{"postcode":"4059","lat":123,"lng":456},{"postcode":"7264","lat":123,"lng":456},{"postcode":"3461","lat":123,"lng":456},{"postcode":"3305","lat":123,"lng":456},{"postcode":"3166","lat":123,"lng":456},{"postcode":"3171","lat":123,"lng":456},{"postcode":"7005","lat":123,"lng":456},{"postcode":"2142","lat":123,"lng":456},{"postcode":"3171","lat":123,"lng":456},{"postcode":"7270","lat":123,"lng":456},{"postcode":"3186","lat":123,"lng":456},{"postcode":"7275","lat":123,"lng":456},{"postcode":"2665","lat":123,"lng":456},{"postcode":"4032","lat":123,"lng":456},{"postcode":"3040","lat":123,"lng":456},{"postcode":"3350","lat":123,"lng":456},{"postcode":"2303","lat":123,"lng":456},{"postcode":"4053","lat":123,"lng":456},{"postcode":"2112","lat":123,"lng":456},{"postcode":"4163","lat":123,"lng":456},{"postcode":"3084","lat":123,"lng":456},{"postcode":"7211","lat":123,"lng":456},{"postcode":"2710","lat":123,"lng":456},{"postcode":"2444","lat":123,"lng":456},{"postcode":"2535","lat":123,"lng":456},{"postcode":"2463","lat":123,"lng":456},{"postcode":"3977","lat":123,"lng":456},{"postcode":"3019","lat":123,"lng":456},{"postcode":"2443","lat":123,"lng":456},{"postcode":"2444","lat":123,"lng":456},{"postcode":"4113","lat":123,"lng":456},{"postcode":"2446","lat":123,"lng":456},{"postcode":"3201","lat":123,"lng":456},{"postcode":"3047","lat":123,"lng":456},{"postcode":"3047","lat":123,"lng":456},{"postcode":"3047","lat":123,"lng":456},{"postcode":"4106","lat":123,"lng":456},{"postcode":"4019","lat":123,"lng":456},{"postcode":"7248","lat":123,"lng":456},{"postcode":"3143","lat":123,"lng":456},{"postcode":"3058","lat":123,"lng":456},{"postcode":"2135","lat":123,"lng":456},{"postcode":"2541","lat":123,"lng":456},{"postcode":"2455","lat":123,"lng":456},{"postcode":"3964","lat":123,"lng":456},{"postcode":"3741","lat":123,"lng":456},{"postcode":"2750","lat":123,"lng":456},{"postcode":"7310","lat":123,"lng":456},{"postcode":"7331","lat":123,"lng":456},{"postcode":"2260","lat":123,"lng":456},{"postcode":"3068","lat":123,"lng":456},{"postcode":"3004","lat":123,"lng":456},{"postcode":"7030","lat":123,"lng":456},{"postcode":"7030","lat":123,"lng":456},{"postcode":"3182","lat":123,"lng":456},{"postcode":"2500","lat":123,"lng":456},{"postcode":"4054","lat":123,"lng":456},{"postcode":"2629","lat":123,"lng":456},{"postcode":"3224","lat":123,"lng":456},{"postcode":"2747","lat":123,"lng":456},{"postcode":"4501","lat":123,"lng":456},{"postcode":"3181","lat":123,"lng":456},{"postcode":"7017","lat":123,"lng":456},{"postcode":"7190","lat":123,"lng":456},{"postcode":"4101","lat":123,"lng":456},{"postcode":"3407","lat":123,"lng":456},{"postcode":"3170","lat":123,"lng":456},{"postcode":"3752","lat":123,"lng":456},{"postcode":"2000","lat":123,"lng":456},{"postcode":"3199","lat":123,"lng":456},{"postcode":"3825","lat":123,"lng":456},{"postcode":"2131","lat":123,"lng":456},{"postcode":"3550","lat":123,"lng":456},{"postcode":"3862","lat":123,"lng":456},{"postcode":"4305","lat":123,"lng":456},{"postcode":"3350","lat":123,"lng":456},{"postcode":"2567","lat":123,"lng":456},{"postcode":"2428","lat":123,"lng":456},{"postcode":"7174","lat":123,"lng":456},{"postcode":"3058","lat":123,"lng":456},{"postcode":"2576","lat":123,"lng":456},{"postcode":"2428","lat":123,"lng":456},{"postcode":"2453","lat":123,"lng":456},{"postcode":"3195","lat":123,"lng":456},{"postcode":"2029","lat":123,"lng":456},{"postcode":"2620","lat":123,"lng":456},{"postcode":"2572","lat":123,"lng":456},{"postcode":"2222","lat":123,"lng":456},{"postcode":"3556","lat":123,"lng":456},{"postcode":"2760","lat":123,"lng":456},{"postcode":"4034","lat":123,"lng":456},{"postcode":"2031","lat":123,"lng":456},{"postcode":"2583","lat":123,"lng":456},{"postcode":"2422","lat":123,"lng":456},{"postcode":"2539","lat":123,"lng":456},{"postcode":"3040","lat":123,"lng":456},{"postcode":"2614","lat":123,"lng":456},{"postcode":"2168","lat":123,"lng":456},{"postcode":"3186","lat":123,"lng":456},{"postcode":"3630","lat":123,"lng":456},{"postcode":"4305","lat":123,"lng":456},{"postcode":"2483","lat":123,"lng":456},{"postcode":"2700","lat":123,"lng":456},{"postcode":"3004","lat":123,"lng":456},{"postcode":"2476","lat":123,"lng":456},{"postcode":"2011","lat":123,"lng":456},{"postcode":"2444","lat":123,"lng":456},{"postcode":"3030","lat":123,"lng":456},{"postcode":"2065","lat":123,"lng":456},{"postcode":"2750","lat":123,"lng":456},{"postcode":"2644","lat":123,"lng":456},{"postcode":"4020","lat":123,"lng":456},{"postcode":"4020","lat":123,"lng":456},{"postcode":"3630","lat":123,"lng":456},{"postcode":"3630","lat":123,"lng":456},{"postcode":"2066","lat":123,"lng":456},{"postcode":"3206","lat":123,"lng":456},{"postcode":"2430","lat":123,"lng":456},{"postcode":"2042","lat":123,"lng":456},{"postcode":"2031","lat":123,"lng":456},{"postcode":"2077","lat":123,"lng":456},{"postcode":"7307","lat":123,"lng":456},{"postcode":"2450","lat":123,"lng":456},{"postcode":"2541","lat":123,"lng":456},{"postcode":"3621","lat":123,"lng":456},{"postcode":"2370","lat":123,"lng":456},{"postcode":"3216","lat":123,"lng":456},{"postcode":"4870","lat":123,"lng":456},{"postcode":"2423","lat":123,"lng":456},{"postcode":"3066","lat":123,"lng":456},{"postcode":"3143","lat":123,"lng":456},{"postcode":"3046","lat":123,"lng":456},{"postcode":"7212","lat":123,"lng":456},{"postcode":"3178","lat":123,"lng":456},{"postcode":"3178","lat":123,"lng":456},{"postcode":"4110","lat":123,"lng":456},{"postcode":"2571","lat":123,"lng":456},{"postcode":"3660","lat":123,"lng":456},{"postcode":"2033","lat":123,"lng":456},{"postcode":"7010","lat":123,"lng":456},{"postcode":"2049","lat":123,"lng":456},{"postcode":"4000","lat":123,"lng":456},{"postcode":"4000","lat":123,"lng":456},{"postcode":"2428","lat":123,"lng":456},{"postcode":"3862","lat":123,"lng":456},{"postcode":"2337","lat":123,"lng":456},{"postcode":"3875","lat":123,"lng":456},{"postcode":"3140","lat":123,"lng":456},{"postcode":"3088","lat":123,"lng":456},{"postcode":"2145","lat":123,"lng":456},{"postcode":"2573","lat":123,"lng":456},{"postcode":"3141","lat":123,"lng":456},{"postcode":"3046","lat":123,"lng":456},{"postcode":"4105","lat":123,"lng":456},{"postcode":"3356","lat":123,"lng":456},{"postcode":"2790","lat":123,"lng":456},{"postcode":"2033","lat":123,"lng":456},{"postcode":"7008","lat":123,"lng":456},{"postcode":"2480","lat":123,"lng":456},{"postcode":"3163","lat":123,"lng":456},{"postcode":"4301","lat":123,"lng":456},{"postcode":"2150","lat":123,"lng":456},{"postcode":"2099","lat":123,"lng":456},{"postcode":"2906","lat":123,"lng":456},{"postcode":"4207","lat":123,"lng":456},{"postcode":"3021","lat":123,"lng":456},{"postcode":"2040","lat":123,"lng":456},{"postcode":"4102","lat":123,"lng":456},{"postcode":"2760","lat":123,"lng":456},{"postcode":"3046","lat":123,"lng":456},{"postcode":"2172","lat":123,"lng":456},{"postcode":"4031","lat":123,"lng":456},{"postcode":"3156","lat":123,"lng":456},{"postcode":"7248","lat":123,"lng":456},{"postcode":"3977","lat":123,"lng":456},{"postcode":"4009","lat":123,"lng":456},{"postcode":"2257","lat":123,"lng":456},{"postcode":"2446","lat":123,"lng":456},{"postcode":"3130","lat":123,"lng":456},{"postcode":"2466","lat":123,"lng":456},{"postcode":"3380","lat":123,"lng":456},{"postcode":"3020","lat":123,"lng":456},{"postcode":"3053","lat":123,"lng":456},{"postcode":"3053","lat":123,"lng":456},{"postcode":"2354","lat":123,"lng":456},{"postcode":"4013","lat":123,"lng":456},{"postcode":"3030","lat":123,"lng":456},{"postcode":"2283","lat":123,"lng":456},{"postcode":"3127","lat":123,"lng":456},{"postcode":"3021","lat":123,"lng":456},{"postcode":"4207","lat":123,"lng":456},{"postcode":"3197","lat":123,"lng":456},{"postcode":"4051","lat":123,"lng":456},{"postcode":"2000","lat":123,"lng":456},{"postcode":"4183","lat":123,"lng":456},{"postcode":"4305","lat":123,"lng":456},{"postcode":"3065","lat":123,"lng":456},{"postcode":"2508","lat":123,"lng":456},{"postcode":"3730","lat":123,"lng":456},{"postcode":"3500","lat":123,"lng":456},{"postcode":"2206","lat":123,"lng":456},{"postcode":"3183","lat":123,"lng":456},{"postcode":"3285","lat":123,"lng":456},{"postcode":"3104","lat":123,"lng":456},{"postcode":"2081","lat":123,"lng":456},{"postcode":"3163","lat":123,"lng":456},{"postcode":"4105","lat":123,"lng":456},{"postcode":"2360","lat":123,"lng":456},{"postcode":"2000","lat":123,"lng":456},{"postcode":"3549","lat":123,"lng":456},{"postcode":"2541","lat":123,"lng":456},{"postcode":"4103","lat":123,"lng":456},{"postcode":"4207","lat":123,"lng":456},{"postcode":"4066","lat":123,"lng":456},{"postcode":"3201","lat":123,"lng":456},{"postcode":"2777","lat":123,"lng":456},{"postcode":"2790","lat":123,"lng":456},{"postcode":"2121","lat":123,"lng":456},{"postcode":"2320","lat":123,"lng":456},{"postcode":"2460","lat":123,"lng":456},{"postcode":"3823","lat":123,"lng":456},{"postcode":"3039","lat":123,"lng":456},{"postcode":"3198","lat":123,"lng":456},{"postcode":"2088","lat":123,"lng":456},{"postcode":"2035","lat":123,"lng":456},{"postcode":"2443","lat":123,"lng":456},{"postcode":"2142","lat":123,"lng":456},{"postcode":"7250","lat":123,"lng":456},{"postcode":"3016","lat":123,"lng":456},{"postcode":"4207","lat":123,"lng":456},{"postcode":"3016","lat":123,"lng":456},{"postcode":"2481","lat":123,"lng":456},{"postcode":"2481","lat":123,"lng":456},{"postcode":"3075","lat":123,"lng":456},{"postcode":"2089","lat":123,"lng":456},{"postcode":"3198","lat":123,"lng":456},{"postcode":"2146","lat":123,"lng":456},{"postcode":"2261","lat":123,"lng":456},{"postcode":"3124","lat":123,"lng":456},{"postcode":"3201","lat":123,"lng":456},{"postcode":"4000","lat":123,"lng":456},{"postcode":"2150","lat":123,"lng":456},{"postcode":"2037","lat":123,"lng":456},{"postcode":"3193","lat":123,"lng":456},{"postcode":"3910","lat":123,"lng":456},{"postcode":"3199","lat":123,"lng":456},{"postcode":"3381","lat":123,"lng":456},{"postcode":"2350","lat":123,"lng":456},{"postcode":"3810","lat":123,"lng":456},{"postcode":"7469","lat":123,"lng":456},{"postcode":"2715","lat":123,"lng":456},{"postcode":"2640","lat":123,"lng":456},{"postcode":"3152","lat":123,"lng":456},{"postcode":"3737","lat":123,"lng":456},{"postcode":"2200","lat":123,"lng":456},{"postcode":"4010","lat":123,"lng":456},{"postcode":"3031","lat":123,"lng":456},{"postcode":"2462","lat":123,"lng":456},{"postcode":"3350","lat":123,"lng":456},{"postcode":"2350","lat":123,"lng":456},{"postcode":"2088","lat":123,"lng":456},{"postcode":"4503","lat":123,"lng":456},{"postcode":"2646","lat":123,"lng":456},{"postcode":"3677","lat":123,"lng":456},{"postcode":"4160","lat":123,"lng":456},{"postcode":"3156","lat":123,"lng":456},{"postcode":"4121","lat":123,"lng":456},{"postcode":"2556","lat":123,"lng":456},{"postcode":"2360","lat":123,"lng":456},{"postcode":"4170","lat":123,"lng":456},{"postcode":"4102","lat":123,"lng":456},{"postcode":"3159","lat":123,"lng":456},{"postcode":"2038","lat":123,"lng":456},{"postcode":"4017","lat":123,"lng":456},{"postcode":"3186","lat":123,"lng":456},{"postcode":"7015","lat":123,"lng":456},{"postcode":"7250","lat":123,"lng":456},{"postcode":"7248","lat":123,"lng":456},{"postcode":"2096","lat":123,"lng":456},{"postcode":"2141","lat":123,"lng":456},{"postcode":"2663","lat":123,"lng":456},{"postcode":"2539","lat":123,"lng":456},{"postcode":"4064","lat":123,"lng":456},{"postcode":"2515","lat":123,"lng":456},{"postcode":"2112","lat":123,"lng":456},{"postcode":"3218","lat":123,"lng":456},{"postcode":"4007","lat":123,"lng":456},{"postcode":"2573","lat":123,"lng":456},{"postcode":"3073","lat":123,"lng":456},{"postcode":"7310","lat":123,"lng":456},{"postcode":"2720","lat":123,"lng":456},{"postcode":"3090","lat":123,"lng":456},{"postcode":"7470","lat":123,"lng":456},{"postcode":"3039","lat":123,"lng":456},{"postcode":"2422","lat":123,"lng":456},{"postcode":"2261","lat":123,"lng":456},{"postcode":"2261","lat":123,"lng":456},{"postcode":"3747","lat":123,"lng":456},{"postcode":"3850","lat":123,"lng":456},{"postcode":"2081","lat":123,"lng":456},{"postcode":"6646","lat":123,"lng":456},{"postcode":"2871","lat":123,"lng":456},{"postcode":"2680","lat":123,"lng":456},{"postcode":"3137","lat":123,"lng":456},{"postcode":"3875","lat":123,"lng":456},{"postcode":"3842","lat":123,"lng":456},{"postcode":"3000","lat":123,"lng":456},{"postcode":"4103","lat":123,"lng":456},{"postcode":"2261","lat":123,"lng":456},{"postcode":"3665","lat":123,"lng":456},{"postcode":"7304","lat":123,"lng":456},{"postcode":"4870","lat":123,"lng":456},{"postcode":"2868","lat":123,"lng":456},{"postcode":"3805","lat":123,"lng":456},{"postcode":"3575","lat":123,"lng":456},{"postcode":"3173","lat":123,"lng":456},{"postcode":"2200","lat":123,"lng":456},{"postcode":"7000","lat":123,"lng":456},{"postcode":"4005","lat":123,"lng":456},{"postcode":"7264","lat":123,"lng":456},{"postcode":"3659","lat":123,"lng":456},{"postcode":"3909","lat":123,"lng":456},{"postcode":"4305","lat":123,"lng":456},{"postcode":"3550","lat":123,"lng":456},{"postcode":"2295","lat":123,"lng":456},{"postcode":"2070","lat":123,"lng":456},{"postcode":"2256","lat":123,"lng":456},{"postcode":"2166","lat":123,"lng":456},{"postcode":"3216","lat":123,"lng":456},{"postcode":"3039","lat":123,"lng":456},{"postcode":"3039","lat":123,"lng":456},{"postcode":"2871","lat":123,"lng":456},{"postcode":"7213","lat":123,"lng":456},{"postcode":"2903","lat":123,"lng":456},{"postcode":"2800","lat":123,"lng":456},{"postcode":"4124","lat":123,"lng":456},{"postcode":"3070","lat":123,"lng":456},{"postcode":"3226","lat":123,"lng":456},{"postcode":"3051","lat":123,"lng":456},{"postcode":"2133","lat":123,"lng":456},{"postcode":"4053","lat":123,"lng":456},{"postcode":"2478","lat":123,"lng":456},{"postcode":"2580","lat":123,"lng":456},{"postcode":"3058","lat":123,"lng":456},{"postcode":"2251","lat":123,"lng":456},{"postcode":"2753","lat":123,"lng":456},{"postcode":"7000","lat":123,"lng":456},{"postcode":"2114","lat":123,"lng":456},{"postcode":"3996","lat":123,"lng":456},{"postcode":"7322","lat":123,"lng":456},{"postcode":"2251","lat":123,"lng":456},{"postcode":"2480","lat":123,"lng":456},{"postcode":"4000","lat":123,"lng":456},{"postcode":"2000","lat":123,"lng":456},{"postcode":"2026","lat":123,"lng":456},{"postcode":"3447","lat":123,"lng":456},{"postcode":"2541","lat":123,"lng":456},{"postcode":"3000","lat":123,"lng":456},{"postcode":"2711","lat":123,"lng":456},{"postcode":"7000","lat":123,"lng":456},{"postcode":"4118","lat":123,"lng":456},{"postcode":"4103","lat":123,"lng":456},{"postcode":"4163","lat":123,"lng":456},{"postcode":"3018","lat":123,"lng":456},{"postcode":"2190","lat":123,"lng":456},{"postcode":"4207","lat":123,"lng":456},{"postcode":"2037","lat":123,"lng":456},{"postcode":"3500","lat":123,"lng":456},{"postcode":"4078","lat":123,"lng":456},{"postcode":"2261","lat":123,"lng":456},{"postcode":"3156","lat":123,"lng":456},{"postcode":"2036","lat":123,"lng":456},{"postcode":"3355","lat":123,"lng":456},{"postcode":"4117","lat":123,"lng":456},{"postcode":"2323","lat":123,"lng":456},{"postcode":"4000","lat":123,"lng":456},{"postcode":"3000","lat":123,"lng":456},{"postcode":"3280","lat":123,"lng":456},{"postcode":"3831","lat":123,"lng":456},{"postcode":"4109","lat":123,"lng":456},{"postcode":"4101","lat":123,"lng":456},{"postcode":"3220","lat":123,"lng":456},{"postcode":"2223","lat":123,"lng":456},{"postcode":"4171","lat":123,"lng":456},{"postcode":"3000","lat":123,"lng":456},{"postcode":"3355","lat":123,"lng":456},{"postcode":"3169","lat":123,"lng":456},{"postcode":"3201","lat":123,"lng":456},{"postcode":"3156","lat":123,"lng":456},{"postcode":"2031","lat":123,"lng":456},{"postcode":"2821","lat":123,"lng":456},{"postcode":"3875","lat":123,"lng":456},{"postcode":"2770","lat":123,"lng":456},{"postcode":"3064","lat":123,"lng":456},{"postcode":"2795","lat":123,"lng":456},{"postcode":"3056","lat":123,"lng":456},{"postcode":"3175","lat":123,"lng":456},{"postcode":"3178","lat":123,"lng":456},{"postcode":"2745","lat":123,"lng":456},{"postcode":"3192","lat":123,"lng":456},{"postcode":"4121","lat":123,"lng":456},{"postcode":"7316","lat":123,"lng":456},{"postcode":"4000","lat":123,"lng":456},{"postcode":"2324","lat":123,"lng":456},{"postcode":"3155","lat":123,"lng":456},{"postcode":"3500","lat":123,"lng":456},{"postcode":"3658","lat":123,"lng":456},{"postcode":"2261","lat":123,"lng":456},{"postcode":"3444","lat":123,"lng":456},{"postcode":"3444","lat":123,"lng":456},{"postcode":"2540","lat":123,"lng":456},{"postcode":"3141","lat":123,"lng":456},{"postcode":"3013","lat":123,"lng":456},{"postcode":"3012","lat":123,"lng":456},{"postcode":"4505","lat":123,"lng":456},{"postcode":"2340","lat":123,"lng":456},{"postcode":"2444","lat":123,"lng":456},{"postcode":"4174","lat":123,"lng":456},{"postcode":"7150","lat":123,"lng":456},{"postcode":"3941","lat":123,"lng":456},{"postcode":"4304","lat":123,"lng":456},{"postcode":"4306","lat":123,"lng":456},{"postcode":"3500","lat":123,"lng":456},{"postcode":"4107","lat":123,"lng":456},{"postcode":"3124","lat":123,"lng":456},{"postcode":"2220","lat":123,"lng":456},{"postcode":"3467","lat":123,"lng":456},{"postcode":"3555","lat":123,"lng":456},{"postcode":"2035","lat":123,"lng":456},{"postcode":"3025","lat":123,"lng":456},{"postcode":"2480","lat":123,"lng":456},{"postcode":"2787","lat":123,"lng":456},{"postcode":"2225","lat":123,"lng":456},{"postcode":"2145","lat":123,"lng":456},{"postcode":"2031","lat":123,"lng":456},{"postcode":"2031","lat":123,"lng":456},{"postcode":"2126","lat":123,"lng":456},{"postcode":"2800","lat":123,"lng":456},{"postcode":"2620","lat":123,"lng":456},{"postcode":"4077","lat":123,"lng":456},{"postcode":"3121","lat":123,"lng":456},{"postcode":"2162","lat":123,"lng":456},{"postcode":"3939","lat":123,"lng":456},{"postcode":"2905","lat":123,"lng":456},{"postcode":"3677","lat":123,"lng":456},{"postcode":"3342","lat":123,"lng":456},{"postcode":"2906","lat":123,"lng":456},{"postcode":"2347","lat":123,"lng":456},{"postcode":"3215","lat":123,"lng":456},{"postcode":"2630","lat":123,"lng":456},{"postcode":"4114","lat":123,"lng":456},{"postcode":"4031","lat":123,"lng":456},{"postcode":"2480","lat":123,"lng":456},{"postcode":"2758","lat":123,"lng":456},{"postcode":"4012","lat":123,"lng":456},{"postcode":"4305","lat":123,"lng":456},{"postcode":"2869","lat":123,"lng":456},{"postcode":"2150","lat":123,"lng":456},{"postcode":"2150","lat":123,"lng":456},{"postcode":"4101","lat":123,"lng":456},{"postcode":"4183","lat":123,"lng":456},{"postcode":"2539","lat":123,"lng":456},{"postcode":"2756","lat":123,"lng":456},{"postcode":"2038","lat":123,"lng":456},{"postcode":"3956","lat":123,"lng":456},{"postcode":"3000","lat":123,"lng":456},{"postcode":"2161","lat":123,"lng":456},{"postcode":"4171","lat":123,"lng":456},{"postcode":"4171","lat":123,"lng":456},{"postcode":"3672","lat":123,"lng":456},{"postcode":"4169","lat":123,"lng":456},{"postcode":"2101","lat":123,"lng":456},{"postcode":"3757","lat":123,"lng":456},{"postcode":"3174","lat":123,"lng":456},{"postcode":"2031","lat":123,"lng":456},{"postcode":"4207","lat":123,"lng":456},{"postcode":"3064","lat":123,"lng":456},{"postcode":"2850","lat":123,"lng":456},{"postcode":"2767","lat":123,"lng":456},{"postcode":"4007","lat":123,"lng":456},{"postcode":"4007","lat":123,"lng":456},{"postcode":"3194","lat":123,"lng":456},{"postcode":"2250","lat":123,"lng":456},{"postcode":"2304","lat":123,"lng":456},{"postcode":"2304","lat":123,"lng":456},{"postcode":"4000","lat":123,"lng":456},{"postcode":"3105","lat":123,"lng":456},{"postcode":"2259","lat":123,"lng":456},{"postcode":"3183","lat":123,"lng":456},{"postcode":"3690","lat":123,"lng":456},{"postcode":"3130","lat":123,"lng":456},{"postcode":"2500","lat":123,"lng":456},{"postcode":"4507","lat":123,"lng":456},{"postcode":"3444","lat":123,"lng":456},{"postcode":"4007","lat":123,"lng":456},{"postcode":"3163","lat":123,"lng":456},{"postcode":"2024","lat":123,"lng":456},{"postcode":"3178","lat":123,"lng":456},{"postcode":"3144","lat":123,"lng":456},{"postcode":"3144","lat":123,"lng":456},{"postcode":"3766","lat":123,"lng":456},{"postcode":"3169","lat":123,"lng":456},{"postcode":"3712","lat":123,"lng":456},{"postcode":"2420","lat":123,"lng":456},{"postcode":"2170","lat":123,"lng":456},{"postcode":"4503","lat":123,"lng":456},{"postcode":"2350","lat":123,"lng":456},{"postcode":"2852","lat":123,"lng":456},{"postcode":"2260","lat":123,"lng":456},{"postcode":"3006","lat":123,"lng":456},{"postcode":"2350","lat":123,"lng":456},{"postcode":"3121","lat":123,"lng":456},{"postcode":"3060","lat":123,"lng":456},{"postcode":"2204","lat":123,"lng":456},{"postcode":"7307","lat":123,"lng":456},{"postcode":"2428","lat":123,"lng":456},{"postcode":"3149","lat":123,"lng":456},{"postcode":"2827","lat":123,"lng":456},{"postcode":"3732","lat":123,"lng":456},{"postcode":"2138","lat":123,"lng":456},{"postcode":"2300","lat":123,"lng":456},{"postcode":"3182","lat":123,"lng":456},{"postcode":"3228","lat":123,"lng":456},{"postcode":"3464","lat":123,"lng":456},{"postcode":"3047","lat":123,"lng":456},{"postcode":"3189","lat":123,"lng":456},{"postcode":"3727","lat":123,"lng":456},{"postcode":"3912","lat":123,"lng":456},{"postcode":"7213","lat":123,"lng":456},{"postcode":"7030","lat":123,"lng":456},{"postcode":"2286","lat":123,"lng":456},{"postcode":"2500","lat":123,"lng":456},{"postcode":"7140","lat":123,"lng":456},{"postcode":"2193","lat":123,"lng":456},{"postcode":"2131","lat":123,"lng":456},{"postcode":"2617","lat":123,"lng":456},{"postcode":"2481","lat":123,"lng":456},{"postcode":"3107","lat":123,"lng":456},{"postcode":"3873","lat":123,"lng":456},{"postcode":"4520","lat":123,"lng":456},{"postcode":"3268","lat":123,"lng":456},{"postcode":"3015","lat":123,"lng":456},{"postcode":"3639","lat":123,"lng":456},{"postcode":"3011","lat":123,"lng":456},{"postcode":"4304","lat":123,"lng":456},{"postcode":"2261","lat":123,"lng":456},{"postcode":"2850","lat":123,"lng":456},{"postcode":"2330","lat":123,"lng":456},{"postcode":"4102","lat":123,"lng":456},{"postcode":"2344","lat":123,"lng":456},{"postcode":"2480","lat":123,"lng":456},{"postcode":"2031","lat":123,"lng":456},{"postcode":"2142","lat":123,"lng":456},{"postcode":"2095","lat":123,"lng":456},{"postcode":"4065","lat":123,"lng":456},{"postcode":"2546","lat":123,"lng":456},{"postcode":"3660","lat":123,"lng":456},{"postcode":"3108","lat":123,"lng":456},{"postcode":"3796","lat":123,"lng":456},{"postcode":"7310","lat":123,"lng":456},{"postcode":"2799","lat":123,"lng":456},{"postcode":"2100","lat":123,"lng":456},{"postcode":"3012","lat":123,"lng":456},{"postcode":"2035","lat":123,"lng":456},{"postcode":"2580","lat":123,"lng":456},{"postcode":"2580","lat":123,"lng":456},{"postcode":"2580","lat":123,"lng":456},{"postcode":"3183","lat":123,"lng":456},{"postcode":"3350","lat":123,"lng":456},{"postcode":"3350","lat":123,"lng":456},{"postcode":"3550","lat":123,"lng":456},{"postcode":"3629","lat":123,"lng":456},{"postcode":"3977","lat":123,"lng":456},{"postcode":"2048","lat":123,"lng":456},{"postcode":"3052","lat":123,"lng":456},{"postcode":"2019","lat":123,"lng":456},{"postcode":"3020","lat":123,"lng":456},{"postcode":"2303","lat":123,"lng":456},{"postcode":"4165","lat":123,"lng":456},{"postcode":"3233","lat":123,"lng":456},{"postcode":"3318","lat":123,"lng":456},{"postcode":"3029","lat":123,"lng":456},{"postcode":"3690","lat":123,"lng":456},{"postcode":"2147","lat":123,"lng":456},{"postcode":"4000","lat":123,"lng":456},{"postcode":"4019","lat":123,"lng":456},{"postcode":"3000","lat":123,"lng":456},{"postcode":"3068","lat":123,"lng":456},{"postcode":"4152","lat":123,"lng":456},{"postcode":"2000","lat":123,"lng":456},{"postcode":"3056","lat":123,"lng":456},{"postcode":"7000","lat":123,"lng":456},{"postcode":"4013","lat":123,"lng":456},{"postcode":"3053","lat":123,"lng":456},{"postcode":"3630","lat":123,"lng":456},{"postcode":"3195","lat":123,"lng":456},{"postcode":"3072","lat":123,"lng":456},{"postcode":"3677","lat":123,"lng":456},{"postcode":"3550","lat":123,"lng":456},{"postcode":"3228","lat":123,"lng":456},{"postcode":"2135","lat":123,"lng":456},{"postcode":"3013","lat":123,"lng":456},{"postcode":"4034","lat":123,"lng":456},{"postcode":"3154","lat":123,"lng":456},{"postcode":"2370","lat":123,"lng":456},{"postcode":"7250","lat":123,"lng":456},{"postcode":"3186","lat":123,"lng":456},{"postcode":"2565","lat":123,"lng":456},{"postcode":"2112","lat":123,"lng":456},{"postcode":"3011","lat":123,"lng":456},{"postcode":"4178","lat":123,"lng":456},{"postcode":"3058","lat":123,"lng":456},{"postcode":"3185","lat":123,"lng":456},{"postcode":"2304","lat":123,"lng":456},{"postcode":"4118","lat":123,"lng":456},{"postcode":"2170","lat":123,"lng":456},{"postcode":"3500","lat":123,"lng":456},{"postcode":"2527","lat":123,"lng":456},{"postcode":"3000","lat":123,"lng":456},{"postcode":"3618","lat":123,"lng":456},{"postcode":"7185","lat":123,"lng":456},{"postcode":"2259","lat":123,"lng":456},{"postcode":"4106","lat":123,"lng":456},{"postcode":"3074","lat":123,"lng":456},{"postcode":"3021","lat":123,"lng":456},{"postcode":"2211","lat":123,"lng":456},{"postcode":"2620","lat":123,"lng":456},{"postcode":"4055","lat":123,"lng":456},{"postcode":"3161","lat":123,"lng":456},{"postcode":"3136","lat":123,"lng":456},{"postcode":"3136","lat":123,"lng":456},{"postcode":"4163","lat":123,"lng":456},{"postcode":"2440","lat":123,"lng":456},{"postcode":"7310","lat":123,"lng":456},{"postcode":"2213","lat":123,"lng":456},{"postcode":"4000","lat":123,"lng":456},{"postcode":"3145","lat":123,"lng":456},{"postcode":"3145","lat":123,"lng":456},{"postcode":"3101","lat":123,"lng":456},{"postcode":"2233","lat":123,"lng":456},{"postcode":"7307","lat":123,"lng":456},{"postcode":"4112","lat":123,"lng":456},{"postcode":"7211","lat":123,"lng":456},{"postcode":"2570","lat":123,"lng":456},{"postcode":"3047","lat":123,"lng":456},{"postcode":"3175","lat":123,"lng":456},{"postcode":"3175","lat":123,"lng":456},{"postcode":"4054","lat":123,"lng":456},{"postcode":"3844","lat":123,"lng":456},{"postcode":"2150","lat":123,"lng":456},{"postcode":"7010","lat":123,"lng":456},{"postcode":"3174","lat":123,"lng":456},{"postcode":"3084","lat":123,"lng":456},{"postcode":"4114","lat":123,"lng":456},{"postcode":"2089","lat":123,"lng":456},{"postcode":"2539","lat":123,"lng":456},{"postcode":"2478","lat":123,"lng":456},{"postcode":"3218","lat":123,"lng":456},{"postcode":"2233","lat":123,"lng":456},{"postcode":"2210","lat":123,"lng":456},{"postcode":"3095","lat":123,"lng":456},{"postcode":"2470","lat":123,"lng":456},{"postcode":"4030","lat":123,"lng":456},{"postcode":"4030","lat":123,"lng":456},{"postcode":"3550","lat":123,"lng":456},{"postcode":"3000","lat":123,"lng":456},{"postcode":"2300","lat":123,"lng":456},{"postcode":"2330","lat":123,"lng":456},{"postcode":"3844","lat":123,"lng":456},{"postcode":"3219","lat":123,"lng":456},{"postcode":"2302","lat":123,"lng":456},{"postcode":"4169","lat":123,"lng":456},{"postcode":"3500","lat":123,"lng":456},{"postcode":"2470","lat":123,"lng":456},{"postcode":"2250","lat":123,"lng":456},{"postcode":"4000","lat":123,"lng":456},{"postcode":"2325","lat":123,"lng":456},{"postcode":"2101","lat":123,"lng":456},{"postcode":"2101","lat":123,"lng":456},{"postcode":"3124","lat":123,"lng":456},{"postcode":"2642","lat":123,"lng":456},{"postcode":"3767","lat":123,"lng":456},{"postcode":"2850","lat":123,"lng":456},{"postcode":"3670","lat":123,"lng":456},{"postcode":"2156","lat":123,"lng":456},{"postcode":"4102","lat":123,"lng":456},{"postcode":"4075","lat":123,"lng":456},{"postcode":"3030","lat":123,"lng":456},{"postcode":"3195","lat":123,"lng":456},{"postcode":"3550","lat":123,"lng":456},{"postcode":"4520","lat":123,"lng":456},{"postcode":"3167","lat":123,"lng":456},{"postcode":"2480","lat":123,"lng":456},{"postcode":"2732","lat":123,"lng":456},{"postcode":"3793","lat":123,"lng":456},{"postcode":"3012","lat":123,"lng":456},{"postcode":"4007","lat":123,"lng":456},{"postcode":"4172","lat":123,"lng":456},{"postcode":"3072","lat":123,"lng":456},{"postcode":"4163","lat":123,"lng":456},{"postcode":"3223","lat":123,"lng":456},{"postcode":"3146","lat":123,"lng":456},{"postcode":"3620","lat":123,"lng":456},{"postcode":"2803","lat":123,"lng":456},{"postcode":"4304","lat":123,"lng":456},{"postcode":"2500","lat":123,"lng":456},{"postcode":"3585","lat":123,"lng":456},{"postcode":"3144","lat":123,"lng":456},{"postcode":"4031","lat":123,"lng":456},{"postcode":"4020","lat":123,"lng":456},{"postcode":"2620","lat":123,"lng":456},{"postcode":"2750","lat":123,"lng":456},{"postcode":"3134","lat":123,"lng":456},{"postcode":"4060","lat":123,"lng":456},{"postcode":"2453","lat":123,"lng":456},{"postcode":"4152","lat":123,"lng":456},{"postcode":"2280","lat":123,"lng":456},{"postcode":"3155","lat":123,"lng":456},{"postcode":"2564","lat":123,"lng":456},{"postcode":"2564","lat":123,"lng":456},{"postcode":"3143","lat":123,"lng":456},{"postcode":"2830","lat":123,"lng":456},{"postcode":"2669","lat":123,"lng":456},{"postcode":"3179","lat":123,"lng":456},{"postcode":"4121","lat":123,"lng":456},{"postcode":"2680","lat":123,"lng":456},{"postcode":"2283","lat":123,"lng":456},{"postcode":"2142","lat":123,"lng":456},{"postcode":"2590","lat":123,"lng":456},{"postcode":"2464","lat":123,"lng":456},{"postcode":"2453","lat":123,"lng":456},{"postcode":"2429","lat":123,"lng":456},{"postcode":"3858","lat":123,"lng":456},{"postcode":"4152","lat":123,"lng":456},{"postcode":"2680","lat":123,"lng":456},{"postcode":"2216","lat":123,"lng":456},{"postcode":"2541","lat":123,"lng":456},{"postcode":"2652","lat":123,"lng":456},{"postcode":"2877","lat":123,"lng":456},{"postcode":"2443","lat":123,"lng":456},{"postcode":"2283","lat":123,"lng":456},{"postcode":"4030","lat":123,"lng":456},{"postcode":"3595","lat":123,"lng":456},{"postcode":"2320","lat":123,"lng":456},{"postcode":"3269","lat":123,"lng":456},{"postcode":"4077","lat":123,"lng":456},{"postcode":"3136","lat":123,"lng":456},{"postcode":"4105","lat":123,"lng":456},{"postcode":"3639","lat":123,"lng":456},{"postcode":"2312","lat":123,"lng":456},{"postcode":"3713","lat":123,"lng":456},{"postcode":"2540","lat":123,"lng":456},{"postcode":"3916","lat":123,"lng":456},{"postcode":"2566","lat":123,"lng":456},{"postcode":"7315","lat":123,"lng":456},{"postcode":"4036","lat":123,"lng":456},{"postcode":"2536","lat":123,"lng":456},{"postcode":"7252","lat":123,"lng":456},{"postcode":"2820","lat":123,"lng":456},{"postcode":"4300","lat":123,"lng":456},{"postcode":"4068","lat":123,"lng":456},{"postcode":"3131","lat":123,"lng":456},{"postcode":"4183","lat":123,"lng":456},{"postcode":"4068","lat":123,"lng":456},{"postcode":"3714","lat":123,"lng":456},{"postcode":"4868","lat":123,"lng":456},{"postcode":"2209","lat":123,"lng":456},{"postcode":"2777","lat":123,"lng":456},{"postcode":"3799","lat":123,"lng":456},{"postcode":"2200","lat":123,"lng":456},{"postcode":"2200","lat":123,"lng":456},{"postcode":"3122","lat":123,"lng":456},{"postcode":"7250","lat":123,"lng":456},{"postcode":"2316","lat":123,"lng":456},{"postcode":"3067","lat":123,"lng":456},{"postcode":"3066","lat":123,"lng":456},{"postcode":"2390","lat":123,"lng":456},{"postcode":"2800","lat":123,"lng":456},{"postcode":"3186","lat":123,"lng":456},{"postcode":"4012","lat":123,"lng":456},{"postcode":"4207","lat":123,"lng":456},{"postcode":"3977","lat":123,"lng":456},{"postcode":"2259","lat":123,"lng":456},{"postcode":"3048","lat":123,"lng":456},{"postcode":"7330","lat":123,"lng":456},{"postcode":"4503","lat":123,"lng":456},{"postcode":"7330","lat":123,"lng":456},{"postcode":"3166","lat":123,"lng":456},{"postcode":"2830","lat":123,"lng":456},{"postcode":"2300","lat":123,"lng":456},{"postcode":"2832","lat":123,"lng":456},{"postcode":"2444","lat":123,"lng":456},{"postcode":"3280","lat":123,"lng":456},{"postcode":"4122","lat":123,"lng":456},{"postcode":"2632","lat":123,"lng":456},{"postcode":"3185","lat":123,"lng":456},{"postcode":"2535","lat":123,"lng":456},{"postcode":"3937","lat":123,"lng":456},{"postcode":"2666","lat":123,"lng":456},{"postcode":"2430","lat":123,"lng":456},{"postcode":"3701","lat":123,"lng":456},{"postcode":"3235","lat":123,"lng":456},{"postcode":"4171","lat":123,"lng":456},{"postcode":"3031","lat":123,"lng":456},{"postcode":"2601","lat":123,"lng":456},{"postcode":"2360","lat":123,"lng":456},{"postcode":"7000","lat":123,"lng":456},{"postcode":"3000","lat":123,"lng":456},{"postcode":"4207","lat":123,"lng":456},{"postcode":"2429","lat":123,"lng":456},{"postcode":"3181","lat":123,"lng":456},{"postcode":"2541","lat":123,"lng":456},{"postcode":"7109","lat":123,"lng":456},{"postcode":"7009","lat":123,"lng":456},{"postcode":"2350","lat":123,"lng":456},{"postcode":"4030","lat":123,"lng":456},{"postcode":"3058","lat":123,"lng":456},{"postcode":"4034","lat":123,"lng":456},{"postcode":"4122","lat":123,"lng":456},{"postcode":"4122","lat":123,"lng":456},{"postcode":"4110","lat":123,"lng":456},{"postcode":"2481","lat":123,"lng":456},{"postcode":"3377","lat":123,"lng":456},{"postcode":"3072","lat":123,"lng":456},{"postcode":"4159","lat":123,"lng":456},{"postcode":"4183","lat":123,"lng":456},{"postcode":"3919","lat":123,"lng":456},{"postcode":"3126","lat":123,"lng":456},{"postcode":"4157","lat":123,"lng":456},{"postcode":"4305","lat":123,"lng":456},{"postcode":"3910","lat":123,"lng":456},{"postcode":"3130","lat":123,"lng":456},{"postcode":"4034","lat":123,"lng":456},{"postcode":"4034","lat":123,"lng":456},{"postcode":"2611","lat":123,"lng":456},{"postcode":"4000","lat":123,"lng":456},{"postcode":"2380","lat":123,"lng":456},{"postcode":"2774","lat":123,"lng":456},{"postcode":"3181","lat":123,"lng":456},{"postcode":"4068","lat":123,"lng":456},{"postcode":"2780","lat":123,"lng":456},{"postcode":"2428","lat":123,"lng":456},{"postcode":"3204","lat":123,"lng":456},{"postcode":"3184","lat":123,"lng":456},{"postcode":"3216","lat":123,"lng":456},{"postcode":"2261","lat":123,"lng":456},{"postcode":"4034","lat":123,"lng":456},{"postcode":"2424","lat":123,"lng":456},{"postcode":"7306","lat":123,"lng":456},{"postcode":"2261","lat":123,"lng":456},{"postcode":"2570","lat":123,"lng":456},{"postcode":"4178","lat":123,"lng":456},{"postcode":"4020","lat":123,"lng":456},{"postcode":"3121","lat":123,"lng":456},{"postcode":"3451","lat":123,"lng":456},{"postcode":"2263","lat":123,"lng":456},{"postcode":"4171","lat":123,"lng":456},{"postcode":"4157","lat":123,"lng":456},{"postcode":"3851","lat":123,"lng":456},{"postcode":"4173","lat":123,"lng":456},{"postcode":"3000","lat":123,"lng":456},{"postcode":"3053","lat":123,"lng":456},{"postcode":"4000","lat":123,"lng":456},{"postcode":"2340","lat":123,"lng":456},{"postcode":"3055","lat":123,"lng":456},{"postcode":"2480","lat":123,"lng":456},{"postcode":"2325","lat":123,"lng":456},{"postcode":"3057","lat":123,"lng":456},{"postcode":"2551","lat":123,"lng":456},{"postcode":"2484","lat":123,"lng":456},{"postcode":"4503","lat":123,"lng":456},{"postcode":"4012","lat":123,"lng":456},{"postcode":"4077","lat":123,"lng":456},{"postcode":"3160","lat":123,"lng":456},{"postcode":"3082","lat":123,"lng":456},{"postcode":"2850","lat":123,"lng":456},{"postcode":"3205","lat":123,"lng":456},{"postcode":"2671","lat":123,"lng":456},{"postcode":"3034","lat":123,"lng":456},{"postcode":"3071","lat":123,"lng":456},{"postcode":"4109","lat":123,"lng":456},{"postcode":"2800","lat":123,"lng":456},{"postcode":"3168","lat":123,"lng":456},{"postcode":"2601","lat":123,"lng":456},{"postcode":"2601","lat":123,"lng":456},{"postcode":"2601","lat":123,"lng":456},{"postcode":"3284","lat":123,"lng":456},{"postcode":"3000","lat":123,"lng":456},{"postcode":"3000","lat":123,"lng":456},{"postcode":"7310","lat":123,"lng":456},{"postcode":"3146","lat":123,"lng":456},{"postcode":"3337","lat":123,"lng":456},{"postcode":"4000","lat":123,"lng":456},{"postcode":"3168","lat":123,"lng":456},{"postcode":"3865","lat":123,"lng":456},{"postcode":"7330","lat":123,"lng":456},{"postcode":"3011","lat":123,"lng":456},{"postcode":"3011","lat":123,"lng":456},{"postcode":"3013","lat":123,"lng":456},{"postcode":"3058","lat":123,"lng":456},{"postcode":"4059","lat":123,"lng":456},{"postcode":"4000","lat":123,"lng":456},{"postcode":"3951","lat":123,"lng":456},{"postcode":"4000","lat":123,"lng":456},{"postcode":"3400","lat":123,"lng":456},{"postcode":"3629","lat":123,"lng":456},{"postcode":"3400","lat":123,"lng":456},{"postcode":"3168","lat":123,"lng":456},{"postcode":"3207","lat":123,"lng":456},{"postcode":"2370","lat":123,"lng":456},{"postcode":"2844","lat":123,"lng":456},{"postcode":"2440","lat":123,"lng":456},{"postcode":"7016","lat":123,"lng":456},{"postcode":"3220","lat":123,"lng":456},{"postcode":"3053","lat":123,"lng":456},{"postcode":"2536","lat":123,"lng":456},{"postcode":"3485","lat":123,"lng":456},{"postcode":"2358","lat":123,"lng":456},{"postcode":"3064","lat":123,"lng":456},{"postcode":"4305","lat":123,"lng":456},{"postcode":"2614","lat":123,"lng":456},{"postcode":"2780","lat":123,"lng":456},{"postcode":"3494","lat":123,"lng":456},{"postcode":"3630","lat":123,"lng":456},{"postcode":"3067","lat":123,"lng":456},{"postcode":"3270","lat":123,"lng":456},{"postcode":"2529","lat":123,"lng":456},{"postcode":"2529","lat":123,"lng":456},{"postcode":"2430","lat":123,"lng":456},{"postcode":"3966","lat":123,"lng":456},{"postcode":"3218","lat":123,"lng":456},{"postcode":"3051","lat":123,"lng":456},{"postcode":"7310","lat":123,"lng":456},{"postcode":"4017","lat":123,"lng":456},{"postcode":"2533","lat":123,"lng":456},{"postcode":"7250","lat":123,"lng":456},{"postcode":"3723","lat":123,"lng":456},{"postcode":"3172","lat":123,"lng":456},{"postcode":"4007","lat":123,"lng":456},{"postcode":"3078","lat":123,"lng":456},{"postcode":"3078","lat":123,"lng":456},{"postcode":"2564","lat":123,"lng":456},{"postcode":"3130","lat":123,"lng":456},{"postcode":"3977","lat":123,"lng":456},{"postcode":"3214","lat":123,"lng":456},{"postcode":"3020","lat":123,"lng":456},{"postcode":"2800","lat":123,"lng":456},{"postcode":"3418","lat":123,"lng":456},{"postcode":"3124","lat":123,"lng":456},{"postcode":"2827","lat":123,"lng":456},{"postcode":"2575","lat":123,"lng":456},{"postcode":"3182","lat":123,"lng":456},{"postcode":"4019","lat":123,"lng":456},{"postcode":"3220","lat":123,"lng":456},{"postcode":"3232","lat":123,"lng":456},{"postcode":"7008","lat":123,"lng":456},{"postcode":"2450","lat":123,"lng":456},{"postcode":"3039","lat":123,"lng":456},{"postcode":"2800","lat":123,"lng":456},{"postcode":"3500","lat":123,"lng":456},{"postcode":"4507","lat":123,"lng":456},{"postcode":"3500","lat":123,"lng":456},{"postcode":"3000","lat":123,"lng":456},{"postcode":"7215","lat":123,"lng":456},{"postcode":"3340","lat":123,"lng":456},{"postcode":"3175","lat":123,"lng":456},{"postcode":"3280","lat":123,"lng":456},{"postcode":"4017","lat":123,"lng":456},{"postcode":"3207","lat":123,"lng":456},{"postcode":"4019","lat":123,"lng":456},{"postcode":"3002","lat":123,"lng":456},{"postcode":"3767","lat":123,"lng":456},{"postcode":"3984","lat":123,"lng":456},{"postcode":"3678","lat":123,"lng":456},{"postcode":"4165","lat":123,"lng":456},{"postcode":"2720","lat":123,"lng":456},{"postcode":"2830","lat":123,"lng":456},{"postcode":"2551","lat":123,"lng":456},{"postcode":"3136","lat":123,"lng":456},{"postcode":"4059","lat":123,"lng":456},{"postcode":"4178","lat":123,"lng":456},{"postcode":"4068","lat":123,"lng":456},{"postcode":"3002","lat":123,"lng":456},{"postcode":"4503","lat":123,"lng":456},{"postcode":"3175","lat":123,"lng":456},{"postcode":"4101","lat":123,"lng":456},{"postcode":"3053","lat":123,"lng":456},{"postcode":"2484","lat":123,"lng":456},{"postcode":"2484","lat":123,"lng":456},{"postcode":"3218","lat":123,"lng":456},{"postcode":"4020","lat":123,"lng":456},{"postcode":"4114","lat":123,"lng":456},{"postcode":"3131","lat":123,"lng":456},{"postcode":"2474","lat":123,"lng":456},{"postcode":"2590","lat":123,"lng":456},{"postcode":"2800","lat":123,"lng":456},{"postcode":"3913","lat":123,"lng":456},{"postcode":"7177","lat":123,"lng":456},{"postcode":"2480","lat":123,"lng":456},{"postcode":"3019","lat":123,"lng":456},{"postcode":"4870","lat":123,"lng":456},{"postcode":"4503","lat":123,"lng":456},{"postcode":"3280","lat":123,"lng":456},{"postcode":"2560","lat":123,"lng":456},{"postcode":"3220","lat":123,"lng":456},{"postcode":"3146","lat":123,"lng":456},{"postcode":"3095","lat":123,"lng":456},{"postcode":"7140","lat":123,"lng":456},{"postcode":"3073","lat":123,"lng":456},{"postcode":"2759","lat":123,"lng":456},{"postcode":"4870","lat":123,"lng":456},{"postcode":"3065","lat":123,"lng":456},{"postcode":"3065","lat":123,"lng":456},{"postcode":"3832","lat":123,"lng":456},{"postcode":"7004","lat":123,"lng":456},{"postcode":"2430","lat":123,"lng":456},{"postcode":"3198","lat":123,"lng":456},{"postcode":"2480","lat":123,"lng":456},{"postcode":"2480","lat":123,"lng":456},{"postcode":"3182","lat":123,"lng":456},{"postcode":"4507","lat":123,"lng":456},{"postcode":"4012","lat":123,"lng":456},{"postcode":"4077","lat":123,"lng":456},{"postcode":"4077","lat":123,"lng":456},{"postcode":"4077","lat":123,"lng":456},{"postcode":"2790","lat":123,"lng":456},{"postcode":"3340","lat":123,"lng":456},{"postcode":"3052","lat":123,"lng":456},{"postcode":"3169","lat":123,"lng":456},{"postcode":"2505","lat":123,"lng":456},{"postcode":"4173","lat":123,"lng":456},{"postcode":"3160","lat":123,"lng":456},{"postcode":"2770","lat":123,"lng":456},{"postcode":"2770","lat":123,"lng":456},{"postcode":"3121","lat":123,"lng":456},{"postcode":"4870","lat":123,"lng":456},{"postcode":"4170","lat":123,"lng":456},{"postcode":"7325","lat":123,"lng":456},{"postcode":"7321","lat":123,"lng":456},{"postcode":"3450","lat":123,"lng":456},{"postcode":"3875","lat":123,"lng":456},{"postcode":"4183","lat":123,"lng":456},{"postcode":"4075","lat":123,"lng":456},{"postcode":"3030","lat":123,"lng":456},{"postcode":"3000","lat":123,"lng":456},{"postcode":"2527","lat":123,"lng":456},{"postcode":"3678","lat":123,"lng":456},{"postcode":"3243","lat":123,"lng":456},{"postcode":"3180","lat":123,"lng":456},{"postcode":"3180","lat":123,"lng":456},{"postcode":"2745","lat":123,"lng":456},{"postcode":"3925","lat":123,"lng":456},{"postcode":"3051","lat":123,"lng":456},{"postcode":"4053","lat":123,"lng":456},{"postcode":"3000","lat":123,"lng":456},{"postcode":"3205","lat":123,"lng":456},{"postcode":"3892","lat":123,"lng":456},{"postcode":"3875","lat":123,"lng":456},{"postcode":"4064","lat":123,"lng":456},{"postcode":"2790","lat":123,"lng":456},{"postcode":"7018","lat":123,"lng":456},{"postcode":"2669","lat":123,"lng":456},{"postcode":"3131","lat":123,"lng":456},{"postcode":"6616","lat":123,"lng":456},{"postcode":"3757","lat":123,"lng":456},{"postcode":"7027","lat":123,"lng":456},{"postcode":"2832","lat":123,"lng":456},{"postcode":"2469","lat":123,"lng":456},{"postcode":"4107","lat":123,"lng":456},{"postcode":"3805","lat":123,"lng":456},{"postcode":"2620","lat":123,"lng":456},{"postcode":"3055","lat":123,"lng":456},{"postcode":"2615","lat":123,"lng":456},{"postcode":"2605","lat":123,"lng":456},{"postcode":"3173","lat":123,"lng":456},{"postcode":"2830","lat":123,"lng":456},{"postcode":"2619","lat":123,"lng":456},{"postcode":"3239","lat":123,"lng":456},{"postcode":"4509","lat":123,"lng":456},{"postcode":"4077","lat":123,"lng":456},{"postcode":"3314","lat":123,"lng":456},{"postcode":"3976","lat":123,"lng":456},{"postcode":"4300","lat":123,"lng":456},{"postcode":"3175","lat":123,"lng":456},{"postcode":"3792","lat":123,"lng":456},{"postcode":"3197","lat":123,"lng":456},{"postcode":"3496","lat":123,"lng":456},{"postcode":"4017","lat":123,"lng":456},{"postcode":"2650","lat":123,"lng":456},{"postcode":"4304","lat":123,"lng":456},{"postcode":"7000","lat":123,"lng":456},{"postcode":"4017","lat":123,"lng":456},{"postcode":"2756","lat":123,"lng":456},{"postcode":"4114","lat":123,"lng":456},{"postcode":"4508","lat":123,"lng":456},{"postcode":"3186","lat":123,"lng":456},{"postcode":"4303","lat":123,"lng":456},{"postcode":"3875","lat":123,"lng":456},{"postcode":"2539","lat":123,"lng":456},{"postcode":"4000","lat":123,"lng":456},{"postcode":"3799","lat":123,"lng":456},{"postcode":"4165","lat":123,"lng":456},{"postcode":"4051","lat":123,"lng":456},{"postcode":"3135","lat":123,"lng":456},{"postcode":"3218","lat":123,"lng":456},{"postcode":"3121","lat":123,"lng":456},{"postcode":"3000","lat":123,"lng":456},{"postcode":"3199","lat":123,"lng":456},{"postcode":"3206","lat":123,"lng":456},{"postcode":"4061","lat":123,"lng":456},{"postcode":"3850","lat":123,"lng":456},{"postcode":"2550","lat":123,"lng":456},{"postcode":"3219","lat":123,"lng":456},{"postcode":"3797","lat":123,"lng":456},{"postcode":"7030","lat":123,"lng":456},{"postcode":"3146","lat":123,"lng":456},{"postcode":"3123","lat":123,"lng":456},{"postcode":"7315","lat":123,"lng":456},{"postcode":"4064","lat":123,"lng":456},{"postcode":"3084","lat":123,"lng":456},{"postcode":"2700","lat":123,"lng":456},{"postcode":"4054","lat":123,"lng":456},{"postcode":"3135","lat":123,"lng":456},{"postcode":"3216","lat":123,"lng":456},{"postcode":"3616","lat":123,"lng":456},{"postcode":"3073","lat":123,"lng":456},{"postcode":"2560","lat":123,"lng":456},{"postcode":"3940","lat":123,"lng":456},{"postcode":"4122","lat":123,"lng":456},{"postcode":"3166","lat":123,"lng":456},{"postcode":"2652","lat":123,"lng":456},{"postcode":"2580","lat":123,"lng":456},{"postcode":"7053","lat":123,"lng":456},{"postcode":"4870","lat":123,"lng":456},{"postcode":"3000","lat":123,"lng":456},{"postcode":"3000","lat":123,"lng":456},{"postcode":"4012","lat":123,"lng":456},{"postcode":"3250","lat":123,"lng":456},{"postcode":"4020","lat":123,"lng":456},{"postcode":"3141","lat":123,"lng":456},{"postcode":"7140","lat":123,"lng":456},{"postcode":"3053","lat":123,"lng":456},{"postcode":"4068","lat":123,"lng":456},{"postcode":"3844","lat":123,"lng":456},{"postcode":"4207","lat":123,"lng":456},{"postcode":"3113","lat":123,"lng":456},{"postcode":"3305","lat":123,"lng":456},{"postcode":"4101","lat":123,"lng":456},{"postcode":"2800","lat":123,"lng":456},{"postcode":"2666","lat":123,"lng":456},{"postcode":"2780","lat":123,"lng":456},{"postcode":"3072","lat":123,"lng":456},{"postcode":"3030","lat":123,"lng":456},{"postcode":"3206","lat":123,"lng":456},{"postcode":"2570","lat":123,"lng":456},{"postcode":"3054","lat":123,"lng":456},{"postcode":"3122","lat":123,"lng":456},{"postcode":"7000","lat":123,"lng":456},{"postcode":"7000","lat":123,"lng":456},{"postcode":"4109","lat":123,"lng":456},{"postcode":"3685","lat":123,"lng":456},{"postcode":"3579","lat":123,"lng":456},{"postcode":"3044","lat":123,"lng":456},{"postcode":"3182","lat":123,"lng":456},{"postcode":"4064","lat":123,"lng":456},{"postcode":"3128","lat":123,"lng":456},{"postcode":"3032","lat":123,"lng":456},{"postcode":"4101","lat":123,"lng":456},{"postcode":"4014","lat":123,"lng":456},{"postcode":"3177","lat":123,"lng":456},{"postcode":"7018","lat":123,"lng":456},{"postcode":"3028","lat":123,"lng":456},{"postcode":"2795","lat":123,"lng":456},{"postcode":"3218","lat":123,"lng":456},{"postcode":"2577","lat":123,"lng":456},{"postcode":"7172","lat":123,"lng":456},{"postcode":"3214","lat":123,"lng":456},{"postcode":"4870","lat":123,"lng":456},{"postcode":"4000","lat":123,"lng":456},{"postcode":"2795","lat":123,"lng":456},{"postcode":"3660","lat":123,"lng":456},{"postcode":"7320","lat":123,"lng":456},{"postcode":"3350","lat":123,"lng":456},{"postcode":"4020","lat":123,"lng":456},{"postcode":"3218","lat":123,"lng":456},{"postcode":"4304","lat":123,"lng":456},{"postcode":"3214","lat":123,"lng":456},{"postcode":"3995","lat":123,"lng":456},{"postcode":"3840","lat":123,"lng":456},{"postcode":"3182","lat":123,"lng":456},{"postcode":"2795","lat":123,"lng":456},{"postcode":"4152","lat":123,"lng":456},{"postcode":"2721","lat":123,"lng":456},{"postcode":"3550","lat":123,"lng":456},{"postcode":"7316","lat":123,"lng":456},{"postcode":"3660","lat":123,"lng":456},{"postcode":"7214","lat":123,"lng":456},{"postcode":"3333","lat":123,"lng":456},{"postcode":"3840","lat":123,"lng":456},{"postcode":"7320","lat":123,"lng":456},{"postcode":"3922","lat":123,"lng":456},{"postcode":"3168","lat":123,"lng":456},{"postcode":"3016","lat":123,"lng":456},{"postcode":"4111","lat":123,"lng":456},{"postcode":"4111","lat":123,"lng":456},{"postcode":"2830","lat":123,"lng":456},{"postcode":"2830","lat":123,"lng":456},{"postcode":"4055","lat":123,"lng":456},{"postcode":"3131","lat":123,"lng":456},{"postcode":"3182","lat":123,"lng":456},{"postcode":"3833","lat":123,"lng":456},{"postcode":"7054","lat":123,"lng":456},{"postcode":"3160","lat":123,"lng":456},{"postcode":"4074","lat":123,"lng":456},{"postcode":"3216","lat":123,"lng":456},{"postcode":"7248","lat":123,"lng":456},{"postcode":"4000","lat":123,"lng":456},{"postcode":"4000","lat":123,"lng":456},{"postcode":"4000","lat":123,"lng":456},{"postcode":"4000","lat":123,"lng":456},{"postcode":"4030","lat":123,"lng":456},{"postcode":"2808","lat":123,"lng":456},{"postcode":"3777","lat":123,"lng":456},{"postcode":"4122","lat":123,"lng":456},{"postcode":"3182","lat":123,"lng":456},{"postcode":"3182","lat":123,"lng":456},{"postcode":"3000","lat":123,"lng":456},{"postcode":"3140","lat":123,"lng":456},{"postcode":"3551","lat":123,"lng":456},{"postcode":"3216","lat":123,"lng":456},{"postcode":"3052","lat":123,"lng":456},{"postcode":"3278","lat":123,"lng":456},{"postcode":"3121","lat":123,"lng":456},{"postcode":"7270","lat":123,"lng":456},{"postcode":"2830","lat":123,"lng":456},{"postcode":"3501","lat":123,"lng":456},{"postcode":"3995","lat":123,"lng":456},{"postcode":"3066","lat":123,"lng":456},{"postcode":"3976","lat":123,"lng":456},{"postcode":"3976","lat":123,"lng":456},{"postcode":"3134","lat":123,"lng":456},{"postcode":"3172","lat":123,"lng":456},{"postcode":"2663","lat":123,"lng":456},{"postcode":"3195","lat":123,"lng":456},{"postcode":"3000","lat":123,"lng":456},{"postcode":"3000","lat":123,"lng":456},{"postcode":"2750","lat":123,"lng":456},{"postcode":"3030","lat":123,"lng":456},{"postcode":"4034","lat":123,"lng":456},{"postcode":"4122","lat":123,"lng":456},{"postcode":"4304","lat":123,"lng":456},{"postcode":"3186","lat":123,"lng":456},{"postcode":"4013","lat":123,"lng":456},{"postcode":"4013","lat":123,"lng":456},{"postcode":"3192","lat":123,"lng":456},{"postcode":"7270","lat":123,"lng":456},{"postcode":"3902","lat":123,"lng":456},{"postcode":"3350","lat":123,"lng":456},{"postcode":"3162","lat":123,"lng":456},{"postcode":"2830","lat":123,"lng":456},{"postcode":"3122","lat":123,"lng":456},{"postcode":"3690","lat":123,"lng":456},{"postcode":"4022","lat":123,"lng":456},{"postcode":"3061","lat":123,"lng":456},{"postcode":"4000","lat":123,"lng":456},{"postcode":"3193","lat":123,"lng":456},{"postcode":"3000","lat":123,"lng":456},{"postcode":"3051","lat":123,"lng":456},{"postcode":"3300","lat":123,"lng":456},{"postcode":"2777","lat":123,"lng":456},{"postcode":"2777","lat":123,"lng":456},{"postcode":"2777","lat":123,"lng":456},{"postcode":"3194","lat":123,"lng":456},{"postcode":"3218","lat":123,"lng":456},{"postcode":"4067","lat":123,"lng":456},{"postcode":"3081","lat":123,"lng":456},{"postcode":"7306","lat":123,"lng":456},{"postcode":"7270","lat":123,"lng":456},{"postcode":"4173","lat":123,"lng":456},{"postcode":"3168","lat":123,"lng":456},{"postcode":"3350","lat":123,"lng":456},{"postcode":"3350","lat":123,"lng":456},{"postcode":"4870","lat":123,"lng":456},{"postcode":"4114","lat":123,"lng":456},{"postcode":"4120","lat":123,"lng":456},{"postcode":"3008","lat":123,"lng":456},{"postcode":"2904","lat":123,"lng":456},{"postcode":"4000","lat":123,"lng":456},{"postcode":"3182","lat":123,"lng":456},{"postcode":"7008","lat":123,"lng":456},{"postcode":"3073","lat":123,"lng":456},{"postcode":"3388","lat":123,"lng":456},{"postcode":"4127","lat":123,"lng":456},{"postcode":"4012","lat":123,"lng":456},{"postcode":"4102","lat":123,"lng":456},{"postcode":"3075","lat":123,"lng":456},{"postcode":"7172","lat":123,"lng":456},{"postcode":"7467","lat":123,"lng":456},{"postcode":"4053","lat":123,"lng":456},{"postcode":"3338","lat":123,"lng":456},{"postcode":"4159","lat":123,"lng":456},{"postcode":"4064","lat":123,"lng":456},{"postcode":"3167","lat":123,"lng":456},{"postcode":"7030","lat":123,"lng":456},{"postcode":"3890","lat":123,"lng":456},{"postcode":"3978","lat":123,"lng":456},{"postcode":"3081","lat":123,"lng":456},{"postcode":"2826","lat":123,"lng":456},{"postcode":"3051","lat":123,"lng":456},{"postcode":"4103","lat":123,"lng":456},{"postcode":"3065","lat":123,"lng":456},{"postcode":"4000","lat":123,"lng":456},{"postcode":"3941","lat":123,"lng":456},{"postcode":"7000","lat":123,"lng":456},{"postcode":"4018","lat":123,"lng":456},{"postcode":"3074","lat":123,"lng":456},{"postcode":"3074","lat":123,"lng":456},{"postcode":"3101","lat":123,"lng":456},{"postcode":"2850","lat":123,"lng":456},{"postcode":"3109","lat":123,"lng":456},{"postcode":"3500","lat":123,"lng":456},{"postcode":"2756","lat":123,"lng":456},{"postcode":"4170","lat":123,"lng":456},{"postcode":"3630","lat":123,"lng":456},{"postcode":"2800","lat":123,"lng":456},{"postcode":"4301","lat":123,"lng":456},{"postcode":"3630","lat":123,"lng":456},{"postcode":"4868","lat":123,"lng":456},{"postcode":"3072","lat":123,"lng":456},{"postcode":"3103","lat":123,"lng":456},{"postcode":"4019","lat":123,"lng":456},{"postcode":"4152","lat":123,"lng":456},{"postcode":"3047","lat":123,"lng":456},{"postcode":"4153","lat":123,"lng":456},{"postcode":"4305","lat":123,"lng":456},{"postcode":"3058","lat":123,"lng":456},{"postcode":"4500","lat":123,"lng":456},{"postcode":"3000","lat":123,"lng":456},{"postcode":"4505","lat":123,"lng":456},{"postcode":"3012","lat":123,"lng":456},{"postcode":"4520","lat":123,"lng":456},{"postcode":"7030","lat":123,"lng":456},{"postcode":"3012","lat":123,"lng":456},{"postcode":"4520","lat":123,"lng":456},{"postcode":"3204","lat":123,"lng":456},{"postcode":"2780","lat":123,"lng":456},{"postcode":"3215","lat":123,"lng":456},{"postcode":"4305","lat":123,"lng":456},{"postcode":"4509","lat":123,"lng":456},{"postcode":"4116","lat":123,"lng":456},{"postcode":"4116","lat":123,"lng":456},{"postcode":"4012","lat":123,"lng":456},{"postcode":"4300","lat":123,"lng":456},{"postcode":"4170","lat":123,"lng":456},{"postcode":"3156","lat":123,"lng":456},{"postcode":"2850","lat":123,"lng":456},{"postcode":"3620","lat":123,"lng":456},{"postcode":"4059","lat":123,"lng":456},{"postcode":"3057","lat":123,"lng":456},{"postcode":"3057","lat":123,"lng":456},{"postcode":"7320","lat":123,"lng":456},{"postcode":"3980","lat":123,"lng":456},{"postcode":"3177","lat":123,"lng":456},{"postcode":"3280","lat":123,"lng":456},{"postcode":"7000","lat":123,"lng":456},{"postcode":"4507","lat":123,"lng":456},{"postcode":"3274","lat":123,"lng":456},{"postcode":"7010","lat":123,"lng":456},{"postcode":"3888","lat":123,"lng":456},{"postcode":"3505","lat":123,"lng":456},{"postcode":"3011","lat":123,"lng":456},{"postcode":"4500","lat":123,"lng":456},{"postcode":"3458","lat":123,"lng":456},{"postcode":"2820","lat":123,"lng":456},{"postcode":"2820","lat":123,"lng":456},{"postcode":"3559","lat":123,"lng":456},{"postcode":"3064","lat":123,"lng":456},{"postcode":"3550","lat":123,"lng":456},{"postcode":"2866","lat":123,"lng":456},{"postcode":"2795","lat":123,"lng":456},{"postcode":"3216","lat":123,"lng":456},{"postcode":"7470","lat":123,"lng":456},{"postcode":"3644","lat":123,"lng":456},{"postcode":"4068","lat":123,"lng":456},{"postcode":"4051","lat":123,"lng":456},{"postcode":"4163","lat":123,"lng":456},{"postcode":"3880","lat":123,"lng":456},{"postcode":"3677","lat":123,"lng":456},{"postcode":"4101","lat":123,"lng":456},{"postcode":"4103","lat":123,"lng":456},{"postcode":"3070","lat":123,"lng":456},{"postcode":"3875","lat":123,"lng":456},{"postcode":"4000","lat":123,"lng":456},{"postcode":"3168","lat":123,"lng":456},{"postcode":"3971","lat":123,"lng":456},{"postcode":"4170","lat":123,"lng":456},{"postcode":"3040","lat":123,"lng":456},{"postcode":"3204","lat":123,"lng":456},{"postcode":"3152","lat":123,"lng":456},{"postcode":"4870","lat":123,"lng":456},{"postcode":"4118","lat":123,"lng":456},{"postcode":"3150","lat":123,"lng":456},{"postcode":"3073","lat":123,"lng":456},{"postcode":"3065","lat":123,"lng":456},{"postcode":"3105","lat":123,"lng":456},{"postcode":"3000","lat":123,"lng":456},{"postcode":"4031","lat":123,"lng":456},{"postcode":"3056","lat":123,"lng":456},{"postcode":"3103","lat":123,"lng":456},{"postcode":"3581","lat":123,"lng":456},{"postcode":"3775","lat":123,"lng":456},{"postcode":"3559","lat":123,"lng":456},{"postcode":"3043","lat":123,"lng":456},{"postcode":"4161","lat":123,"lng":456},{"postcode":"4000","lat":123,"lng":456},{"postcode":"7321","lat":123,"lng":456},{"postcode":"4101","lat":123,"lng":456},{"postcode":"3260","lat":123,"lng":456},{"postcode":"4123","lat":123,"lng":456},{"postcode":"7250","lat":123,"lng":456},{"postcode":"4122","lat":123,"lng":456},{"postcode":"3139","lat":123,"lng":456},{"postcode":"3205","lat":123,"lng":456},{"postcode":"3182","lat":123,"lng":456},{"postcode":"2870","lat":123,"lng":456},{"postcode":"3705","lat":123,"lng":456},{"postcode":"4122","lat":123,"lng":456},{"postcode":"3196","lat":123,"lng":456},{"postcode":"7109","lat":123,"lng":456},{"postcode":"7275","lat":123,"lng":456},{"postcode":"3206","lat":123,"lng":456},{"postcode":"3000","lat":123,"lng":456},{"postcode":"3690","lat":123,"lng":456},{"postcode":"3690","lat":123,"lng":456},{"postcode":"3195","lat":123,"lng":456},{"postcode":"4020","lat":123,"lng":456},{"postcode":"3121","lat":123,"lng":456},{"postcode":"3003","lat":123,"lng":456},{"postcode":"4163","lat":123,"lng":456},{"postcode":"3072","lat":123,"lng":456},{"postcode":"3202","lat":123,"lng":456},{"postcode":"4122","lat":123,"lng":456},{"postcode":"7268","lat":123,"lng":456},{"postcode":"3153","lat":123,"lng":456},{"postcode":"4065","lat":123,"lng":456},{"postcode":"4508","lat":123,"lng":456},{"postcode":"3011","lat":123,"lng":456},{"postcode":"3550","lat":123,"lng":456},{"postcode":"4005","lat":123,"lng":456},{"postcode":"4170","lat":123,"lng":456},{"postcode":"3550","lat":123,"lng":456},{"postcode":"3127","lat":123,"lng":456},{"postcode":"4077","lat":123,"lng":456},{"postcode":"3043","lat":123,"lng":456},{"postcode":"3141","lat":123,"lng":456},{"postcode":"3008","lat":123,"lng":456},{"postcode":"4102","lat":123,"lng":456},{"postcode":"4131","lat":123,"lng":456},{"postcode":"4131","lat":123,"lng":456},{"postcode":"4131","lat":123,"lng":456},{"postcode":"4131","lat":123,"lng":456},{"postcode":"3128","lat":123,"lng":456},{"postcode":"3199","lat":123,"lng":456},{"postcode":"3690","lat":123,"lng":456},{"postcode":"3825","lat":123,"lng":456},{"postcode":"3019","lat":123,"lng":456},{"postcode":"4128","lat":123,"lng":456},{"postcode":"3350","lat":123,"lng":456},{"postcode":"4129","lat":123,"lng":456},{"postcode":"4161","lat":123,"lng":456},{"postcode":"7011","lat":123,"lng":456},{"postcode":"3672","lat":123,"lng":456},{"postcode":"7011","lat":123,"lng":456},{"postcode":"4165","lat":123,"lng":456},{"postcode":"4165","lat":123,"lng":456},{"postcode":"3730","lat":123,"lng":456},{"postcode":"3516","lat":123,"lng":456},{"postcode":"4179","lat":123,"lng":456},{"postcode":"3810","lat":123,"lng":456},{"postcode":"4207","lat":123,"lng":456},{"postcode":"3121","lat":123,"lng":456},{"postcode":"7005","lat":123,"lng":456},{"postcode":"7005","lat":123,"lng":456},{"postcode":"3071","lat":123,"lng":456},{"postcode":"3169","lat":123,"lng":456},{"postcode":"3137","lat":123,"lng":456},{"postcode":"4035","lat":123,"lng":456},{"postcode":"7316","lat":123,"lng":456},{"postcode":"3350","lat":123,"lng":456},{"postcode":"7112","lat":123,"lng":456},{"postcode":"3350","lat":123,"lng":456},{"postcode":"3025","lat":123,"lng":456},{"postcode":"3030","lat":123,"lng":456},{"postcode":"3174","lat":123,"lng":456},{"postcode":"3166","lat":123,"lng":456},{"postcode":"3146","lat":123,"lng":456},{"postcode":"4031","lat":123,"lng":456},{"postcode":"3087","lat":123,"lng":456},{"postcode":"7252","lat":123,"lng":456},{"postcode":"3429","lat":123,"lng":456},{"postcode":"3199","lat":123,"lng":456},{"postcode":"4507","lat":123,"lng":456},{"postcode":"3065","lat":123,"lng":456},{"postcode":"3249","lat":123,"lng":456},{"postcode":"7256","lat":123,"lng":456},{"postcode":"7305","lat":123,"lng":456},{"postcode":"4017","lat":123,"lng":456},{"postcode":"7000","lat":123,"lng":456},{"postcode":"7215","lat":123,"lng":456},{"postcode":"7109","lat":123,"lng":456},{"postcode":"4000","lat":123,"lng":456},{"postcode":"7216","lat":123,"lng":456},{"postcode":"3280","lat":123,"lng":456},{"postcode":"4503","lat":123,"lng":456},{"postcode":"7004","lat":123,"lng":456},{"postcode":"3052","lat":123,"lng":456},{"postcode":"3238","lat":123,"lng":456},{"postcode":"4128","lat":123,"lng":456},{"postcode":"3309","lat":123,"lng":456},{"postcode":"3977","lat":123,"lng":456},{"postcode":"3018","lat":123,"lng":456},{"postcode":"3844","lat":123,"lng":456},{"postcode":"3840","lat":123,"lng":456},{"postcode":"4108","lat":123,"lng":456},{"postcode":"4184","lat":123,"lng":456},{"postcode":"3612","lat":123,"lng":456},{"postcode":"7249","lat":123,"lng":456},{"postcode":"3067","lat":123,"lng":456},{"postcode":"4305","lat":123,"lng":456},{"postcode":"3550","lat":123,"lng":456},{"postcode":"3182","lat":123,"lng":456},{"postcode":"3730","lat":123,"lng":456},{"postcode":"4303","lat":123,"lng":456},{"postcode":"4114","lat":123,"lng":456},{"postcode":"4116","lat":123,"lng":456},{"postcode":"3640","lat":123,"lng":456},{"postcode":"3074","lat":123,"lng":456},{"postcode":"3699","lat":123,"lng":456},{"postcode":"4121","lat":123,"lng":456},{"postcode":"3805","lat":123,"lng":456},{"postcode":"7009","lat":123,"lng":456},{"postcode":"7170","lat":123,"lng":456},{"postcode":"7304","lat":123,"lng":456},{"postcode":"3629","lat":123,"lng":456},{"postcode":"3816","lat":123,"lng":456},{"postcode":"3165","lat":123,"lng":456},{"postcode":"3166","lat":123,"lng":456},{"postcode":"3030","lat":123,"lng":456},{"postcode":"7265","lat":123,"lng":456},{"postcode":"3101","lat":123,"lng":456},{"postcode":"3825","lat":123,"lng":456},{"postcode":"7301","lat":123,"lng":456},{"postcode":"3048","lat":123,"lng":456},{"postcode":"3143","lat":123,"lng":456},{"postcode":"4025","lat":123,"lng":456},{"postcode":"3444","lat":123,"lng":456},{"postcode":"3144","lat":123,"lng":456},{"postcode":"7011","lat":123,"lng":456},{"postcode":"3072","lat":123,"lng":456},{"postcode":"3072","lat":123,"lng":456},{"postcode":"3023","lat":123,"lng":456},{"postcode":"3550","lat":123,"lng":456},{"postcode":"3280","lat":123,"lng":456},{"postcode":"4207","lat":123,"lng":456},{"postcode":"4304","lat":123,"lng":456},{"postcode":"4031","lat":123,"lng":456},{"postcode":"3199","lat":123,"lng":456},{"postcode":"3350","lat":123,"lng":456},{"postcode":"7023","lat":123,"lng":456},{"postcode":"7000","lat":123,"lng":456},{"postcode":"3444","lat":123,"lng":456},{"postcode":"3124","lat":123,"lng":456},{"postcode":"7250","lat":123,"lng":456},{"postcode":"3363","lat":123,"lng":456},{"postcode":"3630","lat":123,"lng":456},{"postcode":"3550","lat":123,"lng":456},{"postcode":"3134","lat":123,"lng":456},{"postcode":"4020","lat":123,"lng":456},{"postcode":"3022","lat":123,"lng":456},{"postcode":"4160","lat":123,"lng":456},{"postcode":"4868","lat":123,"lng":456},{"postcode":"3960","lat":123,"lng":456},{"postcode":"3175","lat":123,"lng":456},{"postcode":"3070","lat":123,"lng":456},{"postcode":"4305","lat":123,"lng":456},{"postcode":"4300","lat":123,"lng":456},{"postcode":"4300","lat":123,"lng":456},{"postcode":"4300","lat":123,"lng":456},{"postcode":"4300","lat":123,"lng":456},{"postcode":"3018","lat":123,"lng":456},{"postcode":"4115","lat":123,"lng":456},{"postcode":"3002","lat":123,"lng":456},{"postcode":"3002","lat":123,"lng":456},{"postcode":"4000","lat":123,"lng":456},{"postcode":"4502","lat":123,"lng":456},{"postcode":"4502","lat":123,"lng":456},{"postcode":"3020","lat":123,"lng":456},{"postcode":"3550","lat":123,"lng":456},{"postcode":"3000","lat":123,"lng":456},{"postcode":"3889","lat":123,"lng":456},{"postcode":"3977","lat":123,"lng":456},{"postcode":"3805","lat":123,"lng":456},{"postcode":"3927","lat":123,"lng":456},{"postcode":"4305","lat":123,"lng":456},{"postcode":"4305","lat":123,"lng":456},{"postcode":"3199","lat":123,"lng":456},{"postcode":"3199","lat":123,"lng":456},{"postcode":"3551","lat":123,"lng":456},{"postcode":"3859","lat":123,"lng":456},{"postcode":"3844","lat":123,"lng":456},{"postcode":"3280","lat":123,"lng":456},{"postcode":"3123","lat":123,"lng":456},{"postcode":"3379","lat":123,"lng":456},{"postcode":"7009","lat":123,"lng":456},{"postcode":"3714","lat":123,"lng":456},{"postcode":"3147","lat":123,"lng":456},{"postcode":"3031","lat":123,"lng":456},{"postcode":"4114","lat":123,"lng":456},{"postcode":"4114","lat":123,"lng":456},{"postcode":"4114","lat":123,"lng":456},{"postcode":"3690","lat":123,"lng":456},{"postcode":"4059","lat":123,"lng":456},{"postcode":"4122","lat":123,"lng":456},{"postcode":"4074","lat":123,"lng":456},{"postcode":"3351","lat":123,"lng":456},{"postcode":"3529","lat":123,"lng":456},{"postcode":"4006","lat":123,"lng":456},{"postcode":"3047","lat":123,"lng":456},{"postcode":"3330","lat":123,"lng":456},{"postcode":"7030","lat":123,"lng":456},{"postcode":"3688","lat":123,"lng":456},{"postcode":"3039","lat":123,"lng":456},{"postcode":"3068","lat":123,"lng":456},{"postcode":"3747","lat":123,"lng":456},{"postcode":"4053","lat":123,"lng":456},{"postcode":"3568","lat":123,"lng":456},{"postcode":"3163","lat":123,"lng":456},{"postcode":"3260","lat":123,"lng":456},{"postcode":"4207","lat":123,"lng":456},{"postcode":"4000","lat":123,"lng":456},{"postcode":"3177","lat":123,"lng":456},{"postcode":"3429","lat":123,"lng":456},{"postcode":"3215","lat":123,"lng":456},{"postcode":"3723","lat":123,"lng":456},{"postcode":"7310","lat":123,"lng":456},{"postcode":"3400","lat":123,"lng":456},{"postcode":"3807","lat":123,"lng":456},{"postcode":"4007","lat":123,"lng":456},{"postcode":"4109","lat":123,"lng":456},{"postcode":"4118","lat":123,"lng":456},{"postcode":"7310","lat":123,"lng":456},{"postcode":"3182","lat":123,"lng":456},{"postcode":"3070","lat":123,"lng":456},{"postcode":"3414","lat":123,"lng":456},{"postcode":"4034","lat":123,"lng":456},{"postcode":"4000","lat":123,"lng":456},{"postcode":"3356","lat":123,"lng":456},{"postcode":"4017","lat":123,"lng":456},{"postcode":"4109","lat":123,"lng":456},{"postcode":"3797","lat":123,"lng":456},{"postcode":"3205","lat":123,"lng":456},{"postcode":"3163","lat":123,"lng":456},{"postcode":"7275","lat":123,"lng":456},{"postcode":"7005","lat":123,"lng":456},{"postcode":"4122","lat":123,"lng":456},{"postcode":"3139","lat":123,"lng":456},{"postcode":"7212","lat":123,"lng":456},{"postcode":"7212","lat":123,"lng":456},{"postcode":"4065","lat":123,"lng":456},{"postcode":"3377","lat":123,"lng":456},{"postcode":"4105","lat":123,"lng":456},{"postcode":"3224","lat":123,"lng":456},{"postcode":"4000","lat":123,"lng":456},{"postcode":"3850","lat":123,"lng":456},{"postcode":"3977","lat":123,"lng":456},{"postcode":"7250","lat":123,"lng":456},{"postcode":"4114","lat":123,"lng":456},{"postcode":"4064","lat":123,"lng":456},{"postcode":"4178","lat":123,"lng":456},{"postcode":"4178","lat":123,"lng":456},{"postcode":"4178","lat":123,"lng":456},{"postcode":"4014","lat":123,"lng":456},{"postcode":"3903","lat":123,"lng":456},{"postcode":"3337","lat":123,"lng":456},{"postcode":"3107","lat":123,"lng":456},{"postcode":"3350","lat":123,"lng":456},{"postcode":"4068","lat":123,"lng":456},{"postcode":"3152","lat":123,"lng":456},{"postcode":"3205","lat":123,"lng":456},{"postcode":"3218","lat":123,"lng":456},{"postcode":"4179","lat":123,"lng":456},{"postcode":"3167","lat":123,"lng":456},{"postcode":"3977","lat":123,"lng":456},{"postcode":"4051","lat":123,"lng":456},{"postcode":"3175","lat":123,"lng":456},{"postcode":"4051","lat":123,"lng":456},{"postcode":"4000","lat":123,"lng":456},{"postcode":"3803","lat":123,"lng":456},{"postcode":"4171","lat":123,"lng":456},{"postcode":"3351","lat":123,"lng":456},{"postcode":"4069","lat":123,"lng":456},{"postcode":"4304","lat":123,"lng":456},{"postcode":"7250","lat":123,"lng":456},{"postcode":"3350","lat":123,"lng":456},{"postcode":"4158","lat":123,"lng":456},{"postcode":"3433","lat":123,"lng":456},{"postcode":"3887","lat":123,"lng":456},{"postcode":"3352","lat":123,"lng":456},{"postcode":"4060","lat":123,"lng":456},{"postcode":"3335","lat":123,"lng":456},{"postcode":"3183","lat":123,"lng":456},{"postcode":"3181","lat":123,"lng":456},{"postcode":"3523","lat":123,"lng":456},{"postcode":"3280","lat":123,"lng":456},{"postcode":"3840","lat":123,"lng":456},{"postcode":"3437","lat":123,"lng":456},{"postcode":"7320","lat":123,"lng":456},{"postcode":"3482","lat":123,"lng":456},{"postcode":"3630","lat":123,"lng":456},{"postcode":"3266","lat":123,"lng":456},{"postcode":"3567","lat":123,"lng":456},{"postcode":"3228","lat":123,"lng":456},{"postcode":"3331","lat":123,"lng":456},{"postcode":"3815","lat":123,"lng":456},{"postcode":"3941","lat":123,"lng":456},{"postcode":"3888","lat":123,"lng":456},{"postcode":"3458","lat":123,"lng":456},{"postcode":"3987","lat":123,"lng":456},{"postcode":"3677","lat":123,"lng":456},{"postcode":"4059","lat":123,"lng":456},{"postcode":"3387","lat":123,"lng":456},{"postcode":"7248","lat":123,"lng":456},{"postcode":"3171","lat":123,"lng":456},{"postcode":"7304","lat":123,"lng":456},{"postcode":"4507","lat":123,"lng":456},{"postcode":"4500","lat":123,"lng":456},{"postcode":"4076","lat":123,"lng":456},{"postcode":"4014","lat":123,"lng":456},{"postcode":"3637","lat":123,"lng":456},{"postcode":"4105","lat":123,"lng":456},{"postcode":"4171","lat":123,"lng":456},{"postcode":"3678","lat":123,"lng":456},{"postcode":"3351","lat":123,"lng":456},{"postcode":"4504","lat":123,"lng":456},{"postcode":"4300","lat":123,"lng":456},{"postcode":"3564","lat":123,"lng":456},{"postcode":"7018","lat":123,"lng":456},{"postcode":"3498","lat":123,"lng":456},{"postcode":"7250","lat":123,"lng":456},{"postcode":"4060","lat":123,"lng":456},{"postcode":"3185","lat":123,"lng":456},{"postcode":"3741","lat":123,"lng":456},{"postcode":"3205","lat":123,"lng":456},{"postcode":"3213","lat":123,"lng":456},{"postcode":"3356","lat":123,"lng":456},{"postcode":"3971","lat":123,"lng":456},{"postcode":"3500","lat":123,"lng":456},{"postcode":"4012","lat":123,"lng":456},{"postcode":"3272","lat":123,"lng":456},{"postcode":"7330","lat":123,"lng":456},{"postcode":"3711","lat":123,"lng":456},{"postcode":"3660","lat":123,"lng":456},{"postcode":"3207","lat":123,"lng":456},{"postcode":"3931","lat":123,"lng":456},{"postcode":"3922","lat":123,"lng":456},{"postcode":"7253","lat":123,"lng":456},{"postcode":"4101","lat":123,"lng":456},{"postcode":"4053","lat":123,"lng":456},{"postcode":"3185","lat":123,"lng":456},{"postcode":"7010","lat":123,"lng":456},{"postcode":"3616","lat":123,"lng":456},{"postcode":"3214","lat":123,"lng":456},{"postcode":"3194","lat":123,"lng":456},{"postcode":"4110","lat":123,"lng":456},{"postcode":"3779","lat":123,"lng":456},{"postcode":"7310","lat":123,"lng":456},{"postcode":"3847","lat":123,"lng":456},{"postcode":"4102","lat":123,"lng":456},{"postcode":"3962","lat":123,"lng":456},{"postcode":"3241","lat":123,"lng":456},{"postcode":"7320","lat":123,"lng":456},{"postcode":"3181","lat":123,"lng":456},{"postcode":"3199","lat":123,"lng":456},{"postcode":"4000","lat":123,"lng":456},{"postcode":"4102","lat":123,"lng":456},{"postcode":"3204","lat":123,"lng":456},{"postcode":"3220","lat":123,"lng":456},{"postcode":"3195","lat":123,"lng":456},{"postcode":"4005","lat":123,"lng":456},{"postcode":"3196","lat":123,"lng":456},{"postcode":"4054","lat":123,"lng":456},{"postcode":"3355","lat":123,"lng":456},{"postcode":"4000","lat":123,"lng":456},{"postcode":"3215","lat":123,"lng":456},{"postcode":"4122","lat":123,"lng":456},{"postcode":"3850","lat":123,"lng":456},{"postcode":"4101","lat":123,"lng":456},{"postcode":"7140","lat":123,"lng":456},{"postcode":"3690","lat":123,"lng":456},{"postcode":"4005","lat":123,"lng":456},{"postcode":"4305","lat":123,"lng":456},{"postcode":"3478","lat":123,"lng":456},{"postcode":"3977","lat":123,"lng":456},{"postcode":"4101","lat":123,"lng":456},{"postcode":"3956","lat":123,"lng":456},{"postcode":"3355","lat":123,"lng":456},{"postcode":"3305","lat":123,"lng":456},{"postcode":"7250","lat":123,"lng":456},{"postcode":"3550","lat":123,"lng":456},{"postcode":"4132","lat":123,"lng":456},{"postcode":"3269","lat":123,"lng":456},{"postcode":"3854","lat":123,"lng":456},{"postcode":"3555","lat":123,"lng":456},{"postcode":"3361","lat":123,"lng":456},{"postcode":"7248","lat":123,"lng":456},{"postcode":"4169","lat":123,"lng":456},{"postcode":"4178","lat":123,"lng":456},{"postcode":"3825","lat":123,"lng":456},{"postcode":"3300","lat":123,"lng":456},{"postcode":"3984","lat":123,"lng":456},{"postcode":"4006","lat":123,"lng":456},{"postcode":"4006","lat":123,"lng":456},{"postcode":"3840","lat":123,"lng":456},{"postcode":"3910","lat":123,"lng":456},{"postcode":"4870","lat":123,"lng":456},{"postcode":"7330","lat":123,"lng":456},{"postcode":"3500","lat":123,"lng":456},{"postcode":"4000","lat":123,"lng":456},{"postcode":"4000","lat":123,"lng":456},{"postcode":"3564","lat":123,"lng":456},{"postcode":"4018","lat":123,"lng":456},{"postcode":"3698","lat":123,"lng":456},{"postcode":"3799","lat":123,"lng":456},{"postcode":"4078","lat":123,"lng":456},{"postcode":"3630","lat":123,"lng":456},{"postcode":"4078","lat":123,"lng":456},{"postcode":"3673","lat":123,"lng":456},{"postcode":"4059","lat":123,"lng":456},{"postcode":"4051","lat":123,"lng":456},{"postcode":"3500","lat":123,"lng":456},{"postcode":"4077","lat":123,"lng":456},{"postcode":"4034","lat":123,"lng":456},{"postcode":"3723","lat":123,"lng":456},{"postcode":"4068","lat":123,"lng":456},{"postcode":"7000","lat":123,"lng":456},{"postcode":"3649","lat":123,"lng":456},{"postcode":"4000","lat":123,"lng":456},{"postcode":"7209","lat":123,"lng":456},{"postcode":"4032","lat":123,"lng":456},{"postcode":"3630","lat":123,"lng":456},{"postcode":"7468","lat":123,"lng":456},{"postcode":"3687","lat":123,"lng":456},{"postcode":"4109","lat":123,"lng":456},{"postcode":"3540","lat":123,"lng":456},{"postcode":"6642","lat":123,"lng":456},{"postcode":"3825","lat":123,"lng":456},{"postcode":"4305","lat":123,"lng":456},{"postcode":"7250","lat":123,"lng":456},{"postcode":"4301","lat":123,"lng":456},{"postcode":"3840","lat":123,"lng":456},{"postcode":"4184","lat":123,"lng":456},{"postcode":"3280","lat":123,"lng":456},{"postcode":"3614","lat":123,"lng":456},{"postcode":"4101","lat":123,"lng":456},{"postcode":"3978","lat":123,"lng":456},{"postcode":"4007","lat":123,"lng":456},{"postcode":"7250","lat":123,"lng":456},{"postcode":"4067","lat":123,"lng":456},{"postcode":"3918","lat":123,"lng":456},{"postcode":"4101","lat":123,"lng":456},{"postcode":"4500","lat":123,"lng":456},{"postcode":"7008","lat":123,"lng":456},{"postcode":"3797","lat":123,"lng":456},{"postcode":"4178","lat":123,"lng":456},{"postcode":"3500","lat":123,"lng":456},{"postcode":"4113","lat":123,"lng":456},{"postcode":"4870","lat":123,"lng":456},{"postcode":"3317","lat":123,"lng":456},{"postcode":"4179","lat":123,"lng":456},{"postcode":"3337","lat":123,"lng":456},{"postcode":"7468","lat":123,"lng":456},{"postcode":"4032","lat":123,"lng":456},{"postcode":"4005","lat":123,"lng":456},{"postcode":"3850","lat":123,"lng":456},{"postcode":"7310","lat":123,"lng":456},{"postcode":"3496","lat":123,"lng":456},{"postcode":"3579","lat":123,"lng":456},{"postcode":"3546","lat":123,"lng":456},{"postcode":"7250","lat":123,"lng":456},{"postcode":"4507","lat":123,"lng":456},{"postcode":"4051","lat":123,"lng":456},{"postcode":"4118","lat":123,"lng":456},{"postcode":"3550","lat":123,"lng":456},{"postcode":"4102","lat":123,"lng":456},{"postcode":"4102","lat":123,"lng":456},{"postcode":"3777","lat":123,"lng":456},{"postcode":"3789","lat":123,"lng":456},{"postcode":"4053","lat":123,"lng":456},{"postcode":"4305","lat":123,"lng":456},{"postcode":"4305","lat":123,"lng":456},{"postcode":"4078","lat":123,"lng":456},{"postcode":"3783","lat":123,"lng":456},{"postcode":"3564","lat":123,"lng":456},{"postcode":"4114","lat":123,"lng":456},{"postcode":"4065","lat":123,"lng":456},{"postcode":"4006","lat":123,"lng":456},{"postcode":"4006","lat":123,"lng":456},{"postcode":"4060","lat":123,"lng":456},{"postcode":"4031","lat":123,"lng":456},{"postcode":"7009","lat":123,"lng":456},{"postcode":"4020","lat":123,"lng":456},{"postcode":"3673","lat":123,"lng":456},{"postcode":"3888","lat":123,"lng":456},{"postcode":"4305","lat":123,"lng":456},{"postcode":"4006","lat":123,"lng":456},{"postcode":"3616","lat":123,"lng":456},{"postcode":"4020","lat":123,"lng":456},{"postcode":"7322","lat":123,"lng":456},{"postcode":"7018","lat":123,"lng":456},{"postcode":"7005","lat":123,"lng":456},{"postcode":"7050","lat":123,"lng":456},{"postcode":"3355","lat":123,"lng":456},{"postcode":"3977","lat":123,"lng":456},{"postcode":"3699","lat":123,"lng":456},{"postcode":"3390","lat":123,"lng":456},{"postcode":"4005","lat":123,"lng":456},{"postcode":"4303","lat":123,"lng":456},{"postcode":"4124","lat":123,"lng":456},{"postcode":"4303","lat":123,"lng":456},{"postcode":"3400","lat":123,"lng":456},{"postcode":"3835","lat":123,"lng":456},{"postcode":"4521","lat":123,"lng":456},{"postcode":"4131","lat":123,"lng":456},{"postcode":"4131","lat":123,"lng":456},{"postcode":"3795","lat":123,"lng":456},{"postcode":"4113","lat":123,"lng":456},{"postcode":"3562","lat":123,"lng":456},{"postcode":"4116","lat":123,"lng":456},{"postcode":"4151","lat":123,"lng":456},{"postcode":"4151","lat":123,"lng":456},{"postcode":"4305","lat":123,"lng":456},{"postcode":"4053","lat":123,"lng":456},{"postcode":"4118","lat":123,"lng":456},{"postcode":"3555","lat":123,"lng":456},{"postcode":"3630","lat":123,"lng":456},{"postcode":"4020","lat":123,"lng":456},{"postcode":"3888","lat":123,"lng":456},{"postcode":"4118","lat":123,"lng":456},{"postcode":"4118","lat":123,"lng":456},{"postcode":"4118","lat":123,"lng":456},{"postcode":"3669","lat":123,"lng":456},{"postcode":"3424","lat":123,"lng":456},{"postcode":"7140","lat":123,"lng":456},{"postcode":"3900","lat":123,"lng":456},{"postcode":"4113","lat":123,"lng":456},{"postcode":"4101","lat":123,"lng":456},{"postcode":"7260","lat":123,"lng":456},{"postcode":"4076","lat":123,"lng":456},{"postcode":"3412","lat":123,"lng":456},{"postcode":"7019","lat":123,"lng":456},{"postcode":"4014","lat":123,"lng":456},{"postcode":"4000","lat":123,"lng":456},{"postcode":"4000","lat":123,"lng":456},{"postcode":"4006","lat":123,"lng":456},{"postcode":"4030","lat":123,"lng":456},{"postcode":"4019","lat":123,"lng":456},{"postcode":"3936","lat":123,"lng":456},{"postcode":"4021","lat":123,"lng":456},{"postcode":"4021","lat":123,"lng":456},{"postcode":"4503","lat":123,"lng":456},{"postcode":"4012","lat":123,"lng":456},{"postcode":"4006","lat":123,"lng":456},{"postcode":"7173","lat":123,"lng":456},{"postcode":"7250","lat":123,"lng":456},{"postcode":"7250","lat":123,"lng":456},{"postcode":"3438","lat":123,"lng":456},{"postcode":"3889","lat":123,"lng":456},{"postcode":"4053","lat":123,"lng":456},{"postcode":"4014","lat":123,"lng":456},{"postcode":"4069","lat":123,"lng":456},{"postcode":"4101","lat":123,"lng":456},{"postcode":"7216","lat":123,"lng":456},{"postcode":"3723","lat":123,"lng":456},{"postcode":"4122","lat":123,"lng":456},{"postcode":"4036","lat":123,"lng":456},{"postcode":"4122","lat":123,"lng":456},{"postcode":"3544","lat":123,"lng":456},{"postcode":"4110","lat":123,"lng":456},{"postcode":"3808","lat":123,"lng":456},{"postcode":"4067","lat":123,"lng":456},{"postcode":"7263","lat":123,"lng":456},{"postcode":"4000","lat":123,"lng":456},{"postcode":"3930","lat":123,"lng":456},{"postcode":"3797","lat":123,"lng":456},{"postcode":"4101","lat":123,"lng":456},{"postcode":"4103","lat":123,"lng":456},{"postcode":"3805","lat":123,"lng":456},{"postcode":"4000","lat":123,"lng":456},{"postcode":"4000","lat":123,"lng":456},{"postcode":"4051","lat":123,"lng":456},{"postcode":"4122","lat":123,"lng":456},{"postcode":"4017","lat":123,"lng":456},{"postcode":"3818","lat":123,"lng":456},{"postcode":"4178","lat":123,"lng":456},{"postcode":"4110","lat":123,"lng":456},{"postcode":"4110","lat":123,"lng":456},{"postcode":"3942","lat":123,"lng":456},{"postcode":"4171","lat":123,"lng":456},{"postcode":"4151","lat":123,"lng":456},{"postcode":"3500","lat":123,"lng":456},{"postcode":"4011","lat":123,"lng":456},{"postcode":"4011","lat":123,"lng":456},{"postcode":"4019","lat":123,"lng":456},{"postcode":"4000","lat":123,"lng":456},{"postcode":"3799","lat":123,"lng":456},{"postcode":"4020","lat":123,"lng":456},{"postcode":"4007","lat":123,"lng":456},{"postcode":"4132","lat":123,"lng":456},{"postcode":"4012","lat":123,"lng":456},{"postcode":"4305","lat":123,"lng":456},{"postcode":"7250","lat":123,"lng":456},{"postcode":"7050","lat":123,"lng":456},{"postcode":"3959","lat":123,"lng":456},{"postcode":"4160","lat":123,"lng":456},{"postcode":"3500","lat":123,"lng":456},{"postcode":"3840","lat":123,"lng":456},{"postcode":"7291","lat":123,"lng":456},{"postcode":"3564","lat":123,"lng":456},{"postcode":"3550","lat":123,"lng":456},{"postcode":"4101","lat":123,"lng":456},{"postcode":"4101","lat":123,"lng":456},{"postcode":"4507","lat":123,"lng":456},{"postcode":"4101","lat":123,"lng":456},{"postcode":"4105","lat":123,"lng":456},{"postcode":"3500","lat":123,"lng":456},{"postcode":"7155","lat":123,"lng":456},{"postcode":"3782","lat":123,"lng":456},{"postcode":"4500","lat":123,"lng":456},{"postcode":"3832","lat":123,"lng":456},{"postcode":"3909","lat":123,"lng":456},{"postcode":"4076","lat":123,"lng":456},{"postcode":"4017","lat":123,"lng":456},{"postcode":"4508","lat":123,"lng":456},{"postcode":"4508","lat":123,"lng":456},{"postcode":"4075","lat":123,"lng":456},{"postcode":"7005","lat":123,"lng":456},{"postcode":"4034","lat":123,"lng":456},{"postcode":"4103","lat":123,"lng":456},{"postcode":"3460","lat":123,"lng":456},{"postcode":"4034","lat":123,"lng":456},{"postcode":"7190","lat":123,"lng":456},{"postcode":"4127","lat":123,"lng":456},{"postcode":"4055","lat":123,"lng":456},{"postcode":"4000","lat":123,"lng":456},{"postcode":"3806","lat":123,"lng":456},{"postcode":"4305","lat":123,"lng":456},{"postcode":"3977","lat":123,"lng":456},{"postcode":"3844","lat":123,"lng":456},{"postcode":"4205","lat":123,"lng":456},{"postcode":"4017","lat":123,"lng":456},{"postcode":"6646","lat":123,"lng":456},{"postcode":"7030","lat":123,"lng":456},{"postcode":"3708","lat":123,"lng":456},{"postcode":"3672","lat":123,"lng":456},{"postcode":"3825","lat":123,"lng":456},{"postcode":"7140","lat":123,"lng":456},{"postcode":"3610","lat":123,"lng":456},{"postcode":"3691","lat":123,"lng":456},{"postcode":"4012","lat":123,"lng":456},{"postcode":"3555","lat":123,"lng":456},{"postcode":"4017","lat":123,"lng":456},{"postcode":"3763","lat":123,"lng":456},{"postcode":"4870","lat":123,"lng":456},{"postcode":"6642","lat":123,"lng":456},{"postcode":"3775","lat":123,"lng":456},{"postcode":"4507","lat":123,"lng":456},{"postcode":"4017","lat":123,"lng":456},{"postcode":"4165","lat":123,"lng":456},{"postcode":"7000","lat":123,"lng":456},{"postcode":"7321","lat":123,"lng":456},{"postcode":"3549","lat":123,"lng":456},{"postcode":"7250","lat":123,"lng":456},{"postcode":"4000","lat":123,"lng":456},{"postcode":"3521","lat":123,"lng":456},{"postcode":"3666","lat":123,"lng":456},{"postcode":"7019","lat":123,"lng":456},{"postcode":"3909","lat":123,"lng":456},{"postcode":"3803","lat":123,"lng":456},{"postcode":"7325","lat":123,"lng":456},{"postcode":"3818","lat":123,"lng":456},{"postcode":"4066","lat":123,"lng":456},{"postcode":"4051","lat":123,"lng":456},{"postcode":"7015","lat":123,"lng":456},{"postcode":"7320","lat":123,"lng":456},{"postcode":"3799","lat":123,"lng":456},{"postcode":"4021","lat":123,"lng":456},{"postcode":"3911","lat":123,"lng":456},{"postcode":"3527","lat":123,"lng":456},{"postcode":"4014","lat":123,"lng":456},{"postcode":"3608","lat":123,"lng":456},{"postcode":"7250","lat":123,"lng":456},{"postcode":"4305","lat":123,"lng":456},{"postcode":"4120","lat":123,"lng":456},{"postcode":"3550","lat":123,"lng":456},{"postcode":"3926","lat":123,"lng":456},{"postcode":"3799","lat":123,"lng":456},{"postcode":"4000","lat":123,"lng":456},{"postcode":"7315","lat":123,"lng":456},{"postcode":"4000","lat":123,"lng":456},{"postcode":"4000","lat":123,"lng":456},{"postcode":"4000","lat":123,"lng":456},{"postcode":"4000","lat":123,"lng":456},{"postcode":"4000","lat":123,"lng":456},{"postcode":"4005","lat":123,"lng":456},{"postcode":"7030","lat":123,"lng":456},{"postcode":"4013","lat":123,"lng":456},{"postcode":"3620","lat":123,"lng":456},{"postcode":"3844","lat":123,"lng":456},{"postcode":"3638","lat":123,"lng":456},{"postcode":"6620","lat":123,"lng":456},{"postcode":"4060","lat":123,"lng":456},{"postcode":"4066","lat":123,"lng":456},{"postcode":"7248","lat":123,"lng":456},{"postcode":"3566","lat":123,"lng":456},{"postcode":"7469","lat":123,"lng":456},{"postcode":"3796","lat":123,"lng":456},{"postcode":"4114","lat":123,"lng":456},{"postcode":"7321","lat":123,"lng":456},{"postcode":"4030","lat":123,"lng":456},{"postcode":"3630","lat":123,"lng":456},{"postcode":"4103","lat":123,"lng":456},{"postcode":"4508","lat":123,"lng":456},{"postcode":"7022","lat":123,"lng":456},{"postcode":"4006","lat":123,"lng":456},{"postcode":"4006","lat":123,"lng":456},{"postcode":"4013","lat":123,"lng":456},{"postcode":"4051","lat":123,"lng":456},{"postcode":"3722","lat":123,"lng":456},{"postcode":"4070","lat":123,"lng":456},{"postcode":"4107","lat":123,"lng":456},{"postcode":"4868","lat":123,"lng":456},{"postcode":"4064","lat":123,"lng":456},{"postcode":"4114","lat":123,"lng":456},{"postcode":"4101","lat":123,"lng":456},{"postcode":"4305","lat":123,"lng":456},{"postcode":"3666","lat":123,"lng":456},{"postcode":"4504","lat":123,"lng":456},{"postcode":"3629","lat":123,"lng":456},{"postcode":"3931","lat":123,"lng":456},{"postcode":"7249","lat":123,"lng":456},{"postcode":"6623","lat":123,"lng":456},{"postcode":"4151","lat":123,"lng":456},{"postcode":"4031","lat":123,"lng":456},{"postcode":"7010","lat":123,"lng":456},{"postcode":"4300","lat":123,"lng":456},{"postcode":"4151","lat":123,"lng":456},{"postcode":"4075","lat":123,"lng":456},{"postcode":"3777","lat":123,"lng":456},{"postcode":"3850","lat":123,"lng":456},{"postcode":"4011","lat":123,"lng":456},{"postcode":"4151","lat":123,"lng":456},{"postcode":"4171","lat":123,"lng":456},{"postcode":"3691","lat":123,"lng":456},{"postcode":"3635","lat":123,"lng":456},{"postcode":"4305","lat":123,"lng":456},{"postcode":"3796","lat":123,"lng":456},{"postcode":"4077","lat":123,"lng":456},{"postcode":"7109","lat":123,"lng":456},{"postcode":"7292","lat":123,"lng":456},{"postcode":"3814","lat":123,"lng":456},{"postcode":"4064","lat":123,"lng":456},{"postcode":"4000","lat":123,"lng":456},{"postcode":"4000","lat":123,"lng":456},{"postcode":"4305","lat":123,"lng":456},{"postcode":"7008","lat":123,"lng":456},{"postcode":"3799","lat":123,"lng":456},{"postcode":"3758","lat":123,"lng":456},{"postcode":"4060","lat":123,"lng":456},{"postcode":"4010","lat":123,"lng":456},{"postcode":"4019","lat":123,"lng":456},{"postcode":"3777","lat":123,"lng":456},{"postcode":"7210","lat":123,"lng":456},{"postcode":"7248","lat":123,"lng":456},{"postcode":"4301","lat":123,"lng":456},{"postcode":"7307","lat":123,"lng":456},{"postcode":"3677","lat":123,"lng":456},{"postcode":"7008","lat":123,"lng":456},{"postcode":"3690","lat":123,"lng":456},{"postcode":"4304","lat":123,"lng":456},{"postcode":"4074","lat":123,"lng":456},{"postcode":"7140","lat":123,"lng":456},{"postcode":"3860","lat":123,"lng":456},{"postcode":"3822","lat":123,"lng":456},{"postcode":"7315","lat":123,"lng":456},{"postcode":"3803","lat":123,"lng":456},{"postcode":"4012","lat":123,"lng":456},{"postcode":"3931","lat":123,"lng":456},{"postcode":"3799","lat":123,"lng":456},{"postcode":"7113","lat":123,"lng":456},{"postcode":"4070","lat":123,"lng":456},{"postcode":"4109","lat":123,"lng":456},{"postcode":"4000","lat":123,"lng":456},{"postcode":"4000","lat":123,"lng":456},{"postcode":"7162","lat":123,"lng":456},{"postcode":"7000","lat":123,"lng":456},{"postcode":"7018","lat":123,"lng":456},{"postcode":"3799","lat":123,"lng":456},{"postcode":"3782","lat":123,"lng":456},{"postcode":"4034","lat":123,"lng":456},{"postcode":"4165","lat":123,"lng":456},{"postcode":"4500","lat":123,"lng":456},{"postcode":"7054","lat":123,"lng":456},{"postcode":"3672","lat":123,"lng":456},{"postcode":"4000","lat":123,"lng":456},{"postcode":"4077","lat":123,"lng":456},{"postcode":"4109","lat":123,"lng":456},{"postcode":"3825","lat":123,"lng":456},{"postcode":"3672","lat":123,"lng":456},{"postcode":"7325","lat":123,"lng":456},{"postcode":"4503","lat":123,"lng":456},{"postcode":"7011","lat":123,"lng":456},{"postcode":"7112","lat":123,"lng":456},{"postcode":"7310","lat":123,"lng":456},{"postcode":"4000","lat":123,"lng":456},{"postcode":"4000","lat":123,"lng":456},{"postcode":"6646","lat":123,"lng":456},{"postcode":"4109","lat":123,"lng":456},{"postcode":"4000","lat":123,"lng":456},{"postcode":"7250","lat":123,"lng":456},{"postcode":"4109","lat":123,"lng":456},{"postcode":"4017","lat":123,"lng":456},{"postcode":"7249","lat":123,"lng":456},{"postcode":"4500","lat":123,"lng":456},{"postcode":"3995","lat":123,"lng":456},{"postcode":"4300","lat":123,"lng":456},{"postcode":"3807","lat":123,"lng":456},{"postcode":"3910","lat":123,"lng":456},{"postcode":"7010","lat":123,"lng":456},{"postcode":"4109","lat":123,"lng":456},{"postcode":"3728","lat":123,"lng":456},{"postcode":"4066","lat":123,"lng":456},{"postcode":"7019","lat":123,"lng":456},{"postcode":"4114","lat":123,"lng":456},{"postcode":"7215","lat":123,"lng":456},{"postcode":"3726","lat":123,"lng":456},{"postcode":"3857","lat":123,"lng":456},{"postcode":"7252","lat":123,"lng":456},{"postcode":"4169","lat":123,"lng":456},{"postcode":"4157","lat":123,"lng":456},{"postcode":"4030","lat":123,"lng":456},{"postcode":"7016","lat":123,"lng":456},{"postcode":"4108","lat":123,"lng":456},{"postcode":"7004","lat":123,"lng":456},{"postcode":"3960","lat":123,"lng":456},{"postcode":"4163","lat":123,"lng":456},{"postcode":"7010","lat":123,"lng":456},{"postcode":"4000","lat":123,"lng":456},{"postcode":"4034","lat":123,"lng":456},{"postcode":"4304","lat":123,"lng":456},{"postcode":"4129","lat":123,"lng":456},{"postcode":"3850","lat":123,"lng":456},{"postcode":"7260","lat":123,"lng":456},{"postcode":"3851","lat":123,"lng":456},{"postcode":"3675","lat":123,"lng":456},{"postcode":"3749","lat":123,"lng":456},{"postcode":"3691","lat":123,"lng":456},{"postcode":"4305","lat":123,"lng":456},{"postcode":"3844","lat":123,"lng":456},{"postcode":"3844","lat":123,"lng":456},{"postcode":"4505","lat":123,"lng":456},{"postcode":"4064","lat":123,"lng":456},{"postcode":"3922","lat":123,"lng":456},{"postcode":"4305","lat":123,"lng":456},{"postcode":"7000","lat":123,"lng":456},{"postcode":"3909","lat":123,"lng":456},{"postcode":"4128","lat":123,"lng":456},{"postcode":"4051","lat":123,"lng":456},{"postcode":"7000","lat":123,"lng":456},{"postcode":"4010","lat":123,"lng":456},{"postcode":"4010","lat":123,"lng":456},{"postcode":"4010","lat":123,"lng":456},{"postcode":"4125","lat":123,"lng":456},{"postcode":"4179","lat":123,"lng":456},{"postcode":"7250","lat":123,"lng":456},{"postcode":"4151","lat":123,"lng":456},{"postcode":"4006","lat":123,"lng":456},{"postcode":"3944","lat":123,"lng":456},{"postcode":"3701","lat":123,"lng":456},{"postcode":"4053","lat":123,"lng":456},{"postcode":"4101","lat":123,"lng":456},{"postcode":"4110","lat":123,"lng":456},{"postcode":"3860","lat":123,"lng":456},{"postcode":"4157","lat":123,"lng":456},{"postcode":"7310","lat":123,"lng":456},{"postcode":"3825","lat":123,"lng":456},{"postcode":"4105","lat":123,"lng":456},{"postcode":"4114","lat":123,"lng":456},{"postcode":"4114","lat":123,"lng":456},{"postcode":"3922","lat":123,"lng":456},{"postcode":"7140","lat":123,"lng":456},{"postcode":"4103","lat":123,"lng":456},{"postcode":"4160","lat":123,"lng":456},{"postcode":"4128","lat":123,"lng":456},{"postcode":"4128","lat":123,"lng":456},{"postcode":"4120","lat":123,"lng":456},{"postcode":"7306","lat":123,"lng":456},{"postcode":"7306","lat":123,"lng":456},{"postcode":"3752","lat":123,"lng":456},{"postcode":"3787","lat":123,"lng":456},{"postcode":"4106","lat":123,"lng":456},{"postcode":"7010","lat":123,"lng":456},{"postcode":"4500","lat":123,"lng":456},{"postcode":"4101","lat":123,"lng":456},{"postcode":"7025","lat":123,"lng":456},{"postcode":"4101","lat":123,"lng":456},{"postcode":"4006","lat":123,"lng":456},{"postcode":"4034","lat":123,"lng":456},{"postcode":"7250","lat":123,"lng":456},{"postcode":"7315","lat":123,"lng":456},{"postcode":"7315","lat":123,"lng":456},{"postcode":"4127","lat":123,"lng":456},{"postcode":"4006","lat":123,"lng":456},{"postcode":"4127","lat":123,"lng":456},{"postcode":"7259","lat":123,"lng":456},{"postcode":"4032","lat":123,"lng":456},{"postcode":"4032","lat":123,"lng":456},{"postcode":"4032","lat":123,"lng":456},{"postcode":"7010","lat":123,"lng":456},{"postcode":"7010","lat":123,"lng":456},{"postcode":"7150","lat":123,"lng":456},{"postcode":"4018","lat":123,"lng":456},{"postcode":"3799","lat":123,"lng":456},{"postcode":"7163","lat":123,"lng":456},{"postcode":"3833","lat":123,"lng":456},{"postcode":"7216","lat":123,"lng":456},{"postcode":"7190","lat":123,"lng":456},{"postcode":"4000","lat":123,"lng":456},{"postcode":"4170","lat":123,"lng":456},{"postcode":"4102","lat":123,"lng":456},{"postcode":"7302","lat":123,"lng":456},{"postcode":"7018","lat":123,"lng":456},{"postcode":"4305","lat":123,"lng":456},{"postcode":"4305","lat":123,"lng":456},{"postcode":"7250","lat":123,"lng":456},{"postcode":"7010","lat":123,"lng":456},{"postcode":"7030","lat":123,"lng":456},{"postcode":"7315","lat":123,"lng":456},{"postcode":"7009","lat":123,"lng":456},{"postcode":"4069","lat":123,"lng":456},{"postcode":"4011","lat":123,"lng":456},{"postcode":"7018","lat":123,"lng":456},{"postcode":"4051","lat":123,"lng":456},{"postcode":"4005","lat":123,"lng":456},{"postcode":"4034","lat":123,"lng":456},{"postcode":"4034","lat":123,"lng":456},{"postcode":"4034","lat":123,"lng":456},{"postcode":"3940","lat":123,"lng":456},{"postcode":"7109","lat":123,"lng":456},{"postcode":"3777","lat":123,"lng":456},{"postcode":"4300","lat":123,"lng":456},{"postcode":"3878","lat":123,"lng":456},{"postcode":"4114","lat":123,"lng":456},{"postcode":"4114","lat":123,"lng":456},{"postcode":"7303","lat":123,"lng":456},{"postcode":"7011","lat":123,"lng":456},{"postcode":"4053","lat":123,"lng":456},{"postcode":"4053","lat":123,"lng":456},{"postcode":"4105","lat":123,"lng":456},{"postcode":"4030","lat":123,"lng":456},{"postcode":"7178","lat":123,"lng":456},{"postcode":"4066","lat":123,"lng":456},{"postcode":"4109","lat":123,"lng":456},{"postcode":"4508","lat":123,"lng":456},{"postcode":"4507","lat":123,"lng":456},{"postcode":"7140","lat":123,"lng":456},{"postcode":"4102","lat":123,"lng":456},{"postcode":"4207","lat":123,"lng":456},{"postcode":"7015","lat":123,"lng":456},{"postcode":"4034","lat":123,"lng":456},{"postcode":"3923","lat":123,"lng":456},{"postcode":"7320","lat":123,"lng":456},{"postcode":"4169","lat":123,"lng":456},{"postcode":"7248","lat":123,"lng":456},{"postcode":"4000","lat":123,"lng":456},{"postcode":"7005","lat":123,"lng":456},{"postcode":"7000","lat":123,"lng":456},{"postcode":"4120","lat":123,"lng":456},{"postcode":"4105","lat":123,"lng":456},{"postcode":"4303","lat":123,"lng":456},{"postcode":"4108","lat":123,"lng":456},{"postcode":"3934","lat":123,"lng":456},{"postcode":"3869","lat":123,"lng":456},{"postcode":"4520","lat":123,"lng":456},{"postcode":"7249","lat":123,"lng":456},{"postcode":"4019","lat":123,"lng":456},{"postcode":"7320","lat":123,"lng":456},{"postcode":"4157","lat":123,"lng":456},{"postcode":"4006","lat":123,"lng":456},{"postcode":"3992","lat":123,"lng":456},{"postcode":"4179","lat":123,"lng":456},{"postcode":"4125","lat":123,"lng":456},{"postcode":"4034","lat":123,"lng":456},{"postcode":"4103","lat":123,"lng":456},{"postcode":"4120","lat":123,"lng":456},{"postcode":"4179","lat":123,"lng":456},{"postcode":"4101","lat":123,"lng":456},{"postcode":"4870","lat":123,"lng":456},{"postcode":"4164","lat":123,"lng":456},{"postcode":"7004","lat":123,"lng":456},{"postcode":"3809","lat":123,"lng":456},{"postcode":"4306","lat":123,"lng":456},{"postcode":"4300","lat":123,"lng":456},{"postcode":"7010","lat":123,"lng":456},{"postcode":"4870","lat":123,"lng":456},{"postcode":"3859","lat":123,"lng":456},{"postcode":"3931","lat":123,"lng":456},{"postcode":"4115","lat":123,"lng":456},{"postcode":"7116","lat":123,"lng":456},{"postcode":"4500","lat":123,"lng":456},{"postcode":"4305","lat":123,"lng":456},{"postcode":"4127","lat":123,"lng":456},{"postcode":"4077","lat":123,"lng":456},{"postcode":"7250","lat":123,"lng":456},{"postcode":"4104","lat":123,"lng":456},{"postcode":"4034","lat":123,"lng":456},{"postcode":"4017","lat":123,"lng":456},{"postcode":"7216","lat":123,"lng":456},{"postcode":"4163","lat":123,"lng":456},{"postcode":"4014","lat":123,"lng":456},{"postcode":"4169","lat":123,"lng":456},{"postcode":"7007","lat":123,"lng":456},{"postcode":"4000","lat":123,"lng":456},{"postcode":"4060","lat":123,"lng":456},{"postcode":"4105","lat":123,"lng":456},{"postcode":"4101","lat":123,"lng":456},{"postcode":"4012","lat":123,"lng":456},{"postcode":"4184","lat":123,"lng":456},{"postcode":"7000","lat":123,"lng":456},{"postcode":"3850","lat":123,"lng":456},{"postcode":"3885","lat":123,"lng":456},{"postcode":"4059","lat":123,"lng":456},{"postcode":"4020","lat":123,"lng":456},{"postcode":"4114","lat":123,"lng":456},{"postcode":"4170","lat":123,"lng":456},{"postcode":"4010","lat":123,"lng":456},{"postcode":"4123","lat":123,"lng":456},{"postcode":"4032","lat":123,"lng":456},{"postcode":"4006","lat":123,"lng":456},{"postcode":"7216","lat":123,"lng":456},{"postcode":"3851","lat":123,"lng":456},{"postcode":"7000","lat":123,"lng":456},{"postcode":"4077","lat":123,"lng":456},{"postcode":"4030","lat":123,"lng":456},{"postcode":"4870","lat":123,"lng":456},{"postcode":"4159","lat":123,"lng":456},{"postcode":"4000","lat":123,"lng":456},{"postcode":"7008","lat":123,"lng":456},{"postcode":"4183","lat":123,"lng":456},{"postcode":"4305","lat":123,"lng":456},{"postcode":"7030","lat":123,"lng":456},{"postcode":"7302","lat":123,"lng":456},{"postcode":"4017","lat":123,"lng":456},{"postcode":"4005","lat":123,"lng":456},{"postcode":"4305","lat":123,"lng":456},{"postcode":"4500","lat":123,"lng":456},{"postcode":"4069","lat":123,"lng":456},{"postcode":"3996","lat":123,"lng":456},{"postcode":"4076","lat":123,"lng":456},{"postcode":"4060","lat":123,"lng":456},{"postcode":"4032","lat":123,"lng":456},{"postcode":"7140","lat":123,"lng":456},{"postcode":"4127","lat":123,"lng":456},{"postcode":"3971","lat":123,"lng":456},{"postcode":"7250","lat":123,"lng":456},{"postcode":"4501","lat":123,"lng":456},{"postcode":"4103","lat":123,"lng":456},{"postcode":"4870","lat":123,"lng":456},{"postcode":"4008","lat":123,"lng":456},{"postcode":"7255","lat":123,"lng":456},{"postcode":"4037","lat":123,"lng":456},{"postcode":"4131","lat":123,"lng":456},{"postcode":"7212","lat":123,"lng":456},{"postcode":"4503","lat":123,"lng":456},{"postcode":"3889","lat":123,"lng":456},{"postcode":"3886","lat":123,"lng":456},{"postcode":"4306","lat":123,"lng":456},{"postcode":"7019","lat":123,"lng":456},{"postcode":"4120","lat":123,"lng":456},{"postcode":"7315","lat":123,"lng":456},{"postcode":"4020","lat":123,"lng":456},{"postcode":"4178","lat":123,"lng":456},{"postcode":"4132","lat":123,"lng":456},{"postcode":"4305","lat":123,"lng":456},{"postcode":"3895","lat":123,"lng":456},{"postcode":"7252","lat":123,"lng":456},{"postcode":"4010","lat":123,"lng":456},{"postcode":"7010","lat":123,"lng":456},{"postcode":"4161","lat":123,"lng":456},{"postcode":"4161","lat":123,"lng":456},{"postcode":"7264","lat":123,"lng":456},{"postcode":"4005","lat":123,"lng":456},{"postcode":"7467","lat":123,"lng":456},{"postcode":"4069","lat":123,"lng":456},{"postcode":"4306","lat":123,"lng":456},{"postcode":"4055","lat":123,"lng":456},{"postcode":"4103","lat":123,"lng":456},{"postcode":"7179","lat":123,"lng":456},{"postcode":"4305","lat":123,"lng":456},{"postcode":"7140","lat":123,"lng":456},{"postcode":"7010","lat":123,"lng":456},{"postcode":"4508","lat":123,"lng":456},{"postcode":"4011","lat":123,"lng":456},{"postcode":"7215","lat":123,"lng":456},{"postcode":"7173","lat":123,"lng":456},{"postcode":"4179","lat":123,"lng":456},{"postcode":"4164","lat":123,"lng":456},{"postcode":"4066","lat":123,"lng":456},{"postcode":"4114","lat":123,"lng":456},{"postcode":"4207","lat":123,"lng":456},{"postcode":"4005","lat":123,"lng":456},{"postcode":"4034","lat":123,"lng":456},{"postcode":"4007","lat":123,"lng":456},{"postcode":"4304","lat":123,"lng":456},{"postcode":"4178","lat":123,"lng":456},{"postcode":"4305","lat":123,"lng":456},{"postcode":"7140","lat":123,"lng":456},{"postcode":"7255","lat":123,"lng":456},{"postcode":"4108","lat":123,"lng":456},{"postcode":"7306","lat":123,"lng":456},{"postcode":"4508","lat":123,"lng":456},{"postcode":"4179","lat":123,"lng":456},{"postcode":"4101","lat":123,"lng":456},{"postcode":"7018","lat":123,"lng":456},{"postcode":"4300","lat":123,"lng":456},{"postcode":"4020","lat":123,"lng":456},{"postcode":"4870","lat":123,"lng":456},{"postcode":"4870","lat":123,"lng":456},{"postcode":"4870","lat":123,"lng":456},{"postcode":"4870","lat":123,"lng":456},{"postcode":"4152","lat":123,"lng":456},{"postcode":"4000","lat":123,"lng":456},{"postcode":"4131","lat":123,"lng":456},{"postcode":"4129","lat":123,"lng":456},{"postcode":"7215","lat":123,"lng":456},{"postcode":"4105","lat":123,"lng":456},{"postcode":"4507","lat":123,"lng":456},{"postcode":"4508","lat":123,"lng":456},{"postcode":"4507","lat":123,"lng":456},{"postcode":"7140","lat":123,"lng":456},{"postcode":"4169","lat":123,"lng":456},{"postcode":"4070","lat":123,"lng":456},{"postcode":"7012","lat":123,"lng":456},{"postcode":"4005","lat":123,"lng":456},{"postcode":"4069","lat":123,"lng":456},{"postcode":"4123","lat":123,"lng":456},{"postcode":"7307","lat":123,"lng":456},{"postcode":"7250","lat":123,"lng":456},{"postcode":"4122","lat":123,"lng":456},{"postcode":"7250","lat":123,"lng":456},{"postcode":"4102","lat":123,"lng":456},{"postcode":"4006","lat":123,"lng":456},{"postcode":"4305","lat":123,"lng":456},{"postcode":"7008","lat":123,"lng":456},{"postcode":"3984","lat":123,"lng":456},{"postcode":"7250","lat":123,"lng":456},{"postcode":"4020","lat":123,"lng":456},{"postcode":"4106","lat":123,"lng":456},{"postcode":"4132","lat":123,"lng":456},{"postcode":"7330","lat":123,"lng":456},{"postcode":"7173","lat":123,"lng":456},{"postcode":"7321","lat":123,"lng":456},{"postcode":"4017","lat":123,"lng":456},{"postcode":"4059","lat":123,"lng":456},{"postcode":"4174","lat":123,"lng":456},{"postcode":"4132","lat":123,"lng":456},{"postcode":"7264","lat":123,"lng":456},{"postcode":"7306","lat":123,"lng":456},{"postcode":"7306","lat":123,"lng":456},{"postcode":"4114","lat":123,"lng":456},{"postcode":"4120","lat":123,"lng":456},{"postcode":"4000","lat":123,"lng":456},{"postcode":"4157","lat":123,"lng":456},{"postcode":"4105","lat":123,"lng":456},{"postcode":"4075","lat":123,"lng":456},{"postcode":"4103","lat":123,"lng":456},{"postcode":"4120","lat":123,"lng":456},{"postcode":"4034","lat":123,"lng":456},{"postcode":"4106","lat":123,"lng":456},{"postcode":"4000","lat":123,"lng":456},{"postcode":"4000","lat":123,"lng":456},{"postcode":"4304","lat":123,"lng":456},{"postcode":"4128","lat":123,"lng":456},{"postcode":"4122","lat":123,"lng":456},{"postcode":"4170","lat":123,"lng":456},{"postcode":"4152","lat":123,"lng":456},{"postcode":"7180","lat":123,"lng":456},{"postcode":"4127","lat":123,"lng":456},{"postcode":"7256","lat":123,"lng":456},{"postcode":"4868","lat":123,"lng":456},{"postcode":"4868","lat":123,"lng":456},{"postcode":"4502","lat":123,"lng":456},{"postcode":"4129","lat":123,"lng":456},{"postcode":"4114","lat":123,"lng":456},{"postcode":"4053","lat":123,"lng":456},{"postcode":"7253","lat":123,"lng":456},{"postcode":"7170","lat":123,"lng":456},{"postcode":"7248","lat":123,"lng":456},{"postcode":"4306","lat":123,"lng":456},{"postcode":"4305","lat":123,"lng":456},{"postcode":"4051","lat":123,"lng":456},{"postcode":"4870","lat":123,"lng":456},{"postcode":"7018","lat":123,"lng":456},{"postcode":"7054","lat":123,"lng":456},{"postcode":"4178","lat":123,"lng":456},{"postcode":"4019","lat":123,"lng":456},{"postcode":"4163","lat":123,"lng":456},{"postcode":"4017","lat":123,"lng":456},{"postcode":"4051","lat":123,"lng":456},{"postcode":"4169","lat":123,"lng":456},{"postcode":"7140","lat":123,"lng":456},{"postcode":"7330","lat":123,"lng":456},{"postcode":"4113","lat":123,"lng":456},{"postcode":"4053","lat":123,"lng":456},{"postcode":"7008","lat":123,"lng":456},{"postcode":"7120","lat":123,"lng":456},{"postcode":"7300","lat":123,"lng":456},{"postcode":"4032","lat":123,"lng":456},{"postcode":"4152","lat":123,"lng":456},{"postcode":"4305","lat":123,"lng":456},{"postcode":"4069","lat":123,"lng":456},{"postcode":"7320","lat":123,"lng":456},{"postcode":"4122","lat":123,"lng":456},{"postcode":"4060","lat":123,"lng":456},{"postcode":"7250","lat":123,"lng":456},{"postcode":"7009","lat":123,"lng":456},{"postcode":"6642","lat":123,"lng":456},{"postcode":"7310","lat":123,"lng":456},{"postcode":"4103","lat":123,"lng":456},{"postcode":"4305","lat":123,"lng":456},{"postcode":"4127","lat":123,"lng":456},{"postcode":"4102","lat":123,"lng":456},{"postcode":"4501","lat":123,"lng":456},{"postcode":"4068","lat":123,"lng":456},{"postcode":"7000","lat":123,"lng":456},{"postcode":"4305","lat":123,"lng":456},{"postcode":"4065","lat":123,"lng":456},{"postcode":"4305","lat":123,"lng":456},{"postcode":"7000","lat":123,"lng":456},{"postcode":"7120","lat":123,"lng":456},{"postcode":"4075","lat":123,"lng":456},{"postcode":"7008","lat":123,"lng":456},{"postcode":"7000","lat":123,"lng":456},{"postcode":"4184","lat":123,"lng":456},{"postcode":"7009","lat":123,"lng":456},{"postcode":"4076","lat":123,"lng":456},{"postcode":"4066","lat":123,"lng":456},{"postcode":"4170","lat":123,"lng":456},{"postcode":"4133","lat":123,"lng":456},{"postcode":"4306","lat":123,"lng":456},{"postcode":"4207","lat":123,"lng":456},{"postcode":"4178","lat":123,"lng":456},{"postcode":"4103","lat":123,"lng":456},{"postcode":"4115","lat":123,"lng":456},{"postcode":"7302","lat":123,"lng":456},{"postcode":"4870","lat":123,"lng":456},{"postcode":"4169","lat":123,"lng":456},{"postcode":"4169","lat":123,"lng":456},{"postcode":"4169","lat":123,"lng":456},{"postcode":"7310","lat":123,"lng":456},{"postcode":"4076","lat":123,"lng":456},{"postcode":"7320","lat":123,"lng":456},{"postcode":"4163","lat":123,"lng":456},{"postcode":"7306","lat":123,"lng":456},{"postcode":"4160","lat":123,"lng":456},{"postcode":"4305","lat":123,"lng":456},{"postcode":"4169","lat":123,"lng":456},{"postcode":"7310","lat":123,"lng":456},{"postcode":"4109","lat":123,"lng":456},{"postcode":"4154","lat":123,"lng":456},{"postcode":"4101","lat":123,"lng":456},{"postcode":"4101","lat":123,"lng":456},{"postcode":"7250","lat":123,"lng":456},{"postcode":"4304","lat":123,"lng":456},{"postcode":"4101","lat":123,"lng":456},{"postcode":"4170","lat":123,"lng":456},{"postcode":"7140","lat":123,"lng":456},{"postcode":"4123","lat":123,"lng":456},{"postcode":"7182","lat":123,"lng":456},{"postcode":"4152","lat":123,"lng":456},{"postcode":"4171","lat":123,"lng":456},{"postcode":"7184","lat":123,"lng":456},{"postcode":"7467","lat":123,"lng":456},{"postcode":"4114","lat":123,"lng":456},{"postcode":"4102","lat":123,"lng":456},{"postcode":"4301","lat":123,"lng":456},{"postcode":"4305","lat":123,"lng":456},{"postcode":"7030","lat":123,"lng":456},{"postcode":"7267","lat":123,"lng":456},{"postcode":"4104","lat":123,"lng":456},{"postcode":"4120","lat":123,"lng":456},{"postcode":"4305","lat":123,"lng":456},{"postcode":"4174","lat":123,"lng":456},{"postcode":"4102","lat":123,"lng":456},{"postcode":"4110","lat":123,"lng":456},{"postcode":"7117","lat":123,"lng":456},{"postcode":"7250","lat":123,"lng":456},{"postcode":"7150","lat":123,"lng":456},{"postcode":"4179","lat":123,"lng":456},{"postcode":"4108","lat":123,"lng":456},{"postcode":"4157","lat":123,"lng":456},{"postcode":"4127","lat":123,"lng":456},{"postcode":"7264","lat":123,"lng":456},{"postcode":"4152","lat":123,"lng":456},{"postcode":"4169","lat":123,"lng":456},{"postcode":"4170","lat":123,"lng":456},{"postcode":"7250","lat":123,"lng":456},{"postcode":"4121","lat":123,"lng":456},{"postcode":"4133","lat":123,"lng":456},{"postcode":"7215","lat":123,"lng":456},{"postcode":"7248","lat":123,"lng":456},{"postcode":"7005","lat":123,"lng":456},{"postcode":"7109","lat":123,"lng":456},{"postcode":"4178","lat":123,"lng":456},{"postcode":"7310","lat":123,"lng":456},{"postcode":"4124","lat":123,"lng":456},{"postcode":"4178","lat":123,"lng":456},{"postcode":"4132","lat":123,"lng":456},{"postcode":"4207","lat":123,"lng":456},{"postcode":"4169","lat":123,"lng":456},{"postcode":"7325","lat":123,"lng":456},{"postcode":"6646","lat":123,"lng":456},{"postcode":"4205","lat":123,"lng":456},{"postcode":"7215","lat":123,"lng":456},{"postcode":"6646","lat":123,"lng":456},{"postcode":"4152","lat":123,"lng":456},{"postcode":"7000","lat":123,"lng":456},{"postcode":"7000","lat":123,"lng":456},{"postcode":"4508","lat":123,"lng":456},{"postcode":"7310","lat":123,"lng":456},{"postcode":"7468","lat":123,"lng":456},{"postcode":"4507","lat":123,"lng":456},{"postcode":"7140","lat":123,"lng":456},{"postcode":"7277","lat":123,"lng":456},{"postcode":"7321","lat":123,"lng":456},{"postcode":"7261","lat":123,"lng":456},{"postcode":"7000","lat":123,"lng":456},{"postcode":"7117","lat":123,"lng":456},{"postcode":"7330","lat":123,"lng":456},{"postcode":"7155","lat":123,"lng":456},{"postcode":"7316","lat":123,"lng":456},{"postcode":"7112","lat":123,"lng":456},{"postcode":"4170","lat":123,"lng":456},{"postcode":"7150","lat":123,"lng":456},{"postcode":"6642","lat":123,"lng":456},{"postcode":"7253","lat":123,"lng":456},{"postcode":"7262","lat":123,"lng":456},{"postcode":"4870","lat":123,"lng":456},{"postcode":"7250","lat":123,"lng":456},{"postcode":"7275","lat":123,"lng":456},{"postcode":"4502","lat":123,"lng":456},{"postcode":"4305","lat":123,"lng":456},{"postcode":"4305","lat":123,"lng":456},{"postcode":"6642","lat":123,"lng":456},{"postcode":"4173","lat":123,"lng":456},{"postcode":"7005","lat":123,"lng":456},{"postcode":"4178","lat":123,"lng":456},{"postcode":"4301","lat":123,"lng":456},{"postcode":"7310","lat":123,"lng":456},{"postcode":"4183","lat":123,"lng":456},{"postcode":"4505","lat":123,"lng":456},{"postcode":"7018","lat":123,"lng":456},{"postcode":"7000","lat":123,"lng":456},{"postcode":"4207","lat":123,"lng":456},{"postcode":"7290","lat":123,"lng":456},{"postcode":"7171","lat":123,"lng":456},{"postcode":"4305","lat":123,"lng":456},{"postcode":"4300","lat":123,"lng":456},{"postcode":"4300","lat":123,"lng":456},{"postcode":"7190","lat":123,"lng":456},{"postcode":"4870","lat":123,"lng":456},{"postcode":"7260","lat":123,"lng":456},{"postcode":"4300","lat":123,"lng":456},{"postcode":"4503","lat":123,"lng":456},{"postcode":"4503","lat":123,"lng":456},{"postcode":"7254","lat":123,"lng":456},{"postcode":"7000","lat":123,"lng":456},{"postcode":"7030","lat":123,"lng":456},{"postcode":"7320","lat":123,"lng":456},{"postcode":"7310","lat":123,"lng":456},{"postcode":"7250","lat":123,"lng":456},{"postcode":"4507","lat":123,"lng":456},{"postcode":"7215","lat":123,"lng":456},{"postcode":"7000","lat":123,"lng":456},{"postcode":"7140","lat":123,"lng":456},{"postcode":"7016","lat":123,"lng":456},{"postcode":"4300","lat":123,"lng":456},{"postcode":"4305","lat":123,"lng":456},{"postcode":"7000","lat":123,"lng":456},{"postcode":"4305","lat":123,"lng":456},{"postcode":"7248","lat":123,"lng":456},{"postcode":"7170","lat":123,"lng":456},{"postcode":"7026","lat":123,"lng":456},{"postcode":"7210","lat":123,"lng":456},{"postcode":"7250","lat":123,"lng":456},{"postcode":"7316","lat":123,"lng":456},{"postcode":"7000","lat":123,"lng":456},{"postcode":"7000","lat":123,"lng":456},{"postcode":"7307","lat":123,"lng":456},{"postcode":"4507","lat":123,"lng":456},{"postcode":"4509","lat":123,"lng":456},{"postcode":"7270","lat":123,"lng":456},{"postcode":"4503","lat":123,"lng":456},{"postcode":"4300","lat":123,"lng":456},{"postcode":"4504","lat":123,"lng":456},{"postcode":"4509","lat":123,"lng":456},{"postcode":"6646","lat":123,"lng":456},{"postcode":"4871","lat":123,"lng":456},{"postcode":"4870","lat":123,"lng":456},{"postcode":"4870","lat":123,"lng":456},{"postcode":"4509","lat":123,"lng":456},{"postcode":"4870","lat":123,"lng":456},{"postcode":"7248","lat":123,"lng":456},{"postcode":"7250","lat":123,"lng":456},{"postcode":"7250","lat":123,"lng":456},{"postcode":"7216","lat":123,"lng":456},{"postcode":"4303","lat":123,"lng":456},{"postcode":"4303","lat":123,"lng":456},{"postcode":"4304","lat":123,"lng":456},{"postcode":"4305","lat":123,"lng":456},{"postcode":"4300","lat":123,"lng":456},{"postcode":"4304","lat":123,"lng":456},{"postcode":"4305","lat":123,"lng":456},{"postcode":"4305","lat":123,"lng":456},{"postcode":"7109","lat":123,"lng":456}]